{
"type": "FeatureCollection",
"name": "bicycle_track",
"crs": { "type": "name", "properties": { "name": "urn:ogc:def:crs:OGC:1.3:CRS84" } },
"features": [
{ "type": "Feature", "properties": { "SHAPE_Leng": 573.21573833599996 }, "geometry": { "type": "LineString", "coordinates": [ [ 34.819307819587863, 31.255377824366892 ], [ 34.818655085465785, 31.255140419528264 ], [ 34.81846834406268, 31.255068270292483 ], [ 34.818273885529734, 31.255072459224827 ], [ 34.818092572948068, 31.255031347686558 ], [ 34.817922812724674, 31.254882091590726 ], [ 34.816880149969258, 31.25444941935757 ], [ 34.816170075681129, 31.254199102278754 ], [ 34.815010727349126, 31.253775607336259 ], [ 34.813823690800668, 31.253332928114535 ] ] } },
{ "type": "Feature", "properties": { "SHAPE_Leng": 1257.56541939 }, "geometry": { "type": "LineString", "coordinates": [ [ 34.813834820715087, 31.253328189046307 ], [ 34.812248879228513, 31.252626562410789 ], [ 34.811385103421379, 31.251936671807591 ], [ 34.810866315491921, 31.251114198374992 ], [ 34.810349281624511, 31.249871740480845 ], [ 34.809401747828439, 31.24795979499795 ], [ 34.808815981132106, 31.247223014638855 ], [ 34.807985329638647, 31.246600018822726 ], [ 34.807353585269347, 31.246235351696928 ], [ 34.806455253243776, 31.245860311749759 ], [ 34.805523598259398, 31.245485163067585 ], [ 34.805301925976153, 31.245360387329193 ] ] } },
{ "type": "Feature", "properties": { "SHAPE_Leng": 168.55002346000001 }, "geometry": { "type": "LineString", "coordinates": [ [ 34.807472864398669, 31.251911216355396 ], [ 34.807664619829517, 31.251887944759488 ], [ 34.808006266377106, 31.251888998651989 ], [ 34.808136803907615, 31.251891787528582 ], [ 34.808308866663808, 31.25192811259603 ], [ 34.808472477756617, 31.251993045994848 ], [ 34.808673892129875, 31.252117872937561 ], [ 34.808779163327955, 31.25218501369303 ], [ 34.808942397251442, 31.252340624691669 ], [ 34.809022620014403, 31.252419619496603 ], [ 34.8090234540607, 31.252419503010238 ] ] } },
{ "type": "Feature", "properties": { "SHAPE_Leng": 53.964394510299996 }, "geometry": { "type": "LineString", "coordinates": [ [ 34.802747969378999, 31.220323429175878 ], [ 34.802184067188385, 31.220278355644595 ] ] } },
{ "type": "Feature", "properties": { "SHAPE_Leng": 153.493290492 }, "geometry": { "type": "LineString", "coordinates": [ [ 34.801512513447747, 31.220278998510032 ], [ 34.800748752978997, 31.220218974741673 ], [ 34.800237172138239, 31.220179186919562 ], [ 34.80006310452233, 31.220171481419303 ], [ 34.799926772744904, 31.220235482494115 ], [ 34.799927187853875, 31.220235841857384 ] ] } },
{ "type": "Feature", "properties": { "SHAPE_Leng": 92.403154187799998 }, "geometry": { "type": "LineString", "coordinates": [ [ 34.797962654753661, 31.2292806857571 ], [ 34.797468481501916, 31.229995372289025 ], [ 34.797468056134129, 31.229997399333701 ] ] } },
{ "type": "Feature", "properties": { "SHAPE_Leng": 367.10945624099998 }, "geometry": { "type": "LineString", "coordinates": [ [ 34.79654575313247, 31.231368987658829 ], [ 34.795545637637957, 31.232843290519021 ], [ 34.795347346874514, 31.233102766390882 ], [ 34.794638019219093, 31.234241995204755 ], [ 34.79463967876687, 31.234243432721055 ] ] } },
{ "type": "Feature", "properties": { "SHAPE_Leng": 2246.5848125699999 }, "geometry": { "type": "LineString", "coordinates": [ [ 34.773336379023853, 31.269509898312492 ], [ 34.773438653429245, 31.269542217316992 ], [ 34.773540927905252, 31.269574536240512 ], [ 34.773688862723425, 31.26962593902099 ], [ 34.773925495625491, 31.269722183655922 ], [ 34.776964729335617, 31.270973195927269 ], [ 34.778594807111993, 31.271506452987175 ], [ 34.78108286410486, 31.271781936775483 ], [ 34.781971714104849, 31.27182304270001 ], [ 34.7846153692063, 31.272098969558073 ], [ 34.786391985448063, 31.272429295478265 ], [ 34.789344324665507, 31.273278837146158 ], [ 34.792408427108157, 31.273995037512076 ], [ 34.794340195891571, 31.274440292600598 ], [ 34.795816604306914, 31.27508165662335 ], [ 34.795826634929902, 31.275075007230658 ] ] } },
{ "type": "Feature", "properties": { "SHAPE_Leng": 778.52089162499999 }, "geometry": { "type": "LineString", "coordinates": [ [ 34.793595032739049, 31.265117991851469 ], [ 34.793591041683534, 31.265397970259876 ], [ 34.793568544203488, 31.265674707588524 ], [ 34.793493187719669, 31.26607576101085 ], [ 34.793401294439391, 31.266446535119783 ], [ 34.793321862135983, 31.266612525151103 ], [ 34.793209583011667, 31.26677244485947 ], [ 34.793062121711472, 31.266930661812452 ], [ 34.792796828937959, 31.267247188283875 ], [ 34.792713739973067, 31.26740203131239 ], [ 34.792689915628621, 31.267557063246613 ], [ 34.792810824984798, 31.267862895953368 ], [ 34.793193958437634, 31.268346947624774 ], [ 34.793595408757966, 31.268878782645878 ], [ 34.794383947579988, 31.269840588230426 ], [ 34.79457317496702, 31.269982778702964 ], [ 34.794781061429561, 31.27009321016973 ], [ 34.795116709272726, 31.270212003027805 ], [ 34.795458393857189, 31.270219454572988 ], [ 34.795819738199313, 31.270177650808307 ], [ 34.796194183638178, 31.270104070337755 ] ] } },
{ "type": "Feature", "properties": { "SHAPE_Leng": 840.22080539499996 }, "geometry": { "type": "LineString", "coordinates": [ [ 34.806125403417511, 31.262617056429402 ], [ 34.807024657050071, 31.264135612313808 ], [ 34.808194383416819, 31.266086436559529 ], [ 34.808877920850904, 31.267386684592459 ], [ 34.809758083733577, 31.269508415050499 ], [ 34.8097589164393, 31.269508656611816 ] ] } },
{ "type": "Feature", "properties": { "SHAPE_Leng": 540.31122481 }, "geometry": { "type": "LineString", "coordinates": [ [ 34.807206756745529, 31.264433984620634 ], [ 34.808654334935071, 31.263713017355386 ], [ 34.809856558612182, 31.263201274536073 ], [ 34.811026049624317, 31.263880656547204 ], [ 34.812045893914558, 31.264475574198372 ], [ 34.812045941302124, 31.26446412016605 ] ] } },
{ "type": "Feature", "properties": { "SHAPE_Leng": 495.91002094499999 }, "geometry": { "type": "LineString", "coordinates": [ [ 34.811276730936086, 31.263721065047626 ], [ 34.813121298893485, 31.263726693660665 ], [ 34.814854749352222, 31.263731959074079 ], [ 34.816381661343861, 31.263973297790091 ], [ 34.816425952270151, 31.264011611794697 ], [ 34.816425999127816, 31.264000157755561 ] ] } },
{ "type": "Feature", "properties": { "SHAPE_Leng": 1609.4886328800001 }, "geometry": { "type": "LineString", "coordinates": [ [ 34.792278534393461, 31.237025241480282 ], [ 34.790616681002476, 31.235998568602408 ], [ 34.789064277483227, 31.235354035559698 ], [ 34.788898151567487, 31.235238956762675 ], [ 34.78867585654551, 31.235266873848854 ], [ 34.787788685579557, 31.234920375427176 ], [ 34.78699042948228, 31.234564614663231 ], [ 34.78520728629023, 31.233356119304883 ], [ 34.785018951775506, 31.23324096311168 ], [ 34.784663530413489, 31.233230258663319 ], [ 34.784252821098505, 31.233162100641231 ], [ 34.78368613088238, 31.233198429275777 ], [ 34.782606511981378, 31.233672151923226 ], [ 34.781259388212902, 31.23434543596322 ], [ 34.780080280597325, 31.234704267683934 ], [ 34.778702281300227, 31.234823801253405 ], [ 34.778058163738457, 31.23478348608802 ], [ 34.777181586590522, 31.234561037664953 ] ] } },
{ "type": "Feature", "properties": { "SHAPE_Leng": 851.767781851 }, "geometry": { "type": "LineString", "coordinates": [ [ 34.777179450944317, 31.241346435074277 ], [ 34.777157797220291, 31.241220844090293 ], [ 34.776250110962231, 31.240493823238694 ], [ 34.775331034467001, 31.239832141588497 ], [ 34.775142397221671, 31.239783786774311 ], [ 34.775053784083909, 31.239726219942 ], [ 34.774987691574722, 31.239601911513159 ], [ 34.774467471398239, 31.239180184764241 ], [ 34.773504244031756, 31.238461072355289 ], [ 34.773238456042236, 31.238278822698412 ], [ 34.773072039866314, 31.238230538463846 ], [ 34.773016762299562, 31.238171650720584 ], [ 34.772972841534198, 31.238058392716841 ], [ 34.771965506856354, 31.237272304038807 ], [ 34.77078106115534, 31.236351977740021 ], [ 34.770614825128369, 31.236265510582012 ] ] } },
{ "type": "Feature", "properties": { "SHAPE_Leng": 825.66208944699997 }, "geometry": { "type": "LineString", "coordinates": [ [ 34.767680011245197, 31.241486886126538 ], [ 34.766525448300669, 31.241311146672079 ], [ 34.764459498857939, 31.241227733023951 ], [ 34.76239346352321, 31.241163376510912 ], [ 34.761727003328097, 31.241141993159076 ], [ 34.76028336902165, 31.241256329657098 ], [ 34.759060467083508, 31.241443003259874 ] ] } },
{ "type": "Feature", "properties": { "SHAPE_Leng": 1542.9854267000001 }, "geometry": { "type": "LineString", "coordinates": [ [ 34.756597555394094, 31.254621086641329 ], [ 34.755759821773644, 31.253205483856547 ], [ 34.755365624310073, 31.251982327530566 ], [ 34.755330579504076, 31.249996813717996 ], [ 34.755513398626135, 31.248928394394284 ], [ 34.756456013982223, 31.246946288788877 ], [ 34.758202786617346, 31.244050632851867 ], [ 34.758697341166815, 31.242830567105777 ], [ 34.758747872928801, 31.241532599436848 ] ] } },
{ "type": "Feature", "properties": { "SHAPE_Leng": 491.32153684600001 }, "geometry": { "type": "LineString", "coordinates": [ [ 34.768170233573223, 31.243381654879613 ], [ 34.769213739359316, 31.243433871334407 ], [ 34.770024685522635, 31.243445681318278 ], [ 34.771013292664691, 31.243477652869142 ], [ 34.771846369553586, 31.243509093679357 ], [ 34.772701708600138, 31.243531058986772 ], [ 34.773323793743614, 31.243542691024256 ] ] } },
{ "type": "Feature", "properties": { "SHAPE_Leng": 373.07255170500002 }, "geometry": { "type": "LineString", "coordinates": [ [ 34.773868246540282, 31.250355991115601 ], [ 34.773375273979973, 31.250650239400041 ], [ 34.772648636091269, 31.251020062692483 ], [ 34.772200500488125, 31.251226164234726 ], [ 34.771707986201463, 31.251417797119679 ], [ 34.771221047261299, 31.251604674014416 ], [ 34.770876396608891, 31.251653624682788 ], [ 34.770372877658069, 31.251821351841517 ] ] } },
{ "type": "Feature", "properties": { "SHAPE_Leng": 46.473338333599997 }, "geometry": { "type": "LineString", "coordinates": [ [ 34.770371487028079, 31.251821728651567 ], [ 34.770348955305188, 31.251912272209431 ], [ 34.770499764922675, 31.252212021980185 ] ] } },
{ "type": "Feature", "properties": { "SHAPE_Leng": 219.57671942 }, "geometry": { "type": "LineString", "coordinates": [ [ 34.80124172821602, 31.285793521036446 ], [ 34.798950296916317, 31.285571545216445 ] ] } },
{ "type": "Feature", "properties": { "SHAPE_Leng": 1234.9102490099999 }, "geometry": { "type": "LineString", "coordinates": [ [ 34.809870108830864, 31.263195051506209 ], [ 34.811123228542236, 31.262464868411151 ], [ 34.812770047660919, 31.261916277349012 ], [ 34.813683482989298, 31.261365436908012 ], [ 34.814752939549905, 31.260700521981665 ], [ 34.821142900726073, 31.257760728145389 ] ] } },
{ "type": "Feature", "properties": { "SHAPE_Leng": 705.35194790599996 }, "geometry": { "type": "LineString", "coordinates": [ [ 34.781172930757215, 31.258253710492848 ], [ 34.781570395222204, 31.25828855130003 ], [ 34.781961549119494, 31.258367946695596 ], [ 34.78400359665973, 31.258743263702836 ], [ 34.785284458074614, 31.258995621310689 ], [ 34.785401099755802, 31.259001966766423 ], [ 34.785996799866126, 31.259036122261584 ], [ 34.786623344179311, 31.259004751876734 ], [ 34.787571039584527, 31.258953589008946 ], [ 34.786662249643221, 31.259001299569004 ] ] } },
{ "type": "Feature", "properties": { "SHAPE_Leng": 1108.47057015 }, "geometry": { "type": "LineString", "coordinates": [ [ 34.787576299830022, 31.258957828777589 ], [ 34.788213287854852, 31.258920161258125 ], [ 34.788841293636402, 31.258840533860248 ], [ 34.789457331825005, 31.258733996152493 ], [ 34.790159358978585, 31.258591890080908 ], [ 34.791136708706574, 31.258376690601814 ], [ 34.791648155817064, 31.258301972437746 ], [ 34.791869043501137, 31.258290749344813 ], [ 34.792443945982996, 31.258252026388877 ], [ 34.792920332589766, 31.258254745472776 ], [ 34.793671664303993, 31.258271466118696 ], [ 34.794116153018273, 31.258263340778857 ], [ 34.794335682331841, 31.25824495069946 ], [ 34.794614851163999, 31.258245840981903 ], [ 34.794863484031104, 31.258241860498927 ], [ 34.795395684810984, 31.258310586290218 ], [ 34.796896396275756, 31.258349739512475 ], [ 34.798010538730573, 31.258361141277767 ], [ 34.796896396275756, 31.258349739512475 ] ] } },
{ "type": "Feature", "properties": { "SHAPE_Leng": 1131.3299717299999 }, "geometry": { "type": "LineString", "coordinates": [ [ 34.785943983318489, 31.245556666987952 ], [ 34.785797952378104, 31.245605110045815 ], [ 34.785354426736156, 31.245722980052438 ], [ 34.78506663121518, 31.245797210089872 ], [ 34.784265938849821, 31.245973568322491 ], [ 34.783960146500362, 31.246034612541482 ], [ 34.783726603320872, 31.246087539906313 ], [ 34.783658524416381, 31.246094476457451 ], [ 34.783596021883106, 31.246096657441896 ], [ 34.783487669759737, 31.246103462083095 ], [ 34.783300012833529, 31.246143414366792 ], [ 34.78298450300575, 31.24620323120898 ], [ 34.782571915267731, 31.246232900108854 ], [ 34.782485793371073, 31.246237390398541 ], [ 34.781403310186938, 31.246384170228609 ], [ 34.780814076241711, 31.246475295101579 ], [ 34.78033189053648, 31.246540522269303 ], [ 34.780268057497636, 31.246529572729994 ], [ 34.780117915526439, 31.246564872128619 ], [ 34.779452155689498, 31.246687954208351 ], [ 34.778940263774018, 31.246873585011652 ], [ 34.778279155537767, 31.247197124625817 ], [ 34.778050722177213, 31.247347897151204 ], [ 34.777576909386489, 31.247711427597586 ], [ 34.777284301799476, 31.247926414997274 ], [ 34.776786778329857, 31.248311340733952 ], [ 34.776134598237014, 31.248806712458663 ], [ 34.77566932493859, 31.249121344884884 ], [ 34.775305665764897, 31.249383816766969 ] ] } },
{ "type": "Feature", "properties": { "SHAPE_Leng": 823.98695288 }, "geometry": { "type": "LineString", "coordinates": [ [ 34.798005921922623, 31.258361734564627 ], [ 34.797979636998747, 31.258013252312914 ], [ 34.798076830882337, 31.257371647494995 ], [ 34.798122900817802, 31.256992372018296 ], [ 34.798289525998904, 31.256353372788283 ], [ 34.798353037130795, 31.255792793757557 ], [ 34.798360471108701, 31.255353739588966 ], [ 34.798413942138801, 31.25519164056049 ], [ 34.798490763511047, 31.255090465821031 ], [ 34.798672366914538, 31.253870450399486 ], [ 34.79868742960705, 31.253596073647302 ], [ 34.798694351552818, 31.253276332446578 ], [ 34.798664889499442, 31.253020905761606 ], [ 34.798604628871992, 31.252822652790314 ], [ 34.79862189680064, 31.252681916373596 ], [ 34.798597795739489, 31.2524718462242 ], [ 34.798198371388565, 31.251043581118882 ] ] } },
{ "type": "Feature", "properties": { "SHAPE_Leng": 343.38267315500002 }, "geometry": { "type": "LineString", "coordinates": [ [ 34.7991425659906, 31.236358721475991 ], [ 34.799758514381139, 31.235845220378039 ], [ 34.800157251250042, 31.235469439394254 ], [ 34.800427881570165, 31.235176774977866 ], [ 34.800400709807981, 31.235035897392187 ], [ 34.800517876442974, 31.234912178329157 ], [ 34.800755432444255, 31.234559750840816 ], [ 34.801091361471066, 31.233930821631709 ], [ 34.801123591744314, 31.233861720253781 ], [ 34.801124980371874, 31.23386172460841 ] ] } },
{ "type": "Feature", "properties": { "SHAPE_Leng": 939.64060437099999 }, "geometry": { "type": "LineString", "coordinates": [ [ 34.80316228541286, 31.229325017939424 ], [ 34.803182087158334, 31.229239172962906 ], [ 34.803209023197113, 31.229108010410695 ], [ 34.803360516822451, 31.228415261787095 ], [ 34.80346624333049, 31.228038555861438 ], [ 34.80364977421592, 31.227320849809228 ], [ 34.803686320936123, 31.227214772976836 ], [ 34.803726898306195, 31.227140923958252 ], [ 34.803745109205252, 31.227102800197077 ], [ 34.803827062757883, 31.226765393543488 ], [ 34.803840198537152, 31.226613903894723 ], [ 34.803871408085669, 31.226456505303009 ], [ 34.803928610942151, 31.226391059656297 ], [ 34.80395795386324, 31.226347004395087 ], [ 34.803945599106484, 31.226313557429318 ], [ 34.803940336811095, 31.226244338497821 ], [ 34.803971923329492, 31.225997454569459 ], [ 34.804025800220266, 31.225732742536461 ], [ 34.804048860215282, 31.225532364202699 ], [ 34.804065475444695, 31.22521384461027 ], [ 34.804120996536135, 31.22488828673254 ], [ 34.804177005836678, 31.224776304154041 ], [ 34.804194048792581, 31.22468567746494 ], [ 34.804212585770706, 31.224569999490136 ], [ 34.804222711330333, 31.224473386045702 ], [ 34.804218927892414, 31.224382694549771 ], [ 34.80423056862945, 31.22425625608032 ], [ 34.804308865040056, 31.223797136677689 ], [ 34.804371467486384, 31.223438192123549 ], [ 34.804483947635489, 31.222773955748853 ], [ 34.804570562233685, 31.222317247480319 ], [ 34.80466971221562, 31.221851032265331 ], [ 34.804688172716375, 31.221753251415496 ], [ 34.804753407592031, 31.221427723253075 ], [ 34.804821283390119, 31.221134418544224 ], [ 34.804841242432893, 31.221010392241865 ] ] } },
{ "type": "Feature", "properties": { "SHAPE_Leng": 481.69976451000002 }, "geometry": { "type": "LineString", "coordinates": [ [ 34.803971532203668, 31.223757046897909 ], [ 34.803984525403472, 31.223638965229565 ], [ 34.804062661552422, 31.223218025052123 ], [ 34.804088246326657, 31.223077313067986 ], [ 34.804169439965996, 31.222589566164249 ], [ 34.804275180257129, 31.221877582583279 ], [ 34.804327015590388, 31.221437469583716 ], [ 34.804379661086855, 31.221134572836981 ], [ 34.804446492007003, 31.220760130199068 ], [ 34.804459715220062, 31.220587164340365 ], [ 34.804434970597647, 31.220528622924743 ], [ 34.804376811324161, 31.220492647087074 ], [ 34.804275532389688, 31.22047562871894 ], [ 34.804171426366977, 31.220470531933024 ], [ 34.803975744398947, 31.220452025433826 ], [ 34.803892509119407, 31.220436255257393 ], [ 34.803825928965267, 31.220421730121156 ], [ 34.803713502502902, 31.220414221503095 ], [ 34.80343032063827, 31.220403793261649 ], [ 34.803362261486598, 31.220410740444386 ], [ 34.803287093926677, 31.220457039181873 ], [ 34.803231383455405, 31.220498625654134 ] ] } },
{ "type": "Feature", "properties": { "SHAPE_Leng": 305.063591981 }, "geometry": { "type": "LineString", "coordinates": [ [ 34.799616835707958, 31.220492293936513 ], [ 34.799639425329971, 31.220729802538077 ], [ 34.799626356000921, 31.220864587813399 ], [ 34.799545694890959, 31.221222280048661 ], [ 34.799476821179873, 31.221420126996556 ], [ 34.799336184059669, 31.221842059916597 ], [ 34.799260346825491, 31.222044656795681 ], [ 34.799223943767529, 31.222116131154408 ], [ 34.79899379129111, 31.222691698696913 ], [ 34.798816961311047, 31.223134994017595 ] ] } },
{ "type": "Feature", "properties": { "SHAPE_Leng": 67.89297934 }, "geometry": { "type": "LineString", "coordinates": [ [ 34.798648400255487, 31.224866084647118 ], [ 34.799339198181883, 31.225016212916156 ] ] } },
{ "type": "Feature", "properties": { "SHAPE_Leng": 168.807324951 }, "geometry": { "type": "LineString", "coordinates": [ [ 34.797300329379468, 31.230643338828347 ], [ 34.797336544382844, 31.230616607277323 ], [ 34.797386886554662, 31.230533842512116 ], [ 34.797597889899514, 31.230221308235201 ], [ 34.79780467865826, 31.229920095442079 ], [ 34.797913639581814, 31.229766522995853 ], [ 34.798153736985505, 31.229468397491086 ], [ 34.798233077332995, 31.229422711210717 ], [ 34.798292146223673, 31.229409177021278 ] ] } },
{ "type": "Feature", "properties": { "SHAPE_Leng": 108.49170956 }, "geometry": { "type": "LineString", "coordinates": [ [ 34.798332312098559, 31.224483396697579 ], [ 34.798661205724954, 31.223546616466219 ] ] } },
{ "type": "Feature", "properties": { "SHAPE_Leng": 1136.4129019100001 }, "geometry": { "type": "LineString", "coordinates": [ [ 34.805705320411249, 31.220301384751629 ], [ 34.805655951038688, 31.220155667124679 ], [ 34.805570695219146, 31.219959725410462 ], [ 34.805535089181504, 31.219842686034827 ], [ 34.805452079628907, 31.219773225986728 ], [ 34.80535259061233, 31.219660760415106 ], [ 34.805352881282168, 31.219591558693008 ], [ 34.805378913068857, 31.219343463674246 ], [ 34.80538506806721, 31.219200303703627 ], [ 34.805341794637343, 31.218925744495571 ], [ 34.805334306136992, 31.218725270922562 ], [ 34.805351717676594, 31.218546352669609 ], [ 34.805355667132766, 31.218267166116767 ], [ 34.805317585876246, 31.218078529883311 ], [ 34.805274262994068, 31.217815901820952 ], [ 34.805256270103996, 31.217472217418617 ], [ 34.805256901659114, 31.217321881815163 ], [ 34.805243750664033, 31.217147640708454 ], [ 34.805233245100155, 31.217004429900832 ], [ 34.805084723369902, 31.216667499697021 ], [ 34.804967196183256, 31.216223281433944 ], [ 34.804631165571365, 31.215577933764617 ], [ 34.804504387744892, 31.215353226549091 ], [ 34.804377270001204, 31.215209653086738 ], [ 34.8041119378573, 31.214920084799264 ], [ 34.803794960973654, 31.214367860476329 ], [ 34.803414459784044, 31.213736688858624 ], [ 34.803174687761114, 31.213313564920881 ], [ 34.803125396324468, 31.213151142165881 ], [ 34.803095782374697, 31.212931509459409 ], [ 34.803071599849368, 31.212740529340866 ], [ 34.802898133945156, 31.212396359284377 ], [ 34.802795919309602, 31.212274338239467 ], [ 34.802762975068234, 31.212185941960097 ], [ 34.802797280697725, 31.211952190865379 ], [ 34.802770343610192, 31.211756429156132 ], [ 34.802752058115551, 31.211484333281479 ], [ 34.802775318680382, 31.211236228949225 ], [ 34.802783980193638, 31.211157508363829 ], [ 34.802742727791774, 31.21106431321871 ], [ 34.802513778002606, 31.210710424422206 ], [ 34.802511011515428, 31.210708029324433 ] ] } },
{ "type": "Feature", "properties": { "SHAPE_Leng": 176.423058938 }, "geometry": { "type": "LineString", "coordinates": [ [ 34.802513201302517, 31.210715529239256 ], [ 34.802517501588021, 31.210355209485208 ], [ 34.802529303043194, 31.21019059171218 ], [ 34.802499307861737, 31.210061636605428 ], [ 34.802516389974265, 31.209961465126465 ], [ 34.80257556112759, 31.209756427350058 ], [ 34.802603456735312, 31.209725492346479 ], [ 34.802205636922956, 31.209256532765735 ], [ 34.802202860386771, 31.209256524085912 ] ] } },
{ "type": "Feature", "properties": { "SHAPE_Leng": 704.96189059799997 }, "geometry": { "type": "LineString", "coordinates": [ [ 34.801174455623695, 31.208820308439634 ], [ 34.801214153866042, 31.208624755157214 ], [ 34.801409611496155, 31.208362873557089 ], [ 34.8016279464129, 31.207943566143772 ], [ 34.801769006971661, 31.207414246720564 ], [ 34.801912287849802, 31.206359945016843 ], [ 34.801978498673584, 31.205147905648545 ], [ 34.802122118975049, 31.202699998328587 ], [ 34.802139280849204, 31.202580736261869 ] ] } },
{ "type": "Feature", "properties": { "SHAPE_Leng": 452.36798711599999 }, "geometry": { "type": "LineString", "coordinates": [ [ 34.794053740351238, 31.235489104550759 ], [ 34.794381792222893, 31.235409016310864 ], [ 34.794950713859897, 31.23485720699766 ], [ 34.795396244122124, 31.234581814201452 ], [ 34.795535654325647, 31.234453397554283 ], [ 34.795736570648721, 31.234229723789436 ], [ 34.796115014789578, 31.23405433967201 ], [ 34.796877248567419, 31.23375131122225 ], [ 34.797271778167215, 31.233709607529626 ], [ 34.797466194531523, 31.233705449988403 ], [ 34.797622283531723, 31.233572310922252 ], [ 34.797723300548199, 31.233329227279334 ], [ 34.797740269523807, 31.233257692046138 ] ] } },
{ "type": "Feature", "properties": { "SHAPE_Leng": 627.84350943599998 }, "geometry": { "type": "LineString", "coordinates": [ [ 34.797733373917779, 31.233272560730573 ], [ 34.797778155045776, 31.233191568552559 ], [ 34.798459851527063, 31.23288588949071 ], [ 34.799293915687073, 31.232666593527679 ], [ 34.799746767357647, 31.232622679462981 ], [ 34.800226994672755, 31.23267191587685 ], [ 34.800474151511843, 31.232672692413374 ], [ 34.800915683004177, 31.232678850461951 ], [ 34.801902815646777, 31.233035116371425 ], [ 34.802091059321121, 31.233097964084148 ], [ 34.802199820038069, 31.233069454061688 ], [ 34.802344206462728, 31.233074678446933 ], [ 34.802621357583028, 31.233206791128278 ], [ 34.802999068924265, 31.233200811295099 ], [ 34.803151746978862, 31.23321560554356 ], [ 34.803394337405166, 31.233311814718295 ], [ 34.803501817301736, 31.233507826794284 ], [ 34.803562767490476, 31.233542617570009 ], [ 34.803799995961342, 31.233593469471618 ] ] } },
{ "type": "Feature", "properties": { "SHAPE_Leng": 183.111386595 }, "geometry": { "type": "LineString", "coordinates": [ [ 34.801242700887158, 31.233531839560317 ], [ 34.801188492016664, 31.233544794162199 ], [ 34.801077039563722, 31.233631544573438 ], [ 34.800893645191458, 31.233656026058554 ], [ 34.800732631043807, 31.233642396185065 ], [ 34.800549383738897, 31.233632275060046 ], [ 34.80033712576369, 31.233587461748662 ], [ 34.80019297128684, 31.233527351161676 ], [ 34.800026489357627, 31.2334934202234 ], [ 34.799716728601226, 31.233519888161098 ], [ 34.799577650947867, 31.23357194865368 ], [ 34.799423248439922, 31.233635892969779 ] ] } },
{ "type": "Feature", "properties": { "SHAPE_Leng": 104.252434454 }, "geometry": { "type": "LineString", "coordinates": [ [ 34.799432652335973, 31.233631865804334 ], [ 34.798979550132131, 31.233733049054447 ], [ 34.798832120677226, 31.233789855298348 ], [ 34.798695758226359, 31.233856242073369 ], [ 34.798554024671148, 31.233879657515157 ], [ 34.798396950869346, 31.233918535371135 ] ] } },
{ "type": "Feature", "properties": { "SHAPE_Leng": 1156.10229366 }, "geometry": { "type": "LineString", "coordinates": [ [ 34.763816881694034, 31.233364913609602 ], [ 34.762906117836451, 31.233337926560786 ], [ 34.761695277422739, 31.233343309671518 ], [ 34.761306132588011, 31.23341833015531 ], [ 34.760761115996239, 31.233569174339575 ], [ 34.760607942571468, 31.233673642932619 ], [ 34.760576847629324, 31.233778532721708 ], [ 34.760459563873866, 31.233916532461752 ], [ 34.760298114852326, 31.233997109498336 ], [ 34.760095864543253, 31.234487987961099 ], [ 34.759492108021135, 31.236504705586352 ], [ 34.759226020707409, 31.237577617668702 ], [ 34.758897530053098, 31.238927121697948 ], [ 34.758839499022713, 31.239456677611205 ], [ 34.758841312919259, 31.240253706630263 ], [ 34.758894371014996, 31.240783647350256 ], [ 34.758926667947463, 31.241003298048213 ] ] } },
{ "type": "Feature", "properties": { "SHAPE_Leng": 243.422685992 }, "geometry": { "type": "LineString", "coordinates": [ [ 34.818921746540816, 31.249849408496562 ], [ 34.819176487485834, 31.250045848699209 ], [ 34.819289758177284, 31.250196524974228 ], [ 34.819364364574888, 31.250292199862798 ], [ 34.819646477667966, 31.250588945414833 ], [ 34.819881430729843, 31.250871231539584 ], [ 34.81997580161741, 31.250888217967258 ], [ 34.819986379895866, 31.251019495859339 ], [ 34.820149667978811, 31.251165548031469 ], [ 34.820260579180029, 31.251213605645056 ], [ 34.820537287058585, 31.251474538234369 ] ] } },
{ "type": "Feature", "properties": { "SHAPE_Leng": 283.17124128 }, "geometry": { "type": "LineString", "coordinates": [ [ 34.820526591687525, 31.251468015281471 ], [ 34.820649220156611, 31.251571947249634 ], [ 34.820737505636586, 31.251720161207214 ], [ 34.820881199332518, 31.251904335252295 ], [ 34.821434518090037, 31.252452446824012 ], [ 34.821768975665847, 31.252859112761563 ], [ 34.82233308866784, 31.253488387106763 ] ] } },
{ "type": "Feature", "properties": { "SHAPE_Leng": 218.029882773 }, "geometry": { "type": "LineString", "coordinates": [ [ 34.822330850137611, 31.253485588153527 ], [ 34.822813508975855, 31.253995303344364 ], [ 34.823445708414809, 31.254620001969446 ], [ 34.823819261907715, 31.254979053135958 ] ] } },
{ "type": "Feature", "properties": { "SHAPE_Leng": 104.15548541 }, "geometry": { "type": "LineString", "coordinates": [ [ 34.824355867976848, 31.255488408115621 ], [ 34.825147717493941, 31.256136240523745 ] ] } },
{ "type": "Feature", "properties": { "SHAPE_Leng": 187.14636595299999 }, "geometry": { "type": "LineString", "coordinates": [ [ 34.80890735331694, 31.261166354374165 ], [ 34.808933901947753, 31.261128255757182 ], [ 34.808994911575383, 31.261153499247268 ], [ 34.80905738878257, 31.261159657522104 ], [ 34.809117163578108, 31.261147910072626 ], [ 34.809519342463219, 31.26096301490993 ], [ 34.809629292653078, 31.260909661395132 ], [ 34.809655999823192, 31.260833381904927 ], [ 34.809663118732978, 31.260791643804261 ], [ 34.809695242907104, 31.260748789271609 ], [ 34.810480442759321, 31.260308540767994 ] ] } },
{ "type": "Feature", "properties": { "SHAPE_Leng": 355.86360174800001 }, "geometry": { "type": "LineString", "coordinates": [ [ 34.773719228318384, 31.234308694970061 ], [ 34.773160199500353, 31.234490566799877 ], [ 34.773062837918275, 31.234526034203284 ], [ 34.772896060714864, 31.234558883086159 ], [ 34.771669251407481, 31.235017702564498 ], [ 34.77095106913967, 31.235385159828255 ], [ 34.77053887790894, 31.235641489314567 ], [ 34.770374754162169, 31.235700592915382 ] ] } },
{ "type": "Feature", "properties": { "SHAPE_Leng": 229.33596110799999 }, "geometry": { "type": "LineString", "coordinates": [ [ 34.770397777186545, 31.235706732327063 ], [ 34.770250556051629, 31.235713393795638 ], [ 34.769505870016808, 31.235195437578188 ], [ 34.76927053641036, 31.235037146233772 ], [ 34.769254431553769, 31.234915390407259 ], [ 34.769368840192726, 31.234796462605047 ], [ 34.769519808921167, 31.234577434078588 ], [ 34.769595949208281, 31.23432474398945 ], [ 34.769599042313445, 31.234255552127898 ] ] } },
{ "type": "Feature", "properties": { "SHAPE_Leng": 188.68497362400001 }, "geometry": { "type": "LineString", "coordinates": [ [ 34.769600990465285, 31.234253018948454 ], [ 34.769608288736919, 31.234175489657293 ], [ 34.769620861815078, 31.234158827971644 ], [ 34.769915456601524, 31.234110904277816 ], [ 34.770255790741693, 31.234081031748591 ], [ 34.771471372745317, 31.233951497134058 ] ] } },
{ "type": "Feature", "properties": { "SHAPE_Leng": 146.920853037 }, "geometry": { "type": "LineString", "coordinates": [ [ 34.771462990549303, 31.23395355682673 ], [ 34.771686648967183, 31.233914751110586 ], [ 34.771840994107038, 31.233867544216967 ], [ 34.772112264928616, 31.233757493111046 ], [ 34.772389387123027, 31.233581838410043 ], [ 34.772633373504604, 31.233364311802998 ], [ 34.772742106643648, 31.233270418631669 ] ] } },
{ "type": "Feature", "properties": { "SHAPE_Leng": 454.06978830999998 }, "geometry": { "type": "LineString", "coordinates": [ [ 34.756647893917801, 31.254979780685641 ], [ 34.756335835927786, 31.255181527516498 ], [ 34.756160085673429, 31.255340795867959 ], [ 34.756118058938483, 31.255417010648202 ], [ 34.756023335717202, 31.255476337490808 ], [ 34.755845415777763, 31.255506738594182 ], [ 34.755717200858271, 31.25559935658783 ], [ 34.755438505207493, 31.255794059246444 ], [ 34.754858931532659, 31.256173839410913 ], [ 34.754758605748329, 31.256242690538354 ], [ 34.754741498318346, 31.256335696134524 ], [ 34.754718982104393, 31.256397660993716 ], [ 34.754646602579335, 31.256430815113731 ], [ 34.754507761306549, 31.256420784433203 ], [ 34.754435303506824, 31.256470643183061 ], [ 34.754014562989575, 31.256743592230801 ], [ 34.753529478536642, 31.257111766053143 ], [ 34.753509546447781, 31.257214306381009 ], [ 34.75352022714042, 31.257305022830487 ], [ 34.753425419957786, 31.257381051543486 ], [ 34.753610520231099, 31.257594079678956 ] ] } },
{ "type": "Feature", "properties": { "SHAPE_Leng": 190.21119175300001 }, "geometry": { "type": "LineString", "coordinates": [ [ 34.753605846160994, 31.257607116507572 ], [ 34.753721865781536, 31.257743541805016 ], [ 34.753735380303041, 31.257822336911779 ], [ 34.753759697459373, 31.257913649499312 ], [ 34.753945607232041, 31.258009203711079 ], [ 34.754476404805935, 31.258545590857992 ], [ 34.754835979571261, 31.258871383759352 ], [ 34.754852499324514, 31.258902463336398 ] ] } },
{ "type": "Feature", "properties": { "SHAPE_Leng": 481.97054343399998 }, "geometry": { "type": "LineString", "coordinates": [ [ 34.798710184197716, 31.251007370464983 ], [ 34.798792318163542, 31.251286826009267 ], [ 34.798830602982839, 31.251427737750276 ], [ 34.798807729063626, 31.251580388739637 ], [ 34.798940987589326, 31.252246585286848 ], [ 34.799106701894004, 31.253118105150552 ], [ 34.799127434162365, 31.253466569044392 ], [ 34.799113948810906, 31.25402253354158 ], [ 34.799065495023619, 31.254311121881994 ], [ 34.799028100343499, 31.25461167725943 ], [ 34.798970690305175, 31.255045801949233 ], [ 34.798925125593676, 31.255308150274598 ] ] } },
{ "type": "Feature", "properties": { "SHAPE_Leng": 488.98964941899999 }, "geometry": { "type": "LineString", "coordinates": [ [ 34.814585591680192, 31.25371575456434 ], [ 34.814445962644932, 31.253896689814272 ], [ 34.814395719337362, 31.253956194822354 ], [ 34.814298205569223, 31.254027487677202 ], [ 34.814194714979919, 31.254201373878782 ], [ 34.814110991928594, 31.254296571054958 ], [ 34.813517982756672, 31.255299399593227 ], [ 34.812796278991925, 31.256521372159565 ], [ 34.812426982736632, 31.257157387316806 ], [ 34.81241856122071, 31.257178838694237 ], [ 34.812382193692436, 31.257240771620857 ], [ 34.812382124667522, 31.257257474685893 ], [ 34.812295195002179, 31.257455272332738 ], [ 34.812222360869754, 31.257603000389231 ], [ 34.812230673949585, 31.257607798631135 ] ] } },
{ "type": "Feature", "properties": { "SHAPE_Leng": 431.05113410199999 }, "geometry": { "type": "LineString", "coordinates": [ [ 34.812020581083893, 31.257944831490633 ], [ 34.811340150071509, 31.258582278732089 ], [ 34.810704034861459, 31.259248494364936 ], [ 34.81025757902578, 31.259729157943305 ], [ 34.809644308366984, 31.260242715140574 ], [ 34.808970613613091, 31.260589042708403 ], [ 34.808907971562192, 31.260622258312171 ], [ 34.80887826024577, 31.260632522552953 ], [ 34.808855152444636, 31.260644908544474 ], [ 34.808843615931089, 31.26064038606987 ], [ 34.808831160489731, 31.260642973181753 ] ] } },
{ "type": "Feature", "properties": { "SHAPE_Leng": 195.79232227400001 }, "geometry": { "type": "LineString", "coordinates": [ [ 34.805025799418175, 31.288405643167408 ], [ 34.804918486839, 31.288154749977668 ], [ 34.804758359894983, 31.287908465267332 ], [ 34.804437797281125, 31.287489868118097 ], [ 34.804034372366154, 31.286954084214415 ], [ 34.803984629190595, 31.286889499247579 ] ] } },
{ "type": "Feature", "properties": { "SHAPE_Leng": 198.62083214699999 }, "geometry": { "type": "LineString", "coordinates": [ [ 34.804590228198137, 31.245026498446279 ], [ 34.804561427585938, 31.244940502333876 ], [ 34.804493697789091, 31.244865123230383 ], [ 34.804405127272119, 31.244792065699951 ], [ 34.804193304316883, 31.244637490856739 ], [ 34.804083888429865, 31.244567946981732 ], [ 34.803884520228138, 31.244424148501174 ], [ 34.803694898232663, 31.244274413977347 ], [ 34.803328058174493, 31.243997653095079 ], [ 34.803303102641983, 31.243988029472931 ], [ 34.803203253237463, 31.243955502763693 ], [ 34.803056122057228, 31.243938340280213 ], [ 34.803011674308941, 31.243940587071641 ] ] } },
{ "type": "Feature", "properties": { "SHAPE_Leng": 236.39277850400001 }, "geometry": { "type": "LineString", "coordinates": [ [ 34.812075865529849, 31.243524633278749 ], [ 34.812225898890858, 31.243063739570523 ], [ 34.812360854531505, 31.24266643460901 ], [ 34.812515093131658, 31.242083056321562 ], [ 34.812549419262297, 31.241841349782792 ], [ 34.812539952202293, 31.241443604332936 ] ] } },
{ "type": "Feature", "properties": { "SHAPE_Leng": 395.77917695600001 }, "geometry": { "type": "LineString", "coordinates": [ [ 34.820767668885196, 31.280840271623298 ], [ 34.820704664873652, 31.280846447315856 ], [ 34.820563876084321, 31.280849208725535 ], [ 34.820185604627468, 31.280946711045036 ], [ 34.819154502629821, 31.281242705100038 ], [ 34.818084456267478, 31.281548118572189 ], [ 34.817739417512747, 31.281671167933577 ], [ 34.817346009600016, 31.281844977594073 ], [ 34.816915202172495, 31.282104579371538 ] ] } },
{ "type": "Feature", "properties": { "SHAPE_Leng": 515.17211456500002 }, "geometry": { "type": "LineString", "coordinates": [ [ 34.816209030724849, 31.282660043820389 ], [ 34.816101294533816, 31.282732897647236 ], [ 34.815978752570459, 31.282802524715876 ], [ 34.815703913317336, 31.282970323850261 ], [ 34.815458919424032, 31.283087305822203 ], [ 34.81522140013746, 31.283188402228387 ], [ 34.814765131250276, 31.283330196195354 ], [ 34.814492651355394, 31.283373913591756 ], [ 34.813984908626743, 31.283420097652272 ], [ 34.813336515999318, 31.283434034418175 ], [ 34.812895588775525, 31.283448600250171 ], [ 34.812580608140571, 31.283466729718175 ], [ 34.812269200683041, 31.283516687485733 ], [ 34.811924265954616, 31.283611085172904 ], [ 34.811530971384215, 31.283753060861478 ], [ 34.811308199129385, 31.2838701028126 ], [ 34.811141103339516, 31.283961860449519 ] ] } },
{ "type": "Feature", "properties": { "SHAPE_Leng": 266.75485645999998 }, "geometry": { "type": "LineString", "coordinates": [ [ 34.810415980226502, 31.284608709022599 ], [ 34.810300576002042, 31.284741986117233 ], [ 34.810211277478693, 31.284833982032392 ], [ 34.810050794487005, 31.285116662033996 ], [ 34.809778158058919, 31.285640807772712 ], [ 34.809400902443052, 31.286376214423534 ], [ 34.809229272627142, 31.286665221940829 ], [ 34.809167771531328, 31.286754120680833 ] ] } },
{ "type": "Feature", "properties": { "SHAPE_Leng": 401.01598240599998 }, "geometry": { "type": "LineString", "coordinates": [ [ 34.808791093136641, 31.287570661190859 ], [ 34.80871646370209, 31.287697699414988 ], [ 34.808578386051785, 31.28793590245553 ], [ 34.80824684094145, 31.288367593319659 ], [ 34.807900965884834, 31.288681514939825 ], [ 34.807410648905197, 31.288982263529441 ], [ 34.807113706771027, 31.289111795514454 ], [ 34.806790843075106, 31.289238065581245 ], [ 34.80641436353671, 31.289338714422264 ], [ 34.805850943806512, 31.289400601317048 ], [ 34.805473025365927, 31.289402610251923 ] ] } },
{ "type": "Feature", "properties": { "SHAPE_Leng": 348.410738692 }, "geometry": { "type": "LineString", "coordinates": [ [ 34.804745501995825, 31.289281830404622 ], [ 34.804427360638506, 31.289166299027645 ], [ 34.803479810938256, 31.288946988722856 ], [ 34.802458193890509, 31.288721076831113 ], [ 34.801206850711147, 31.288500799872942 ] ] } },
{ "type": "Feature", "properties": { "SHAPE_Leng": 179.36416867700001 }, "geometry": { "type": "LineString", "coordinates": [ [ 34.798170579314252, 31.288189370977094 ], [ 34.798414843975067, 31.288250595643628 ], [ 34.799051801601763, 31.288319422356825 ], [ 34.800033221753438, 31.288411602994508 ] ] } },
{ "type": "Feature", "properties": { "SHAPE_Leng": 294.97704567300002 }, "geometry": { "type": "LineString", "coordinates": [ [ 34.821405042079562, 31.257306473970722 ], [ 34.821244849386744, 31.257078502725339 ], [ 34.820986741539585, 31.256792968280486 ], [ 34.820702600660049, 31.256534401041947 ], [ 34.820394477251526, 31.256253488080219 ], [ 34.819729404704596, 31.255631858209405 ], [ 34.81949671386667, 31.255473666473861 ], [ 34.819304518693222, 31.25537604854776 ] ] } },
{ "type": "Feature", "properties": { "SHAPE_Leng": 376.917203895 }, "geometry": { "type": "LineString", "coordinates": [ [ 34.759624433344804, 31.262150547050634 ], [ 34.759644730194694, 31.26216652592063 ], [ 34.759681735445433, 31.262173812353989 ], [ 34.759792082488488, 31.262140785882217 ], [ 34.759869945157135, 31.262123556508708 ], [ 34.759945770435571, 31.262146090279472 ], [ 34.760037034175895, 31.262233107400942 ], [ 34.760102606245425, 31.262269924215182 ], [ 34.760211848424788, 31.262275073748885 ], [ 34.760211855871511, 31.262273483722737 ], [ 34.76050915130299, 31.26226178316589 ], [ 34.760641564326448, 31.262262240394822 ], [ 34.760793270269915, 31.262295376825115 ], [ 34.761063804307881, 31.262363126703718 ], [ 34.761259930619524, 31.262401983230689 ], [ 34.761483414665577, 31.262432184392345 ], [ 34.761723184942639, 31.262444941668342 ], [ 34.761887067228137, 31.262448687903724 ], [ 34.762069971771183, 31.262443749148961 ], [ 34.762357144297518, 31.262418488176827 ], [ 34.762573984751093, 31.262384235469213 ], [ 34.762693090209972, 31.262359190477955 ], [ 34.762799769388081, 31.262318194946573 ], [ 34.762870472633516, 31.26224764490064 ], [ 34.762898397514157, 31.262216321286331 ], [ 34.7630200250291, 31.262146741546346 ], [ 34.763130507842298, 31.262084281819973 ], [ 34.763200343847423, 31.262001001879021 ], [ 34.763267335078609, 31.261932028918451 ] ] } },
{ "type": "Feature", "properties": { "SHAPE_Leng": 1646.4174492300001 }, "geometry": { "type": "LineString", "coordinates": [ [ 34.744483520857933, 31.265391803732754 ], [ 34.746266850719635, 31.264276620526722 ], [ 34.747882844476329, 31.263289676892668 ], [ 34.748663025554038, 31.262800871102186 ], [ 34.749554224577594, 31.262331543938451 ], [ 34.751346999681537, 31.261540857000202 ], [ 34.753979654410493, 31.260543097447915 ], [ 34.75469234556433, 31.260216286261883 ], [ 34.755255050829774, 31.259884173306034 ], [ 34.756040903740555, 31.259357161694062 ], [ 34.75649219458785, 31.259086698147549 ], [ 34.756949420473362, 31.258735120391876 ], [ 34.757557633445742, 31.258174072567989 ], [ 34.758026973335753, 31.25760776763773 ], [ 34.758468753820253, 31.256993638463612 ] ] } },
{ "type": "Feature", "properties": { "SHAPE_Leng": 221.710057366 }, "geometry": { "type": "LineString", "coordinates": [ [ 34.757248588941934, 31.254933604499943 ], [ 34.75732970013177, 31.25501183801466 ], [ 34.757585780582623, 31.255292719357776 ], [ 34.757887888806422, 31.255631031755883 ], [ 34.75837244078037, 31.256158492165451 ], [ 34.75851434294816, 31.25630534330924 ], [ 34.758612040457265, 31.256401134049273 ], [ 34.758713494353891, 31.256485801053646 ] ] } },
{ "type": "Feature", "properties": { "SHAPE_Leng": 71.685759341299999 }, "geometry": { "type": "LineString", "coordinates": [ [ 34.793655869000112, 31.235306231778921 ], [ 34.793690331689817, 31.235251385060295 ], [ 34.79370307862748, 31.235208878315834 ], [ 34.79369953091674, 31.235167130344102 ], [ 34.793706776867218, 31.235094013349151 ], [ 34.79374166522976, 31.235024934079583 ], [ 34.793798125817155, 31.234969870768808 ], [ 34.794045501091738, 31.234793227343989 ] ] } },
{ "type": "Feature", "properties": { "SHAPE_Leng": 269.65681647600002 }, "geometry": { "type": "LineString", "coordinates": [ [ 34.803561030799997, 31.277608819708615 ], [ 34.803748535192177, 31.277617756991575 ], [ 34.804024937500486, 31.277629356552847 ], [ 34.80413467231358, 31.277632084853384 ], [ 34.804216700465503, 31.277616829442429 ], [ 34.804651967150761, 31.277510801179158 ], [ 34.804788212571218, 31.277486169234233 ], [ 34.804903505365964, 31.277488914162017 ], [ 34.805106144803858, 31.277532497067181 ], [ 34.805397421138899, 31.277640784956557 ], [ 34.805731683153745, 31.277768295207906 ], [ 34.805824592456197, 31.277807957746163 ], [ 34.805977152147094, 31.277868087148107 ], [ 34.806033635051627, 31.27791336365917 ], [ 34.806068472864638, 31.277955470507219 ], [ 34.806155485567047, 31.278076246881081 ] ] } },
{ "type": "Feature", "properties": { "SHAPE_Leng": 155.741013305 }, "geometry": { "type": "LineString", "coordinates": [ [ 34.80668715463375, 31.279377846501173 ], [ 34.806625131281365, 31.279260726608143 ], [ 34.806527486763201, 31.279097369545969 ], [ 34.806511857506408, 31.279041412283458 ], [ 34.806478196025417, 31.278852791713014 ], [ 34.806431995403521, 31.278606860650779 ], [ 34.806407521449941, 31.278480312110776 ], [ 34.806396607598842, 31.278432552386928 ], [ 34.806380127666152, 31.278387161851999 ], [ 34.80635530309921, 31.278344131896798 ], [ 34.80628345564746, 31.278250843902434 ], [ 34.80615083526429, 31.278073847840826 ] ] } },
{ "type": "Feature", "properties": { "SHAPE_Leng": 779.54429111000002 }, "geometry": { "type": "LineString", "coordinates": [ [ 34.802836808586605, 31.271964489984313 ], [ 34.803642499104399, 31.270649774014835 ], [ 34.80426931947445, 31.269582669657364 ], [ 34.804939288042682, 31.268821141711918 ], [ 34.805251481188371, 31.268573936920575 ], [ 34.805563592405932, 31.26834582257742 ], [ 34.807432950595683, 31.267759810377143 ], [ 34.808456799116769, 31.267400252165896 ], [ 34.808434574251287, 31.267400183694132 ] ] } },
{ "type": "Feature", "properties": { "SHAPE_Leng": 153.24335929599999 }, "geometry": { "type": "LineString", "coordinates": [ [ 34.773805802591433, 31.234182473642079 ], [ 34.773803544786098, 31.234067923128055 ], [ 34.773784549835213, 31.233970021669776 ], [ 34.773743380252192, 31.23386250017678 ], [ 34.773660825902724, 31.233695183487288 ], [ 34.773512000349562, 31.233444123703244 ], [ 34.77340711189791, 31.233302980180028 ], [ 34.773318646664926, 31.233214390671623 ], [ 34.773191454280216, 31.233092262848192 ], [ 34.773069708260444, 31.232994016697972 ] ] } },
{ "type": "Feature", "properties": { "SHAPE_Leng": 344.09322344700001 }, "geometry": { "type": "LineString", "coordinates": [ [ 34.799615763374455, 31.236512611611126 ], [ 34.800268036726983, 31.235946724206581 ], [ 34.800575065321361, 31.235584970555557 ], [ 34.800854665556976, 31.235141996298374 ], [ 34.801336159659506, 31.234241484514701 ], [ 34.801493114998642, 31.233903121633116 ] ] } },
{ "type": "Feature", "properties": { "SHAPE_Leng": 256.02230212900002 }, "geometry": { "type": "LineString", "coordinates": [ [ 34.801945096332346, 31.232973879296132 ], [ 34.802208100988999, 31.232511759224085 ], [ 34.802516868258408, 31.231734790295249 ], [ 34.802815208988427, 31.230795519378216 ] ] } },
{ "type": "Feature", "properties": { "SHAPE_Leng": 630.79430886 }, "geometry": { "type": "LineString", "coordinates": [ [ 34.753453058307855, 31.277864421612215 ], [ 34.753686894744135, 31.277769791395553 ], [ 34.754422033806563, 31.277423970714452 ], [ 34.755602696178585, 31.276869710789061 ], [ 34.756972381667659, 31.276292234847336 ], [ 34.757590360131815, 31.276041439412733 ], [ 34.758297487066002, 31.275738452746658 ], [ 34.758926659923873, 31.275468599179824 ], [ 34.759193824447721, 31.275374074371111 ], [ 34.759371902914758, 31.275317420613312 ] ] } },
{ "type": "Feature", "properties": { "SHAPE_Leng": 381.25968001799998 }, "geometry": { "type": "LineString", "coordinates": [ [ 34.760142828799893, 31.274836468073126 ], [ 34.760555353456468, 31.274551540496848 ], [ 34.761459257138469, 31.273752868793792 ], [ 34.762195739534391, 31.273106336843913 ], [ 34.76297135247227, 31.272407436274037 ] ] } },
{ "type": "Feature", "properties": { "SHAPE_Leng": 517.96881894099999 }, "geometry": { "type": "LineString", "coordinates": [ [ 34.762938339828125, 31.272039040124707 ], [ 34.762573175359861, 31.271703706065793 ], [ 34.762030033172906, 31.271405938572904 ], [ 34.76062162662771, 31.270780649435832 ], [ 34.759124652161454, 31.270088221704508 ], [ 34.758304436360426, 31.269636755854627 ] ] } },
{ "type": "Feature", "properties": { "SHAPE_Leng": 500.36545661700001 }, "geometry": { "type": "LineString", "coordinates": [ [ 34.757898866272321, 31.269234451911213 ], [ 34.75652611085286, 31.268131985180517 ], [ 34.754920937372347, 31.266837788626638 ], [ 34.75404625180316, 31.26616656818338 ] ] } },
{ "type": "Feature", "properties": { "SHAPE_Leng": 500.46422544500001 }, "geometry": { "type": "LineString", "coordinates": [ [ 34.753607045906115, 31.265834130198829 ], [ 34.75250030226637, 31.264894820443008 ], [ 34.751580976003339, 31.264271151230759 ], [ 34.751126988228819, 31.263935471696026 ], [ 34.75086112637981, 31.26376272087095 ], [ 34.750584383543178, 31.263542206111648 ], [ 34.750407509132621, 31.263350678895634 ], [ 34.749988052924799, 31.262766943138477 ], [ 34.749932998596407, 31.262661751924846 ] ] } },
{ "type": "Feature", "properties": { "SHAPE_Leng": 722.90414627400003 }, "geometry": { "type": "LineString", "coordinates": [ [ 34.759568975797201, 31.262551532501174 ], [ 34.759201843258928, 31.262645712269727 ], [ 34.758806662176305, 31.262797065367344 ], [ 34.758227417872163, 31.263100500024009 ], [ 34.757853985224727, 31.263352149399207 ], [ 34.757608874866776, 31.263489702393201 ], [ 34.757352764894428, 31.263603353258617 ], [ 34.756935308026172, 31.263764167872118 ], [ 34.756495717065299, 31.263905813449878 ], [ 34.756073062173968, 31.263990246794755 ], [ 34.75558387236422, 31.264045810171336 ], [ 34.755334014264847, 31.264011529217498 ], [ 34.754779057216474, 31.263875957111495 ], [ 34.754540153868604, 31.26387512114486 ], [ 34.754262020262296, 31.26394573570969 ], [ 34.753950436507097, 31.264040095829206 ], [ 34.753733188663723, 31.264158648488962 ], [ 34.753382100248508, 31.264381726833538 ], [ 34.752735657939105, 31.264789898119364 ] ] } },
{ "type": "Feature", "properties": { "SHAPE_Leng": 214.899571294 }, "geometry": { "type": "LineString", "coordinates": [ [ 34.798827720723196, 31.255827605917958 ], [ 34.798594848111229, 31.257018823882849 ], [ 34.798533022558772, 31.257510205159871 ], [ 34.798507022528135, 31.257743979546444 ], [ 34.798507017422629, 31.257745172749235 ] ] } },
{ "type": "Feature", "properties": { "SHAPE_Leng": 1304.2102244099999 }, "geometry": { "type": "LineString", "coordinates": [ [ 34.780788869948587, 31.258357467468393 ], [ 34.777608839979258, 31.258843295947479 ], [ 34.77632131444846, 31.258533569857999 ], [ 34.775412441172278, 31.258034192131088 ], [ 34.774527876163113, 31.257076720900045 ], [ 34.773113563629359, 31.255334765295895 ], [ 34.7706823623801, 31.252443947467864 ] ] } },
{ "type": "Feature", "properties": { "SHAPE_Leng": 1345.66205898 }, "geometry": { "type": "LineString", "coordinates": [ [ 34.783265044750429, 31.247807783792432 ], [ 34.781462254677116, 31.248470028183718 ], [ 34.779967791271019, 31.249744155678346 ], [ 34.778089017264392, 31.252467857800049 ], [ 34.775250115637242, 31.256181024709871 ], [ 34.77438529298265, 31.25690111071621 ] ] } },
{ "type": "Feature", "properties": { "SHAPE_Leng": 91.295303266000005 }, "geometry": { "type": "LineString", "coordinates": [ [ 34.805287336345813, 31.260973217505452 ], [ 34.804328906491982, 31.260984555654403 ] ] } },
{ "type": "Feature", "properties": { "SHAPE_Leng": 613.86476580800002 }, "geometry": { "type": "LineString", "coordinates": [ [ 34.798045087613886, 31.263961541481716 ], [ 34.798057029034808, 31.261174391546369 ], [ 34.798039753768911, 31.260019371905454 ], [ 34.798024360827817, 31.258425280575828 ] ] } },
{ "type": "Feature", "properties": { "SHAPE_Leng": 306.48070692300001 }, "geometry": { "type": "LineString", "coordinates": [ [ 34.78552092801786, 31.252900888966415 ], [ 34.785309785137372, 31.252909746556426 ], [ 34.785107376375862, 31.252827952161265 ], [ 34.78493226914356, 31.252853629921709 ], [ 34.784215182472067, 31.253581493772085 ], [ 34.78336693178003, 31.254444942740793 ], [ 34.783347106616958, 31.254530784124753 ], [ 34.78334681008613, 31.254597598877023 ] ] } },
{ "type": "Feature", "properties": { "SHAPE_Leng": 441.80120224199999 }, "geometry": { "type": "LineString", "coordinates": [ [ 34.757035022992071, 31.256564892716121 ], [ 34.755825559703887, 31.257391105614584 ], [ 34.754565645424577, 31.258307808427766 ], [ 34.754392607721243, 31.258479015880834 ], [ 34.753495028981483, 31.259134484742926 ] ] } },
{ "type": "Feature", "properties": { "SHAPE_Leng": 566.46434484700001 }, "geometry": { "type": "LineString", "coordinates": [ [ 34.79847879240144, 31.25868312318255 ], [ 34.798502445822152, 31.260945402235322 ], [ 34.798362486890355, 31.263789418871038 ] ] } },
{ "type": "Feature", "properties": { "SHAPE_Leng": 259.21987187000002 }, "geometry": { "type": "LineString", "coordinates": [ [ 34.787937165547582, 31.260226937187959 ], [ 34.788289485092974, 31.260967828099613 ], [ 34.788615077608, 31.261470003364142 ], [ 34.78898992321696, 31.262144148566446 ], [ 34.789094627089085, 31.262340162856447 ] ] } },
{ "type": "Feature", "properties": { "SHAPE_Leng": 2093.0619531799998 }, "geometry": { "type": "LineString", "coordinates": [ [ 34.803989815878815, 31.233552907498137 ], [ 34.80414523167984, 31.233577253982649 ], [ 34.804380599438034, 31.23374025574492 ], [ 34.804618102245236, 31.234055985529078 ], [ 34.804798086930127, 31.234841638300789 ], [ 34.804936501041254, 31.234947065698375 ], [ 34.805632964687824, 31.236533080363614 ], [ 34.806373679588859, 31.237657044762678 ], [ 34.806813123127192, 31.238114540163028 ], [ 34.807353778336811, 31.238520282217198 ], [ 34.808127729983944, 31.238683771909042 ], [ 34.808648116615956, 31.239042377341057 ], [ 34.810745619901603, 31.239006656079187 ], [ 34.813255369811422, 31.23879968982455 ], [ 34.814414549346772, 31.238635156447096 ], [ 34.815055096603665, 31.238464126102389 ], [ 34.815756180046115, 31.238483890978628 ], [ 34.817422886817795, 31.238309004184309 ], [ 34.819163016935072, 31.238126651323796 ], [ 34.819971669265662, 31.238237034272331 ], [ 34.821087729286297, 31.238355088666442 ], [ 34.821607793543755, 31.238437862800339 ], [ 34.822127735386701, 31.238551005314477 ] ] } }
]
}
