{
"type": "FeatureCollection",
"name": "businesscenters",
"crs": { "type": "name", "properties": { "name": "urn:ogc:def:crs:OGC:1.3:CRS84" } },
"features": [
{ "type": "Feature", "properties": { "Name": "×××ª ××××× ×¡××¨××§×", "FolderPath": "×××¤×× ××¨×××  ××¡××¨/××¨××× ××¡××¨", "descriptio": null, "remarks": "×××ª ×××××", "SHAPE_Leng": 2357.9269436200002, "SHAPE_Area": 275414.100064 }, "geometry": { "type": "Polygon", "coordinates": [ [ [ 34.799100108660873, 31.260861162712118 ], [ 34.802565508187477, 31.26076946241383 ], [ 34.80515110854418, 31.260751162387869 ], [ 34.805805708578816, 31.260751162902121 ], [ 34.805687608439911, 31.2600633627207 ], [ 34.805730508526494, 31.259953262372409 ], [ 34.805612508630759, 31.259659762192896 ], [ 34.804528909086208, 31.259137062312675 ], [ 34.804357309124676, 31.259577262711097 ], [ 34.803971009159227, 31.259302062342837 ], [ 34.803992508853824, 31.25916456279764 ], [ 34.803938808942334, 31.259036162792832 ], [ 34.803767208409276, 31.259036161988817 ], [ 34.803327208366731, 31.258091462211784 ], [ 34.802747908529462, 31.257100962573187 ], [ 34.801203009231571, 31.255771062746554 ], [ 34.800720208407562, 31.255771062702024 ], [ 34.800494909036914, 31.255954562637314 ], [ 34.799293208644563, 31.255697761858837 ], [ 34.799185908235458, 31.256358062195591 ], [ 34.798789008290363, 31.25626636208116 ], [ 34.798595908569801, 31.256908362020951 ], [ 34.798316908458396, 31.257587062000013 ], [ 34.798198908435282, 31.258348262237931 ], [ 34.798349108519069, 31.260723662054694 ], [ 34.798628108254668, 31.260888762620077 ], [ 34.799100108660873, 31.260861162712118 ] ] ] } },
{ "type": "Feature", "properties": { "Name": "××× ×××¨×¡×××ª ×× ×××¨×××", "FolderPath": "×××¤×× ××¨×××  ××¡××¨/××¨××× ××¡××¨", "descriptio": null, "remarks": "××× ×××¨×¡×××", "SHAPE_Leng": 3724.39922394, "SHAPE_Area": 429936.86772099999 }, "geometry": { "type": "Polygon", "coordinates": [ [ [ 34.798529008142943, 31.261156062537019 ], [ 34.798389608055182, 31.261275262483068 ], [ 34.798357408238154, 31.263265361934184 ], [ 34.798475408555845, 31.263641361984231 ], [ 34.799097707973417, 31.263879862571844 ], [ 34.802541608777325, 31.263934862486952 ], [ 34.804290408705008, 31.263980662344835 ], [ 34.805223808675265, 31.263623062100638 ], [ 34.803438808283921, 31.265848062384947 ], [ 34.801825408225106, 31.26825646211061 ], [ 34.804499608565173, 31.269386762663963 ], [ 34.805596608084535, 31.268375662570964 ], [ 34.808431808469621, 31.267392162665743 ], [ 34.805728108770317, 31.262715062097868 ], [ 34.805706608579335, 31.261036762687453 ], [ 34.798529008142943, 31.261156062537019 ] ] ] } },
{ "type": "Feature", "properties": { "Name": "××¨××× ××¡××¨ ××××¨×× - ×§× ××× ××¨× × ×§× ×××", "FolderPath": "×××¤×× ××¨×××  ××¡××¨/××¨××× ××¡××¨", "descriptio": null, "remarks": "××¨×× ××¡××¨× ××××¨××", "SHAPE_Leng": 733.81031256899996, "SHAPE_Area": 25396.203169799999 }, "geometry": { "type": "Polygon", "coordinates": [ [ [ 34.770826007918608, 31.251156861358066 ], [ 34.773400907961069, 31.250079161495652 ], [ 34.772961008560337, 31.249340761206511 ], [ 34.770353908053558, 31.250418561112859 ], [ 34.770826007918608, 31.251156861358066 ] ] ] } },
{ "type": "Feature", "properties": { "Name": "××¨××× ××¡××¨ ××××¨×× - ×§× ××× ××××", "FolderPath": "×××¤×× ××¨×××  ××¡××¨/××¨××× ××¡××¨", "descriptio": null, "remarks": "××¨××× ××¡××¨ ××××¨××", "SHAPE_Leng": 260.72165149400001, "SHAPE_Area": 3728.8944598200001 }, "geometry": { "type": "Polygon", "coordinates": [ [ [ 34.778216807707992, 31.263419461747791 ], [ 34.779080407510747, 31.263699161267905 ], [ 34.779233307564795, 31.263334661948011 ], [ 34.778364308294258, 31.263064161199271 ], [ 34.778216807707992, 31.263419461747791 ] ] ] } },
{ "type": "Feature", "properties": { "Name": "××¨××× ××¡××¨ ××××¨×× - ×§× ××× ×©××× ××××", "FolderPath": "×××¤×× ××¨×××  ××¡××¨/××¨××× ××¡××¨", "descriptio": null, "remarks": "××¨××× ××¡××¨ ××××¨××", "SHAPE_Leng": 235.60817072, "SHAPE_Area": 2919.05886534 }, "geometry": { "type": "Polygon", "coordinates": [ [ [ 34.767466408344262, 31.257588560967367 ], [ 34.767740008220976, 31.257879761619108 ], [ 34.767839307702957, 31.257813261633775 ], [ 34.767938507529898, 31.257918761211243 ], [ 34.768075308029232, 31.257927961467047 ], [ 34.768179907369749, 31.257854561619752 ], [ 34.768220108386956, 31.257900461460185 ], [ 34.768330108104429, 31.257829361625344 ], [ 34.767858008130553, 31.257308861414273 ], [ 34.767466408344262, 31.257588560967367 ] ] ] } },
{ "type": "Feature", "properties": { "Name": "××¨××× ××¡××¨ ××××¨×× - ×§× ××× ×¢××¨×××× ×× ××", "FolderPath": "×××¤×× ××¨×××  ××¡××¨/××¨××× ××¡××¨", "descriptio": null, "remarks": "××¨××× ××¡××¨ ××××¨××", "SHAPE_Leng": 602.76204813899994, "SHAPE_Area": 15496.5613656 }, "geometry": { "type": "Polygon", "coordinates": [ [ [ 34.794879308833323, 31.242979361867043 ], [ 34.794240909232052, 31.243424162643535 ], [ 34.794010309116842, 31.243726862164639 ], [ 34.794021009351589, 31.243873662524763 ], [ 34.794498409466648, 31.244089262607051 ], [ 34.794804208866296, 31.244268062279769 ], [ 34.794981209166693, 31.244373561840021 ], [ 34.795163608873395, 31.244488262452709 ], [ 34.795303108961932, 31.244424062304805 ], [ 34.795506909201379, 31.244355262056501 ], [ 34.795571309247165, 31.244226862311898 ], [ 34.79561420945263, 31.244295662599978 ], [ 34.796091608726258, 31.244066261920775 ], [ 34.795834209382726, 31.243644362498067 ], [ 34.795447908755669, 31.243855361833656 ], [ 34.794906108841111, 31.243268261810705 ], [ 34.795077809468594, 31.243144461880302 ], [ 34.794879308833323, 31.242979361867043 ] ] ] } },
{ "type": "Feature", "properties": { "Name": "××¨××× ××¡××¨ ××××¨×× - ××¨×× ××¡××¨× ××× 7", "FolderPath": "×××¤×× ××¨×××  ××¡××¨/××¨××× ××¡××¨", "descriptio": null, "remarks": "××¨××× ××¡××¨ ××××¨××", "SHAPE_Leng": 717.75891869600002, "SHAPE_Area": 25950.817665899998 }, "geometry": { "type": "Polygon", "coordinates": [ [ [ 34.796143209761219, 31.233872462204193 ], [ 34.797714909714692, 31.233101862375833 ], [ 34.797398409610878, 31.23271656196755 ], [ 34.797967109933268, 31.23249646246564 ], [ 34.797913409856776, 31.232239562074852 ], [ 34.796652809352487, 31.231725861991766 ], [ 34.795848109780202, 31.232886362753955 ], [ 34.796094909813668, 31.233028562029755 ], [ 34.796143209761219, 31.233872462204193 ] ] ] } },
{ "type": "Feature", "properties": { "Name": "××¨×× ××¡××¨ ××××¨×× - ×¡×× ×× ×¡××× ×××¨ ×©××¢", "FolderPath": "×××¤×× ××¨×××  ××¡××¨/××¨××× ××¡××¨", "descriptio": null, "remarks": "××¨×× ××¡××¨× ××××¨××", "SHAPE_Leng": 633.01753825599997, "SHAPE_Area": 20896.094167899999 }, "geometry": { "type": "Polygon", "coordinates": [ [ [ 34.798505809320552, 31.234481962241553 ], [ 34.7998898098772, 31.234491162787972 ], [ 34.800082909998522, 31.234729662520916 ], [ 34.80034040909679, 31.234858162086375 ], [ 34.800479909054964, 31.234844362823718 ], [ 34.800635509795228, 31.234738862035382 ], [ 34.800866109642421, 31.23394076291995 ], [ 34.800791009986519, 31.233807762863872 ], [ 34.800608610086783, 31.233725162691314 ], [ 34.799600110049219, 31.233660962752271 ], [ 34.798414609605594, 31.233858162432064 ], [ 34.798505809320552, 31.234481962241553 ] ] ] } },
{ "type": "Feature", "properties": { "Name": "××¨×× ××¡××¨ ××××¨×× - ××× ×××¨ ×©××¢", "FolderPath": "×××¤×× ××¨×××  ××¡××¨/××¨××× ××¡××¨", "descriptio": null, "remarks": "××¨×× ××¡××¨× ××××¨××", "SHAPE_Leng": 2507.5800189199999, "SHAPE_Area": 232179.43952499999 }, "geometry": { "type": "Polygon", "coordinates": [ [ [ 34.808864908964736, 31.243679462985359 ], [ 34.810624409135187, 31.244211462510492 ], [ 34.811708009736044, 31.24492466267089 ], [ 34.812705809618016, 31.245656162593207 ], [ 34.814164909377403, 31.246550362586852 ], [ 34.815624109682361, 31.247554863004812 ], [ 34.816058609121271, 31.246800362429234 ], [ 34.816278509353218, 31.245945063124182 ], [ 34.815119809724166, 31.244541663146244 ], [ 34.814079109658245, 31.243945462936544 ], [ 34.814465309515114, 31.242890563264051 ], [ 34.813269009483221, 31.24261076314491 ], [ 34.812287409198852, 31.242587862910685 ], [ 34.812459009612276, 31.241679762765191 ], [ 34.812437609311353, 31.241257762920725 ], [ 34.812394609317224, 31.240744062537548 ], [ 34.810860409835321, 31.240890863125429 ], [ 34.810313209390365, 31.240945863031598 ], [ 34.810109409586616, 31.241092663049258 ], [ 34.808918509370919, 31.241055962531622 ], [ 34.808907809629055, 31.241505462507746 ], [ 34.80939060946983, 31.241505462973919 ], [ 34.809369109586228, 31.242697962888364 ], [ 34.808864908964736, 31.243679462985359 ] ] ] } },
{ "type": "Feature", "properties": { "Name": "××¨××× ××¡××¨ ××××¨×× - one", "FolderPath": "×××¤×× ××¨×××  ××¡××¨/××¨××× ××¡××¨", "descriptio": null, "remarks": "××¨××× ××¡××¨ ××××¨××", "SHAPE_Leng": 1067.7290165500001, "SHAPE_Area": 61791.701783600001 }, "geometry": { "type": "Polygon", "coordinates": [ [ [ 34.81092820956674, 31.248202362455139 ], [ 34.813052509757483, 31.248404163050406 ], [ 34.813116909166361, 31.246386262903904 ], [ 34.812183509878871, 31.245679962611742 ], [ 34.810949709219464, 31.24484526297708 ], [ 34.81092820956674, 31.248202362455139 ] ] ] } },
{ "type": "Feature", "properties": { "Name": "×¨×¡×§×", "FolderPath": "×××¤×× ××¨×××  ××¡××¨/××¨××× ××¡××¨", "descriptio": null, "remarks": "××¨××× ××¡××¨ ××××¨××", "SHAPE_Leng": 1560.4780037099999, "SHAPE_Area": 78791.966595599995 }, "geometry": { "type": "Polygon", "coordinates": [ [ [ 34.800006808936431, 31.248699762788256 ], [ 34.799985309153925, 31.244140962764895 ], [ 34.798043408942227, 31.244113462223027 ], [ 34.798011208687775, 31.244773862131975 ], [ 34.799116309008106, 31.244783062111662 ], [ 34.799041209472939, 31.245847062380353 ], [ 34.798075609561813, 31.24579206192826 ], [ 34.798107809255448, 31.24688356226347 ], [ 34.798386708823294, 31.248722662569513 ], [ 34.800006808936431, 31.248699762788256 ] ] ] } },
{ "type": "Feature", "properties": { "Name": "××××¨× ×ª×¢×©××× - ×§×¨×××ª ××××××ª", "FolderPath": "×××¤×× ××¨×××  ××¡××¨/××¨××× ××¡××¨", "descriptio": null, "remarks": "××××¨ ×ª×¢×©×××", "SHAPE_Leng": 3181.4964951100001, "SHAPE_Area": 549223.39151500002 }, "geometry": { "type": "Polygon", "coordinates": [ [ [ 34.802302509315389, 31.230590362190092 ], [ 34.803252010121788, 31.226984762744884 ], [ 34.804534110612472, 31.220122062650276 ], [ 34.799706009839504, 31.219828462660608 ], [ 34.799116009894043, 31.223122262807678 ], [ 34.798236310317883, 31.22537936246032 ], [ 34.797557609482489, 31.228099562452389 ], [ 34.798681510226864, 31.229865662870271 ], [ 34.800470509979739, 31.230787662348373 ], [ 34.802302509315389, 31.230590362190092 ] ] ] } },
{ "type": "Feature", "properties": { "Name": "×©××§ ×¢××¨×× ×", "FolderPath": "×××¤×× ××¨×××  ××¡××¨/××¨××× ××¡××¨", "descriptio": null, "remarks": "×©××§", "SHAPE_Leng": 970.22919298099998, "SHAPE_Area": 59079.377479900002 }, "geometry": { "type": "Polygon", "coordinates": [ [ [ 34.794425809045258, 31.240347262544919 ], [ 34.795639509346103, 31.240815062611002 ], [ 34.796576909180423, 31.241131562508521 ], [ 34.797767809534633, 31.238957562177209 ], [ 34.796581009645649, 31.238508062519593 ], [ 34.79550940909116, 31.238276462668967 ], [ 34.795361908972822, 31.238696162019306 ], [ 34.794862909328565, 31.239523962301316 ], [ 34.794425809045258, 31.240347262544919 ] ] ] } },
{ "type": "Feature", "properties": { "Name": "××¨××× ××¡××¨ ×©××× ×ª××× - ××¨×× ××¡××¨× ×××©×¨", "FolderPath": "×××¤×× ××¨×××  ××¡××¨/××¨××× ××¡××¨", "descriptio": null, "remarks": "××¨××× ××¡××¨ ×©××× ×ª×××", "SHAPE_Leng": 237.00100942099999, "SHAPE_Area": 2093.30433296 }, "geometry": { "type": "Polygon", "coordinates": [ [ [ 34.779902208072635, 31.251352161978691 ], [ 34.78012210811945, 31.251205361687173 ], [ 34.779985307924996, 31.251070061974179 ], [ 34.780049708138385, 31.25103796205266 ], [ 34.780004108857661, 31.250998962018564 ], [ 34.779953208742434, 31.251019661324886 ], [ 34.77989950877847, 31.25097606185588 ], [ 34.780055108660768, 31.250866061661597 ], [ 34.779770808135275, 31.250595461767656 ], [ 34.779684908912394, 31.250666561908776 ], [ 34.779701008035332, 31.250689462126729 ], [ 34.779679607955785, 31.250710062162145 ], [ 34.77972250873615, 31.250758261839938 ], [ 34.779566908156298, 31.25088666137227 ], [ 34.779902208072635, 31.251352161978691 ] ] ] } },
{ "type": "Feature", "properties": { "Name": "××¨×× ×§× ××× ×××××× ×××", "FolderPath": "×××¤×× ××¨×××  ××¡××¨/××¨××× ××¡××¨", "descriptio": null, "remarks": "××¨××× ××¡××¨ ×©××× ×ª×××", "SHAPE_Leng": 220.70351660599999, "SHAPE_Area": 2938.6634886699999 }, "geometry": { "type": "Polygon", "coordinates": [ [ [ 34.76512730802088, 31.246005860941377 ], [ 34.765489408593972, 31.246011661227357 ], [ 34.765702608296749, 31.245995661263066 ], [ 34.765845908203126, 31.245980561640632 ], [ 34.765836408725569, 31.245919060882734 ], [ 34.765813908475721, 31.245810461649626 ], [ 34.765796208434125, 31.245704661158314 ], [ 34.765772408648182, 31.245581761401812 ], [ 34.765464608320478, 31.24561126113667 ], [ 34.765069008460507, 31.245649961705666 ], [ 34.765100208372409, 31.245819061639693 ], [ 34.76512730802088, 31.246005860941377 ] ] ] } },
{ "type": "Feature", "properties": { "Name": "××××¨ ××¢××¨", "FolderPath": "×××¤×× ××¨×××  ××¡××¨/××¨××× ××¡××¨", "descriptio": null, "remarks": "××¨××× ××¡××¨ ×©××× ×ª×××", "SHAPE_Leng": 109.777268944, "SHAPE_Area": 634.52461397599996 }, "geometry": { "type": "Polygon", "coordinates": [ [ [ 34.789350609052235, 31.244382962064005 ], [ 34.789522209277422, 31.244351961832979 ], [ 34.789468608639574, 31.244153661904829 ], [ 34.78912800902458, 31.244222361635401 ], [ 34.789174908506432, 31.244359961673339 ], [ 34.789331809321894, 31.244331361995147 ], [ 34.789350609052235, 31.244382962064005 ] ] ] } },
{ "type": "Feature", "properties": { "Name": "××¨××× ××¡××¨ ×©××× ×ª××× - ××¨×× ××¡××¨× ××¨×× ××××¤×¨×", "FolderPath": "×××¤×× ××¨×××  ××¡××¨/××¨××× ××¡××¨", "descriptio": null, "remarks": "××¨××× ××¡××¨ ×©××× ×ª×××", "SHAPE_Leng": 242.40528437699999, "SHAPE_Area": 2729.4790132100002 }, "geometry": { "type": "Polygon", "coordinates": [ [ [ 34.763265107076101, 31.265932961287962 ], [ 34.763502507578423, 31.265950160743923 ], [ 34.763697007529842, 31.265794261436255 ], [ 34.763536007351618, 31.26550876087914 ], [ 34.763597707539709, 31.265460661283552 ], [ 34.763501207158342, 31.265327661545484 ], [ 34.763222207764294, 31.265593661413579 ], [ 34.763064007529564, 31.265449161348517 ], [ 34.76291110755286, 31.265582160845668 ], [ 34.763265107076101, 31.265932961287962 ] ] ] } },
{ "type": "Feature", "properties": { "Name": "××××¨ ×§×¤××", "FolderPath": "×××¤×× ××¨×××  ××¡××¨/××¨××× ××¡××¨", "descriptio": null, "remarks": "××¨××× ××¡××¨ ×©××× ×ª×××", "SHAPE_Leng": 172.08762877199999, "SHAPE_Area": 870.55912297700002 }, "geometry": { "type": "Polygon", "coordinates": [ [ [ 34.791313808234158, 31.249704361656072 ], [ 34.791692008925359, 31.249612662089366 ], [ 34.791676609286604, 31.24956106248689 ], [ 34.791733308815324, 31.249546761710153 ], [ 34.791753508350659, 31.249596862418009 ], [ 34.791790508425272, 31.249581862543046 ], [ 34.79177410871231, 31.249533061959553 ], [ 34.791951008301822, 31.249490262417378 ], [ 34.791924008526223, 31.249406261673247 ], [ 34.79126690872107, 31.249572462517669 ], [ 34.791313808234158, 31.249704361656072 ] ] ] } },
{ "type": "Feature", "properties": { "Name": "××¨×× ×©×¤××¨×", "FolderPath": "×××¤×× ××¨×××  ××¡××¨/××¨××× ××¡××¨", "descriptio": null, "remarks": "××¨××× ××¡××¨ ×©××× ×ª×××", "SHAPE_Leng": 470.60624658199998, "SHAPE_Area": 11724.5086854 }, "geometry": { "type": "Polygon", "coordinates": [ [ [ 34.797366409379094, 31.249211262343149 ], [ 34.79791630868835, 31.249222762580363 ], [ 34.79791360944791, 31.24892236191787 ], [ 34.797825108887658, 31.248537062359649 ], [ 34.796119109305103, 31.248612762464315 ], [ 34.796191608826362, 31.249211262380598 ], [ 34.797366409379094, 31.249211262343149 ] ] ] } },
{ "type": "Feature", "properties": { "Name": "××¨××× ××¡××¨ ×©××× ×ª××× - ××¨×× ××", "FolderPath": "×××¤×× ××¨×××  ××¡××¨/××¨××× ××¡××¨", "descriptio": null, "remarks": "××¨××× ××¡××¨ ×©××× ×ª×××", "SHAPE_Leng": 311.334539855, "SHAPE_Area": 5960.5229565400005 }, "geometry": { "type": "Polygon", "coordinates": [ [ [ 34.791454108812609, 31.255010362016144 ], [ 34.791660709042247, 31.254897961937175 ], [ 34.791823008640293, 31.254766161896665 ], [ 34.791824308587543, 31.254611362363015 ], [ 34.791521108447689, 31.254205562046479 ], [ 34.790611908137848, 31.254377461935945 ], [ 34.790725208045274, 31.254513362011615 ], [ 34.790967308756535, 31.254717962151599 ], [ 34.791454108812609, 31.255010362016144 ] ] ] } },
{ "type": "Feature", "properties": { "Name": "××¨××× ××¡××¨ ×©××× ×ª××× - ××¨×× ×××¨×", "FolderPath": "×××¤×× ××¨×××  ××¡××¨/××¨××× ××¡××¨", "descriptio": null, "remarks": "××¨××× ××¡××¨ ×©××× ×ª×××", "SHAPE_Leng": 435.27978952400002, "SHAPE_Area": 11412.9789533 }, "geometry": { "type": "Polygon", "coordinates": [ [ [ 34.79786220788521, 31.271009061935967 ], [ 34.797867607999187, 31.269748162095681 ], [ 34.796912708141264, 31.269890262078608 ], [ 34.796912707935093, 31.270202062273199 ], [ 34.7970522082516, 31.271018162208112 ], [ 34.79786220788521, 31.271009061935967 ] ] ] } },
{ "type": "Feature", "properties": { "Name": "××¨××× ××¡××¨ ×©××× ×ª××× - ××¨×× ×××¨××ª", "FolderPath": "×××¤×× ××¨×××  ××¡××¨/××¨××× ××¡××¨", "descriptio": null, "remarks": "××¨××× ××¡××¨ ×©××× ×ª×××", "SHAPE_Leng": 500.68408583899998, "SHAPE_Area": 8239.7393377799999 }, "geometry": { "type": "Polygon", "coordinates": [ [ [ 34.806853509366071, 31.252089762968652 ], [ 34.808977809193131, 31.251589862288565 ], [ 34.80888130860572, 31.251383462921051 ], [ 34.806676509374263, 31.251621962763856 ], [ 34.806853509366071, 31.252089762968652 ] ] ] } },
{ "type": "Feature", "properties": { "Name": "××¨××× ××¡××¨ ×©××× ×ª××× - ××¨×× ××××ª", "FolderPath": "×××¤×× ××¨×××  ××¡××¨/××¨××× ××¡××¨", "descriptio": null, "remarks": "××¨××× ××¡××¨ ×©××× ×ª×××", "SHAPE_Leng": 311.1392492, "SHAPE_Area": 5813.8069291499996 }, "geometry": { "type": "Polygon", "coordinates": [ [ [ 34.793494808348115, 31.264765662458672 ], [ 34.793505608172204, 31.264192562144427 ], [ 34.792513207738907, 31.264183261750009 ], [ 34.792534607646758, 31.264738161925933 ], [ 34.793494808348115, 31.264765662458672 ] ] ] } },
{ "type": "Feature", "properties": { "Name": "××¨××× ××¡××¨ ×©××× ×ª××× - ×©××× × ×", "FolderPath": "×××¤×× ××¨×××  ××¡××¨/××¨××× ××¡××¨", "descriptio": null, "remarks": "××¨××× ××¡××¨ ×©××× ×ª×××", "SHAPE_Leng": 599.54921303000003, "SHAPE_Area": 22994.602237 }, "geometry": { "type": "Polygon", "coordinates": [ [ [ 34.769438108523659, 31.246831761637225 ], [ 34.771390808218705, 31.246629961833889 ], [ 34.771208408661984, 31.245914461243604 ], [ 34.769985308343358, 31.245354961704436 ], [ 34.76916990850944, 31.24607956170307 ], [ 34.769438108523659, 31.246831761637225 ] ] ] } },
{ "type": "Feature", "properties": { "Name": "××¨××× ××¡××¨ ×©××× ×ª××× - ××¨×× ××", "FolderPath": "×××¤×× ××¨×××  ××¡××¨/××¨××× ××¡××¨", "descriptio": null, "remarks": "××¨××× ××¡××¨ ×©××× ×ª×××", "SHAPE_Leng": 203.444821053, "SHAPE_Area": 2559.3098237200002 }, "geometry": { "type": "Polygon", "coordinates": [ [ [ 34.804458208333358, 31.274457262792883 ], [ 34.80489810846057, 31.274099662429023 ], [ 34.804544107555614, 31.273824562677884 ], [ 34.80412570766044, 31.274145561995276 ], [ 34.804458208333358, 31.274457262792883 ] ] ] } },
{ "type": "Feature", "properties": { "Name": "××¨××× ××¡××¨ ×©××× ×ª××× - ××¨ ×××§×¨", "FolderPath": "×××¤×× ××¨×××  ××¡××¨/××¨××× ××¡××¨", "descriptio": null, "remarks": "××¨××× ××¡××¨ ×©××× ×ª×××", "SHAPE_Leng": 264.45645069800003, "SHAPE_Area": 4305.2641446899997 }, "geometry": { "type": "Polygon", "coordinates": [ [ [ 34.810678807711348, 31.272905962922827 ], [ 34.811118708634154, 31.272355762276199 ], [ 34.810635908039302, 31.272053162927261 ], [ 34.810174508569837, 31.272594162423122 ], [ 34.810678807711348, 31.272905962922827 ] ] ] } },
{ "type": "Feature", "properties": { "Name": "××××¨ ×ª×¢×©××× - ××¢××¨××× - ××××©××¢ ××¦××¨×£", "FolderPath": "×××¤×× ××¨×××  ××¡××¨/××¨××× ××¡××¨", "descriptio": null, "remarks": "××××¨ ×ª×¢×©×××", "SHAPE_Leng": 2626.1422755499998, "SHAPE_Area": 431849.563983 }, "geometry": { "type": "Polygon", "coordinates": [ [ [ 34.817836209447023, 31.257671362444597 ], [ 34.820727708743149, 31.256125963405164 ], [ 34.821816708860119, 31.25487406338689 ], [ 34.817782609164439, 31.250966762947957 ], [ 34.814333409632475, 31.253626662419951 ], [ 34.812600709325629, 31.257607263014059 ], [ 34.813008308558288, 31.258038262305845 ], [ 34.814102609225749, 31.259313063177643 ], [ 34.817836209447023, 31.257671362444597 ] ] ] } },
{ "type": "Feature", "properties": { "Name": "××¢××¨ ××¢×ª××§×Â ", "FolderPath": "×××¤×× ××¨×××  ××¡××¨/××¨××× ××¡××¨", "descriptio": "××©× ×× ××××¨×× ××ª  ×××××× ×¢××¨×", "remarks": "×¢××¨ ×¢×ª××§×", "SHAPE_Leng": 3515.22415305, "SHAPE_Area": 638638.83462400001 }, "geometry": { "type": "Polygon", "coordinates": [ [ [ 34.790433909122711, 31.244238062210599 ], [ 34.792976709282385, 31.242366861862134 ], [ 34.795319009195367, 31.238535561956354 ], [ 34.788674409216767, 31.235560262075953 ], [ 34.783363608700398, 31.239605762195509 ], [ 34.785353708586833, 31.241509161952944 ], [ 34.783623709135931, 31.242736061452568 ], [ 34.784529008505736, 31.243698061841734 ], [ 34.786977208717715, 31.242151861785587 ], [ 34.790433909122711, 31.244238062210599 ] ] ] } },
{ "type": "Feature", "properties": { "Name": "××××¨× ×ª×¢×©××× - ×¢××§ ×©×¨×", "FolderPath": "×××¤×× ××¨×××  ××¡××¨/××¨××× ××¡××¨", "descriptio": null, "remarks": "××××¨ ×ª×¢×©×××", "SHAPE_Leng": 7304.8801049100002, "SHAPE_Area": 3249579.5082100001 }, "geometry": { "type": "Polygon", "coordinates": [ [ [ 34.802995309490498, 31.230420562329076 ], [ 34.806900610335617, 31.230016862892629 ], [ 34.826555910541998, 31.225466363144331 ], [ 34.823637710790607, 31.212988063035905 ], [ 34.805999410618028, 31.213501962794531 ], [ 34.802995309490498, 31.230420562329076 ] ] ] } },
{ "type": "Feature", "properties": { "Name": "××××¨ ×ª×¢×©××× - ××× ×××ª×©××", "FolderPath": "×××¤×× ××¨×××  ××¡××¨/××¨××× ××¡××¨", "descriptio": null, "remarks": "××××¨ ×ª×¢×©×××", "SHAPE_Leng": 2784.2173183599998, "SHAPE_Area": 517339.97317000001 }, "geometry": { "type": "Polygon", "coordinates": [ [ [ 34.818737809746487, 31.250136062519967 ], [ 34.818158409453893, 31.250851462810232 ], [ 34.822213909260789, 31.254832063460672 ], [ 34.828629809023617, 31.252777663065608 ], [ 34.827589110031667, 31.250071863457492 ], [ 34.82418810921974, 31.246760562899336 ], [ 34.821302009586162, 31.248191562863017 ], [ 34.818737809746487, 31.250136062519967 ] ] ] } },
{ "type": "Feature", "properties": { "Name": "×¤××¨×§ ×××××§", "FolderPath": "×××¤×× ××¨×××  ××¡××¨/××¨××× ××¡××¨", "descriptio": null, "remarks": "×¤××¨×§ ×××××§", "SHAPE_Leng": 1546.3820871299999, "SHAPE_Area": 132046.872217 }, "geometry": { "type": "Polygon", "coordinates": [ [ [ 34.810086408230276, 31.263076262619911 ], [ 34.814839208801068, 31.265997162380216 ], [ 34.816089208878111, 31.264364762625476 ], [ 34.814774908416076, 31.262984562664219 ], [ 34.813621508342706, 31.261512662943776 ], [ 34.810086408230276, 31.263076262619911 ] ] ] } },
{ "type": "Feature", "properties": { "Name": "××¨×× ×××¨×× - ×¤×××××× ×××××", "FolderPath": "×××¤×× ××¨×××  ××¡××¨/××¨××× ××¡××¨", "descriptio": null, "remarks": "××¨×× ×××¨××", "SHAPE_Leng": 4950.9849100800002, "SHAPE_Area": 532006.07449499995 }, "geometry": { "type": "Polygon", "coordinates": [ [ [ 34.799985309153925, 31.244140962764895 ], [ 34.800006808936431, 31.248699762788256 ], [ 34.798243109297843, 31.248778262401007 ], [ 34.798456408725066, 31.250715362322733 ], [ 34.800409009369361, 31.250146662264473 ], [ 34.802855209010438, 31.247743562598455 ], [ 34.804636208880311, 31.245065162730612 ], [ 34.803005409013657, 31.243891062786307 ], [ 34.801267309347999, 31.241212562498713 ], [ 34.799829708867819, 31.240093462294183 ], [ 34.798306209419771, 31.239506361942698 ], [ 34.797812709187212, 31.239634762650297 ], [ 34.796868509409336, 31.241432762278428 ], [ 34.794895509613937, 31.242951761932265 ], [ 34.795077809468594, 31.243144461880302 ], [ 34.794906108841111, 31.243268261810705 ], [ 34.795447908755669, 31.243855361833656 ], [ 34.795834209382726, 31.243644362498067 ], [ 34.796091608726258, 31.244066261920775 ], [ 34.795198008728867, 31.244510662536129 ], [ 34.796246308844943, 31.245266962251296 ], [ 34.796841809358888, 31.245947962735372 ], [ 34.798231208527071, 31.248612561953546 ], [ 34.798075609561813, 31.24579206192826 ], [ 34.799041209472939, 31.245847062380353 ], [ 34.799116309008106, 31.244783062111662 ], [ 34.798011208687775, 31.244773862131975 ], [ 34.798043408942227, 31.244113462223027 ], [ 34.799985309153925, 31.244140962764895 ] ] ] } },
{ "type": "Feature", "properties": { "Name": "××××¨ ×ª×¢×©×× - ×¤× ××¡ ××××¦×", "FolderPath": "×××¤×× ××¨×××  ××¡××¨/××¨××× ××¡××¨", "descriptio": null, "remarks": "××××¨ ×ª×¢×©×××", "SHAPE_Leng": 1363.4970783799999, "SHAPE_Area": 66718.722309399993 }, "geometry": { "type": "Polygon", "coordinates": [ [ [ 34.805611609244892, 31.245078662920271 ], [ 34.807918309332301, 31.246330762777305 ], [ 34.808991209467543, 31.247110362670767 ], [ 34.809587709010067, 31.247879362423532 ], [ 34.809754009138857, 31.248099462738232 ], [ 34.810891309186154, 31.24817746243593 ], [ 34.810714309005412, 31.247338162439398 ], [ 34.809984709817684, 31.246618162379253 ], [ 34.808488009413971, 31.245237662931078 ], [ 34.807039609128068, 31.244416662965506 ], [ 34.805611609244892, 31.245078662920271 ] ] ] } },
{ "type": "Feature", "properties": { "Name": "×××× × ×'××××× ×¡×§×", "FolderPath": null, "descriptio": null, "remarks": "××¡××¨ ×××× ×¨×××", "SHAPE_Leng": 1671.72855491, "SHAPE_Area": 41886.256070900003 }, "geometry": { "type": "Polygon", "coordinates": [ [ [ 34.770534198025878, 31.235832954380086 ], [ 34.770244328928094, 31.236061060041056 ], [ 34.771040485749928, 31.236865541312469 ], [ 34.773586725977026, 31.238802224730836 ], [ 34.77336272817481, 31.239202370923643 ], [ 34.773938575208554, 31.23960519772027 ], [ 34.774340140776694, 31.239243824899628 ], [ 34.776045059683177, 31.240547660465879 ], [ 34.776468323393431, 31.240300895274522 ], [ 34.770534198025878, 31.235832954380086 ] ] ] } },
{ "type": "Feature", "properties": { "Name": "×¨×× ××××××", "FolderPath": "××¡××¨ ×¨×××", "descriptio": null, "remarks": "××¡××¨ ×××× ×¨×××", "SHAPE_Leng": 882.61681992900003, "SHAPE_Area": 13754.286060799999 }, "geometry": { "type": "Polygon", "coordinates": [ [ [ 34.800177124975448, 31.266056164523285 ], [ 34.80028141603529, 31.266906388883985 ], [ 34.800224573692915, 31.266907461980598 ], [ 34.800161037303766, 31.267433746059069 ], [ 34.800132900413402, 31.269241250649486 ], [ 34.800469975946235, 31.269251085138702 ], [ 34.800398046659559, 31.266951881361834 ], [ 34.800386337891972, 31.266904408080457 ], [ 34.801021441678387, 31.266892416279834 ], [ 34.801014696797424, 31.266076345290891 ], [ 34.800177124975448, 31.266056164523285 ] ] ] } },
{ "type": "Feature", "properties": { "Name": "××¡××¨ ××××× ×¨×××", "FolderPath": "×××¤×× ××¨××× ××¡××¨/××¨×××××¡××¨", "descriptio": "××¢×§× ××× - ×¨××¨", "remarks": "××¡××¨ ××××× ×¨×××", "SHAPE_Leng": 986.28772826600004, "SHAPE_Area": 59157.257798099999 }, "geometry": { "type": "Polygon", "coordinates": [ [ [ 34.796642959338264, 31.252642308573328 ], [ 34.796864432071786, 31.255401565685286 ], [ 34.798586697068885, 31.255387924528804 ], [ 34.798858865390322, 31.254100184852312 ], [ 34.79883177607519, 31.252639687699666 ], [ 34.798809554692589, 31.252639617593033 ], [ 34.796642959338264, 31.252642308573328 ] ] ] } },
{ "type": "Feature", "properties": { "Name": "××¨××× ××¡××¨ ×©××× ×ª××× - ××××¨× ××¨×××××ª ×©××× ×ª ××¤××¨×§", "FolderPath": "×××¤×× ××¨×××  ××¡××¨/××¨××× ××¡××¨", "descriptio": "×××¨ ×©××× ×ª× - ×©××× ×ª ××¤××¨×§", "remarks": "××¨××× ××¡××¨ ×©××× ×ª×××", "SHAPE_Leng": 4399.2301745599998, "SHAPE_Area": 1139930.5992699999 }, "geometry": { "type": "Polygon", "coordinates": [ [ [ 34.813232475341778, 31.228830358861725 ], [ 34.814805365202609, 31.235325879972205 ], [ 34.819868074951231, 31.236028374141775 ], [ 34.823609760271879, 31.233748656517694 ], [ 34.825833563778197, 31.233220689662762 ], [ 34.827256639201821, 31.232919423277465 ], [ 34.829390633082504, 31.232620217021651 ], [ 34.827462559755958, 31.225818379113949 ], [ 34.813232475341778, 31.228830358861725 ] ] ] } }
]
}
