{
"type": "FeatureCollection",
"name": "health",
"crs": { "type": "name", "properties": { "name": "urn:ogc:def:crs:OGC:1.3:CRS84" } },
"features": [
{ "type": "Feature", "properties": { "ID": 1, "name": "×××¤×ª ×××", "address": "×¨×× ×××××", "neighborho": "×", "HMOname": "××©×¨× ×××¨" }, "geometry": { "type": "Point", "coordinates": [ 34.800872965777778, 31.266548631862221 ] } },
{ "type": "Feature", "properties": { "ID": 1, "name": "×××¤×ª ×××", "address": "×©×' ××¨××©×", "neighborho": "×", "HMOname": "××©×¨× ×××¨" }, "geometry": { "type": "Point", "coordinates": [ 34.776942992741922, 31.245419481940889 ] } },
{ "type": "Feature", "properties": { "ID": 0, "name": "××¢××× ××", "address": "×©×××©×ª ×× ", "neighborho": "×¢\"×¢", "HMOname": "××©×¨× ×××¨" }, "geometry": { "type": "Point", "coordinates": [ 34.794024034037676, 31.24028115368964 ] } },
{ "type": "Feature", "properties": { "ID": 1, "name": "×××¤×ª ×××", "address": "××××¨×× - 9", "neighborho": "×", "HMOname": "××©×¨× ×××¨" }, "geometry": { "type": "Point", "coordinates": [ 34.790406494561445, 31.25373671837486 ] } },
{ "type": "Feature", "properties": { "ID": 1, "name": "×××¤×ª ×××", "address": "×¡× ×××¨××", "neighborho": "×", "HMOname": "××©×¨× ×××¨" }, "geometry": { "type": "Point", "coordinates": [ 34.787864356558792, 31.268808551002717 ] } },
{ "type": "Feature", "properties": { "ID": 1, "name": "×××¤×ª ×××", "address": "××× ×§××", "neighborho": "×", "HMOname": "××©×¨× ×××¨" }, "geometry": { "type": "Point", "coordinates": [ 34.773988585851399, 31.254742439386327 ] } },
{ "type": "Feature", "properties": { "ID": 1, "name": "×××¤×ª ×××-", "address": "×©×××©× ×× ", "neighborho": "×¢\"×¢", "HMOname": "××©×¨× ×××¨" }, "geometry": { "type": "Point", "coordinates": [ 34.793877982645611, 31.240223068304772 ] } },
{ "type": "Feature", "properties": { "ID": 1, "name": "×××¤×ª ×××", "address": "××¨× ×§××§", "neighborho": "××", "HMOname": "××©×¨× ×××¨" }, "geometry": { "type": "Point", "coordinates": [ 34.771157425196108, 31.25713055066187 ] } },
{ "type": "Feature", "properties": { "ID": 1, "name": "×××¤×ª ×××", "address": "×××¦×¢ ×¢××", "neighborho": "×", "HMOname": "××©×¨× ×××¨" }, "geometry": { "type": "Point", "coordinates": [ 34.777601697149599, 31.260146561153157 ] } },
{ "type": "Feature", "properties": { "ID": 1, "name": "×ª×× × ×'", "address": "××× ×××× -", "neighborho": "×", "HMOname": "××©×¨× ×××¨" }, "geometry": { "type": "Point", "coordinates": [ 34.809164765605587, 31.257051653998943 ] } },
{ "type": "Feature", "properties": { "ID": 1, "name": "×××¤×ª ×××", "address": "×× ×× ×××ª", "neighborho": "× ××", "HMOname": "××©×¨× ×××¨" }, "geometry": { "type": "Point", "coordinates": [ 34.777323251627543, 31.223531963398248 ] } },
{ "type": "Feature", "properties": { "ID": 1, "name": "××××ª ×××", "address": "××¨××××××¨", "neighborho": "×¨×××ª", "HMOname": "××©×¨× ×××¨" }, "geometry": { "type": "Point", "coordinates": [ 34.808826587119626, 31.27116062031444 ] } },
{ "type": "Feature", "properties": { "ID": 2, "name": "×× ××××¨", "address": "××××××§ 26", "neighborho": "×", "HMOname": "×××××ª" }, "geometry": { "type": "Point", "coordinates": [ 34.790792563260844, 31.25401916848574 ] } },
{ "type": "Feature", "properties": { "ID": 2, "name": "××¡×§×", "address": "××× ××××", "neighborho": "×", "HMOname": "×××××ª" }, "geometry": { "type": "Point", "coordinates": [ 34.792216961108103, 31.264414450071818 ] } },
{ "type": "Feature", "properties": { "ID": 2, "name": "×§×¤××", "address": "××××¢××¨ ×§", "neighborho": "×", "HMOname": "×××××ª" }, "geometry": { "type": "Point", "coordinates": [ 34.791006530446822, 31.248975905725477 ] } },
{ "type": "Feature", "properties": { "ID": 2, "name": "×××¨×", "address": "×××¨××  ××", "neighborho": "×", "HMOname": "×××××ª" }, "geometry": { "type": "Point", "coordinates": [ 34.796197881897243, 31.270304771532889 ] } },
{ "type": "Feature", "properties": { "ID": 2, "name": "××¨×¤××ª ××¦", "address": "×××¦×¢ ×¢××", "neighborho": "×", "HMOname": "×××××ª" }, "geometry": { "type": "Point", "coordinates": [ 34.779297868364047, 31.25929899291916 ] } },
{ "type": "Feature", "properties": { "ID": 2, "name": "××¨×¤××ª - ×", "address": "××©×\"× 18", "neighborho": "××", "HMOname": "×××××ª" }, "geometry": { "type": "Point", "coordinates": [ 34.76948587530665, 31.257151272218874 ] } },
{ "type": "Feature", "properties": { "ID": 2, "name": "××¨×¤××ª - ×", "address": "×©× ××¨××©×", "neighborho": "×", "HMOname": "×××××ª" }, "geometry": { "type": "Point", "coordinates": [ 34.777017191713348, 31.245770585690934 ] } },
{ "type": "Feature", "properties": { "ID": 0, "name": "××¨×¤××ª ×©×ª", "address": "×¡×××× ×¡×§×", "neighborho": "×¢\"×¢", "HMOname": "×××××ª" }, "geometry": { "type": "Point", "coordinates": [ 34.78333660819834, 31.240259043985631 ] } },
{ "type": "Feature", "properties": { "ID": 2, "name": "××¨×¤××ª ××", "address": "×× × ×¡× ×© 3", "neighborho": "×", "HMOname": "×××××ª" }, "geometry": { "type": "Point", "coordinates": [ 34.809441988253141, 31.257035079473265 ] } },
{ "type": "Feature", "properties": { "ID": 2, "name": "××¨×¤×× ××", "address": "×¡××× 1", "neighborho": "××¨××", "HMOname": "×××××ª" }, "geometry": { "type": "Point", "coordinates": [ 34.802209447754635, 31.247868622590108 ] } },
{ "type": "Feature", "properties": { "ID": 2, "name": "××¨×¤××ª × ×", "address": "×©××× 42", "neighborho": "× ××× ", "HMOname": "×××××ª" }, "geometry": { "type": "Point", "coordinates": [ 34.790868543437426, 31.231037090464067 ] } },
{ "type": "Feature", "properties": { "ID": 2, "name": "××¨×¤××ª × ×", "address": "××× ×× 5", "neighborho": "× ×××", "HMOname": "×××××ª" }, "geometry": { "type": "Point", "coordinates": [ 34.766331917327015, 31.266907442528712 ] } },
{ "type": "Feature", "properties": { "ID": 2, "name": "××¨×¤××ª ×©×'", "address": "××¢×××× 7", "neighborho": "×", "HMOname": "×××××ª" }, "geometry": { "type": "Point", "coordinates": [ 34.781841231659286, 31.250979444628491 ] } },
{ "type": "Feature", "properties": { "ID": 2, "name": "××¨×¤××ª ××", "address": "××× ×××× 6", "neighborho": "×", "HMOname": "××××××ª" }, "geometry": { "type": "Point", "coordinates": [ 34.800267157748394, 31.255346373669262 ] } },
{ "type": "Feature", "properties": { "ID": 2, "name": "××¨×¤××ª ×¨×", "address": "××¨ ×× ×¢× 4", "neighborho": "×¨×××ª", "HMOname": "×××××ª" }, "geometry": { "type": "Point", "coordinates": [ 34.814390332038045, 31.274851775838577 ] } },
{ "type": "Feature", "properties": { "ID": 2, "name": "××¨×¤××ª ×¨×", "address": "××¨×©×× ×©×", "neighborho": "×¨×××ª", "HMOname": "×××××ª" }, "geometry": { "type": "Point", "coordinates": [ 34.805069596605776, 31.270748909830765 ] } },
{ "type": "Feature", "properties": { "ID": 2, "name": "××¨×¤××ª - ×", "address": "×©××× ×××", "neighborho": "××", "HMOname": "××××××ª" }, "geometry": { "type": "Point", "coordinates": [ 34.767990445650724, 31.257690466765816 ] } },
{ "type": "Feature", "properties": { "ID": 2, "name": "×××××ª - ×", "address": "×©×××¨×× 62", "neighborho": "×××", "HMOname": "×××××ª" }, "geometry": { "type": "Point", "coordinates": [ 34.765327411288453, 31.245798310208755 ] } },
{ "type": "Feature", "properties": { "ID": 2, "name": "×××× - ×©×'", "address": "××¨×¦×× 2", "neighborho": null, "HMOname": "××××" }, "geometry": { "type": "Point", "coordinates": [ 34.768920958223028, 31.261728482623965 ] } },
{ "type": "Feature", "properties": { "ID": 2, "name": "××¨×¤××ª ××", "address": "××¦××§ ×× ×¦", "neighborho": "×.××", "HMOname": "×××××ª" }, "geometry": { "type": "Point", "coordinates": [ 34.7992234279765, 31.243040532377332 ] } },
{ "type": "Feature", "properties": { "ID": 2, "name": "××××××ª × ", "address": "××©×¨ ××¨×©", "neighborho": "× .××", "HMOname": "××××××ª" }, "geometry": { "type": "Point", "coordinates": [ 34.776250652732266, 31.240019261466259 ] } },
{ "type": "Feature", "properties": { "ID": 2, "name": "××©×××", "address": "×× ×¨××××", "neighborho": "×.××", "HMOname": "×××××ª" }, "geometry": { "type": "Point", "coordinates": [ 34.802849771963885, 31.247489827851251 ] } },
{ "type": "Feature", "properties": { "ID": 2, "name": "×¨×××ª ×××¨", "address": "×××¡×§×¨ ×©×", "neighborho": "×¨×××ª", "HMOname": "××××" }, "geometry": { "type": "Point", "coordinates": [ 34.798571613006864, 31.283257836856674 ] } },
{ "type": "Feature", "properties": { "ID": 2, "name": "×¤×× 7", "address": "××¨×× ××¤×¨", "neighborho": null, "HMOname": "××××" }, "geometry": { "type": "Point", "coordinates": [ 34.767039398476335, 31.23074541783588 ] } },
{ "type": "Feature", "properties": { "ID": 2, "name": "××¢×§× ×××", "address": "××¢×§× ×××", "neighborho": null, "HMOname": "××××××ª" }, "geometry": { "type": "Point", "coordinates": [ 34.797602696508754, 31.253406646781357 ] } },
{ "type": "Feature", "properties": { "ID": 2, "name": "××××ª ×××¨", "address": "×××¨×× ××", "neighborho": "×", "HMOname": "××××××ª" }, "geometry": { "type": "Point", "coordinates": [ 34.792815022195605, 31.264289002650195 ] } },
{ "type": "Feature", "properties": { "ID": 2, "name": "×¨×××ª", "address": "×©×× ×××¨ ×", "neighborho": "×¨×××ª", "HMOname": "××××××ª" }, "geometry": { "type": "Point", "coordinates": [ 34.799378018335595, 31.283239685532699 ] } },
{ "type": "Feature", "properties": { "ID": 2, "name": "×¤×× 7", "address": "××¨×× ××¤×¨", "neighborho": "× ×××", "HMOname": "×××××ª" }, "geometry": { "type": "Point", "coordinates": [ 34.765312808296706, 31.231481729913064 ] } },
{ "type": "Feature", "properties": { "ID": 2, "name": "×", "address": "××¨××× ××§", "neighborho": "×", "HMOname": "××××××ª" }, "geometry": { "type": "Point", "coordinates": [ 34.774795551965603, 31.26814285928452 ] } },
{ "type": "Feature", "properties": { "ID": 0, "name": "+×ª×¢×¡××§×ª×", "address": null, "neighborho": "×", "HMOname": "×××××ª" }, "geometry": { "type": "Point", "coordinates": [ 34.799531181914602, 31.26710758712397 ] } },
{ "type": "Feature", "properties": { "ID": 0, "name": "× ×¨×¤××× ×¡", "address": null, "neighborho": "×", "HMOname": "×××××ª" }, "geometry": { "type": "Point", "coordinates": [ 34.800120176193545, 31.258803792976156 ] } },
{ "type": "Feature", "properties": { "ID": 2, "name": "××¨×¤××", "address": null, "neighborho": "×", "HMOname": "×××××ª" }, "geometry": { "type": "Point", "coordinates": [ 34.806920265872868, 31.251281195795187 ] } },
{ "type": "Feature", "properties": { "ID": 0, "name": "×××××× ×", "address": null, "neighborho": "×", "HMOname": "×××××ª" }, "geometry": { "type": "Point", "coordinates": [ 34.796806397034999, 31.259878181781993 ] } },
{ "type": "Feature", "properties": { "ID": 0, "name": "×××× ×¤×¨×", "address": null, "neighborho": "×.××", "HMOname": null }, "geometry": { "type": "Point", "coordinates": [ 34.799722989633686, 31.247354411122618 ] } },
{ "type": "Feature", "properties": { "ID": 2, "name": "××¨×¤××ª ×¨×", "address": null, "neighborho": "×¨×××ª", "HMOname": "××××" }, "geometry": { "type": "Point", "coordinates": [ 34.80444830644597, 31.274183668882667 ] } },
{ "type": "Feature", "properties": { "ID": 2, "name": "××¨×¤××ª - ×", "address": null, "neighborho": "×", "HMOname": "××××××ª" }, "geometry": { "type": "Point", "coordinates": [ 34.793445448264777, 31.263956477124207 ] } },
{ "type": "Feature", "properties": { "ID": 0, "name": "×××ª ××¦××", "address": null, "neighborho": "××¨××", "HMOname": null }, "geometry": { "type": "Point", "coordinates": [ 34.784694077620962, 31.243055784066399 ] } },
{ "type": "Feature", "properties": { "ID": 2, "name": "××¨×¤××ª × ×", "address": null, "neighborho": "× ×××", "HMOname": "××××" }, "geometry": { "type": "Point", "coordinates": [ 34.769559668506901, 31.270216690610393 ] } },
{ "type": "Feature", "properties": { "ID": 2, "name": "××¨×¤××ª ××", "address": null, "neighborho": "×¢\"×¢", "HMOname": "××××××ª" }, "geometry": { "type": "Point", "coordinates": [ 34.790634369084039, 31.243503693291977 ] } },
{ "type": "Feature", "properties": { "ID": 2, "name": "××¨×¤××ª × ×", "address": null, "neighborho": null, "HMOname": "××××××ª" }, "geometry": { "type": "Point", "coordinates": [ 34.765529761512653, 31.26589393010936 ] } },
{ "type": "Feature", "properties": { "ID": 2, "name": "××¨×¤××", "address": null, "neighborho": "×.××", "HMOname": "××××" }, "geometry": { "type": "Point", "coordinates": [ 34.799807803411824, 31.244807596400978 ] } },
{ "type": "Feature", "properties": { "ID": 2, "name": "×§××¤\"× ×××", "address": null, "neighborho": "×.××", "HMOname": "×××××ª" }, "geometry": { "type": "Point", "coordinates": [ 34.806969809812216, 31.259943660910668 ] } },
{ "type": "Feature", "properties": { "ID": 2, "name": "××¨×§×× ×", "address": null, "neighborho": "×", "HMOname": "××××××ª" }, "geometry": { "type": "Point", "coordinates": [ 34.77637437375342, 31.266331647206471 ] } },
{ "type": "Feature", "properties": { "ID": 2, "name": "×¨×××ª ××¨×", "address": null, "neighborho": null, "HMOname": null }, "geometry": { "type": "Point", "coordinates": [ 34.798742091940589, 31.282599795794187 ] } },
{ "type": "Feature", "properties": { "ID": 1, "name": "×××¤×ª ×××", "address": "×¡× ×××¨××", "neighborho": null, "HMOname": "××©×¨× ×××¨" }, "geometry": { "type": "Point", "coordinates": [ 34.787864356558792, 31.268808551002717 ] } },
{ "type": "Feature", "properties": { "ID": 1, "name": "×××¤×ª ×××", "address": "×××¦×¢ ×¢××", "neighborho": null, "HMOname": "××©×¨× ×××¨" }, "geometry": { "type": "Point", "coordinates": [ 34.777601697149599, 31.260146561153157 ] } },
{ "type": "Feature", "properties": { "ID": 1, "name": "×××¤×ª ×××", "address": "×××¨× ×§××¨", "neighborho": null, "HMOname": "××©×¨× ×××¨" }, "geometry": { "type": "Point", "coordinates": [ 34.75381610743905, 31.271273912770997 ] } }
]
}
