{
"type": "FeatureCollection",
"name": "shelters",
"crs": { "type": "name", "properties": { "name": "urn:ogc:def:crs:OGC:1.3:CRS84" } },
"features": [
{ "type": "Feature", "properties": { "name": "×/2" }, "geometry": { "type": "Point", "coordinates": [ 34.808145967338916, 31.258954943504428 ] } },
{ "type": "Feature", "properties": { "name": "×/1" }, "geometry": { "type": "Point", "coordinates": [ 34.807822997108005, 31.259731265716368 ] } },
{ "type": "Feature", "properties": { "name": "×/25" }, "geometry": { "type": "Point", "coordinates": [ 34.809299856502896, 31.259185550968759 ] } },
{ "type": "Feature", "properties": { "name": "×/33" }, "geometry": { "type": "Point", "coordinates": [ 34.809294912326514, 31.2572411072763 ] } },
{ "type": "Feature", "properties": { "name": "×/36" }, "geometry": { "type": "Point", "coordinates": [ 34.810906849011886, 31.257415930097764 ] } },
{ "type": "Feature", "properties": { "name": "×/3" }, "geometry": { "type": "Point", "coordinates": [ 34.810265983264145, 31.258360262199901 ] } },
{ "type": "Feature", "properties": { "name": "×/7" }, "geometry": { "type": "Point", "coordinates": [ 34.805553808116109, 31.254182481689938 ] } },
{ "type": "Feature", "properties": { "name": "×/23" }, "geometry": { "type": "Point", "coordinates": [ 34.802624960506961, 31.255109244730605 ] } },
{ "type": "Feature", "properties": { "name": "×/22" }, "geometry": { "type": "Point", "coordinates": [ 34.804405198436257, 31.255581831321127 ] } },
{ "type": "Feature", "properties": { "name": "×/39" }, "geometry": { "type": "Point", "coordinates": [ 34.809456515105836, 31.253602393637582 ] } },
{ "type": "Feature", "properties": { "name": "×/26" }, "geometry": { "type": "Point", "coordinates": [ 34.807483498092139, 31.253669216236936 ] } },
{ "type": "Feature", "properties": { "name": "×/31" }, "geometry": { "type": "Point", "coordinates": [ 34.808486605657947, 31.256917465206591 ] } },
{ "type": "Feature", "properties": { "name": "×/3" }, "geometry": { "type": "Point", "coordinates": [ 34.765052161366555, 31.257011438298655 ] } },
{ "type": "Feature", "properties": { "name": "×/5" }, "geometry": { "type": "Point", "coordinates": [ 34.76358017241585, 31.257544228048541 ] } },
{ "type": "Feature", "properties": { "name": "×/4" }, "geometry": { "type": "Point", "coordinates": [ 34.762777003548528, 31.257482466669234 ] } },
{ "type": "Feature", "properties": { "name": "×/8" }, "geometry": { "type": "Point", "coordinates": [ 34.778606021177602, 31.270021730658268 ] } },
{ "type": "Feature", "properties": { "name": "×/7" }, "geometry": { "type": "Point", "coordinates": [ 34.777638918850954, 31.270226666572061 ] } },
{ "type": "Feature", "properties": { "name": "×/6" }, "geometry": { "type": "Point", "coordinates": [ 34.776159233455317, 31.269437387828397 ] } },
{ "type": "Feature", "properties": { "name": "×/3" }, "geometry": { "type": "Point", "coordinates": [ 34.770070383204505, 31.265784476902997 ] } },
{ "type": "Feature", "properties": { "name": "×/6" }, "geometry": { "type": "Point", "coordinates": [ 34.786860014158719, 31.259661616892007 ] } },
{ "type": "Feature", "properties": { "name": "×/9" }, "geometry": { "type": "Point", "coordinates": [ 34.795021152621651, 31.26466712787963 ] } },
{ "type": "Feature", "properties": { "name": "×/37" }, "geometry": { "type": "Point", "coordinates": [ 34.799704028483553, 31.266857495502727 ] } },
{ "type": "Feature", "properties": { "name": "×/40" }, "geometry": { "type": "Point", "coordinates": [ 34.794012465265006, 31.260368226970421 ] } },
{ "type": "Feature", "properties": { "name": "×/30" }, "geometry": { "type": "Point", "coordinates": [ 34.791552355470088, 31.259542055633521 ] } },
{ "type": "Feature", "properties": { "name": "×/44" }, "geometry": { "type": "Point", "coordinates": [ 34.790610535352158, 31.262699045109756 ] } },
{ "type": "Feature", "properties": { "name": "×/21" }, "geometry": { "type": "Point", "coordinates": [ 34.790621057043033, 31.263725222355006 ] } },
{ "type": "Feature", "properties": { "name": "×/38" }, "geometry": { "type": "Point", "coordinates": [ 34.792668070110089, 31.26187911170808 ] } },
{ "type": "Feature", "properties": { "name": "×/29" }, "geometry": { "type": "Point", "coordinates": [ 34.792246062045812, 31.263746381754338 ] } },
{ "type": "Feature", "properties": { "name": "×/45" }, "geometry": { "type": "Point", "coordinates": [ 34.792680708460402, 31.263200645886386 ] } },
{ "type": "Feature", "properties": { "name": "×/39" }, "geometry": { "type": "Point", "coordinates": [ 34.792675399675169, 31.263440618636743 ] } },
{ "type": "Feature", "properties": { "name": "×/13" }, "geometry": { "type": "Point", "coordinates": [ 34.790454987825036, 31.262368791752792 ] } },
{ "type": "Feature", "properties": { "name": "×/35" }, "geometry": { "type": "Point", "coordinates": [ 34.788274880916013, 31.270794178246636 ] } },
{ "type": "Feature", "properties": { "name": "×/55" }, "geometry": { "type": "Point", "coordinates": [ 34.786695401455347, 31.271135816408648 ] } },
{ "type": "Feature", "properties": { "name": "×/52" }, "geometry": { "type": "Point", "coordinates": [ 34.785534468845995, 31.270661807025892 ] } },
{ "type": "Feature", "properties": { "name": "×/54" }, "geometry": { "type": "Point", "coordinates": [ 34.78513711120484, 31.271210890819464 ] } },
{ "type": "Feature", "properties": { "name": "×/56" }, "geometry": { "type": "Point", "coordinates": [ 34.787001788897022, 31.271799187772483 ] } },
{ "type": "Feature", "properties": { "name": "×/58" }, "geometry": { "type": "Point", "coordinates": [ 34.787520308592811, 31.272021690253546 ] } },
{ "type": "Feature", "properties": { "name": "×/2" }, "geometry": { "type": "Point", "coordinates": [ 34.793843093726949, 31.272548831908718 ] } },
{ "type": "Feature", "properties": { "name": "×/46" }, "geometry": { "type": "Point", "coordinates": [ 34.794039545931575, 31.270341349705443 ] } },
{ "type": "Feature", "properties": { "name": "×/49" }, "geometry": { "type": "Point", "coordinates": [ 34.801381525725645, 31.26667293569399 ] } },
{ "type": "Feature", "properties": { "name": "×/11" }, "geometry": { "type": "Point", "coordinates": [ 34.792093243988113, 31.262748092599491 ] } },
{ "type": "Feature", "properties": { "name": "×/10" }, "geometry": { "type": "Point", "coordinates": [ 34.79557396371419, 31.24552893165642 ] } },
{ "type": "Feature", "properties": { "name": "×/18" }, "geometry": { "type": "Point", "coordinates": [ 34.797028631570271, 31.248930355811957 ] } },
{ "type": "Feature", "properties": { "name": "×/9" }, "geometry": { "type": "Point", "coordinates": [ 34.796969134816045, 31.250124949071484 ] } },
{ "type": "Feature", "properties": { "name": "×/17" }, "geometry": { "type": "Point", "coordinates": [ 34.793593599788991, 31.245855443930193 ] } },
{ "type": "Feature", "properties": { "name": "×/1" }, "geometry": { "type": "Point", "coordinates": [ 34.791426428509553, 31.246704792441118 ] } },
{ "type": "Feature", "properties": { "name": "×/12" }, "geometry": { "type": "Point", "coordinates": [ 34.784822229004121, 31.247928594883405 ] } },
{ "type": "Feature", "properties": { "name": "×/5" }, "geometry": { "type": "Point", "coordinates": [ 34.787515088702399, 31.247777501086421 ] } },
{ "type": "Feature", "properties": { "name": "×/16" }, "geometry": { "type": "Point", "coordinates": [ 34.787286871846533, 31.249299993147108 ] } },
{ "type": "Feature", "properties": { "name": "×/4" }, "geometry": { "type": "Point", "coordinates": [ 34.785646215029544, 31.250111980042846 ] } },
{ "type": "Feature", "properties": { "name": "×/9" }, "geometry": { "type": "Point", "coordinates": [ 34.779353825691572, 31.248661761757166 ] } },
{ "type": "Feature", "properties": { "name": "×/13" }, "geometry": { "type": "Point", "coordinates": [ 34.779550822444527, 31.248547118503765 ] } },
{ "type": "Feature", "properties": { "name": "×/6" }, "geometry": { "type": "Point", "coordinates": [ 34.784057972730835, 31.251782567226396 ] } },
{ "type": "Feature", "properties": { "name": "×/12" }, "geometry": { "type": "Point", "coordinates": [ 34.782794412141065, 31.251809815542558 ] } },
{ "type": "Feature", "properties": { "name": "×/11" }, "geometry": { "type": "Point", "coordinates": [ 34.777859766202255, 31.250882277576796 ] } },
{ "type": "Feature", "properties": { "name": "×/2" }, "geometry": { "type": "Point", "coordinates": [ 34.782536289329123, 31.253442151016316 ] } },
{ "type": "Feature", "properties": { "name": "××/2" }, "geometry": { "type": "Point", "coordinates": [ 34.783185300014864, 31.257820295637885 ] } },
{ "type": "Feature", "properties": { "name": "×/8" }, "geometry": { "type": "Point", "coordinates": [ 34.79001653256848, 31.253963198077901 ] } },
{ "type": "Feature", "properties": { "name": "×/9" }, "geometry": { "type": "Point", "coordinates": [ 34.796301310332986, 31.255848077291063 ] } },
{ "type": "Feature", "properties": { "name": "×¨/11" }, "geometry": { "type": "Point", "coordinates": [ 34.806169574269084, 31.270951840778622 ] } },
{ "type": "Feature", "properties": { "name": "×¨/4" }, "geometry": { "type": "Point", "coordinates": [ 34.808852449926647, 31.271141644685958 ] } },
{ "type": "Feature", "properties": { "name": "×¨×××ª/5" }, "geometry": { "type": "Point", "coordinates": [ 34.809516676957045, 31.270292872086547 ] } },
{ "type": "Feature", "properties": { "name": "×¨/3" }, "geometry": { "type": "Point", "coordinates": [ 34.808535057107065, 31.269918992776013 ] } },
{ "type": "Feature", "properties": { "name": "×¨×××ª/4" }, "geometry": { "type": "Point", "coordinates": [ 34.809288704516064, 31.269758863132935 ] } },
{ "type": "Feature", "properties": { "name": "×¨×××ª/3" }, "geometry": { "type": "Point", "coordinates": [ 34.809057477386546, 31.269240361329356 ] } },
{ "type": "Feature", "properties": { "name": "×¨/9" }, "geometry": { "type": "Point", "coordinates": [ 34.806705446419699, 31.269926267533414 ] } },
{ "type": "Feature", "properties": { "name": "×¨×××ª/2" }, "geometry": { "type": "Point", "coordinates": [ 34.808840697949478, 31.268716259918232 ] } },
{ "type": "Feature", "properties": { "name": "×¨×××ª/1" }, "geometry": { "type": "Point", "coordinates": [ 34.808612025956442, 31.268188908015837 ] } },
{ "type": "Feature", "properties": { "name": "×¨/1" }, "geometry": { "type": "Point", "coordinates": [ 34.807844356568545, 31.268281300223578 ] } },
{ "type": "Feature", "properties": { "name": "×¨/13" }, "geometry": { "type": "Point", "coordinates": [ 34.804254670765971, 31.27063131013379 ] } },
{ "type": "Feature", "properties": { "name": "×¨/16" }, "geometry": { "type": "Point", "coordinates": [ 34.800371417172798, 31.273167617748033 ] } },
{ "type": "Feature", "properties": { "name": "×¨×××ª/8" }, "geometry": { "type": "Point", "coordinates": [ 34.808798169385597, 31.273270463269906 ] } },
{ "type": "Feature", "properties": { "name": "×¨×××ª/9" }, "geometry": { "type": "Point", "coordinates": [ 34.80843815494994, 31.273728423555458 ] } },
{ "type": "Feature", "properties": { "name": "×¨×××ª/7" }, "geometry": { "type": "Point", "coordinates": [ 34.80917589615931, 31.272810251978026 ] } },
{ "type": "Feature", "properties": { "name": "×¨×××ª/10" }, "geometry": { "type": "Point", "coordinates": [ 34.808066907745861, 31.274185734133905 ] } },
{ "type": "Feature", "properties": { "name": "×¨×××ª/11" }, "geometry": { "type": "Point", "coordinates": [ 34.807722299747311, 31.27459340213094 ] } },
{ "type": "Feature", "properties": { "name": "×¨×××ª/6" }, "geometry": { "type": "Point", "coordinates": [ 34.809553001052336, 31.272330319788562 ] } },
{ "type": "Feature", "properties": { "name": "×¨/22" }, "geometry": { "type": "Point", "coordinates": [ 34.806862237626042, 31.273879383162623 ] } },
{ "type": "Feature", "properties": { "name": "×¨/20" }, "geometry": { "type": "Point", "coordinates": [ 34.806434013372431, 31.274412149962007 ] } },
{ "type": "Feature", "properties": { "name": "×¨/14" }, "geometry": { "type": "Point", "coordinates": [ 34.803656958360364, 31.271640706435555 ] } },
{ "type": "Feature", "properties": { "name": "×¨/19" }, "geometry": { "type": "Point", "coordinates": [ 34.802708261930285, 31.272899969714572 ] } },
{ "type": "Feature", "properties": { "name": "×¨/25" }, "geometry": { "type": "Point", "coordinates": [ 34.802664026524234, 31.275651784230792 ] } },
{ "type": "Feature", "properties": { "name": "×¨/18" }, "geometry": { "type": "Point", "coordinates": [ 34.802377963585236, 31.274063986200428 ] } },
{ "type": "Feature", "properties": { "name": "×¨/24" }, "geometry": { "type": "Point", "coordinates": [ 34.802498346444551, 31.274568578701725 ] } },
{ "type": "Feature", "properties": { "name": "×¨/21" }, "geometry": { "type": "Point", "coordinates": [ 34.804056807222068, 31.274533044571974 ] } },
{ "type": "Feature", "properties": { "name": "×¨/15" }, "geometry": { "type": "Point", "coordinates": [ 34.802296423025695, 31.271430287902181 ] } },
{ "type": "Feature", "properties": { "name": "×¨/12" }, "geometry": { "type": "Point", "coordinates": [ 34.805449567179124, 31.271781909014226 ] } },
{ "type": "Feature", "properties": { "name": "×¨×××ª/12" }, "geometry": { "type": "Point", "coordinates": [ 34.807370347908318, 31.275077218270553 ] } },
{ "type": "Feature", "properties": { "name": "×¨×××ª/13" }, "geometry": { "type": "Point", "coordinates": [ 34.806946432917897, 31.275525563152407 ] } },
{ "type": "Feature", "properties": { "name": "×¨×××ª/14" }, "geometry": { "type": "Point", "coordinates": [ 34.806422490078781, 31.275865882521316 ] } },
{ "type": "Feature", "properties": { "name": "× ×¢/22" }, "geometry": { "type": "Point", "coordinates": [ 34.76036106523766, 31.264866508048854 ] } },
{ "type": "Feature", "properties": { "name": "× ×¢/10" }, "geometry": { "type": "Point", "coordinates": [ 34.763843264495947, 31.270040117740631 ] } },
{ "type": "Feature", "properties": { "name": "× ×¢/17" }, "geometry": { "type": "Point", "coordinates": [ 34.765552646817476, 31.265877171810381 ] } },
{ "type": "Feature", "properties": { "name": "× ×¢/16" }, "geometry": { "type": "Point", "coordinates": [ 34.76635230245855, 31.26692491848716 ] } },
{ "type": "Feature", "properties": { "name": "× ×¢/12" }, "geometry": { "type": "Point", "coordinates": [ 34.76082707871192, 31.269719507108196 ] } },
{ "type": "Feature", "properties": { "name": "× ×¢/9" }, "geometry": { "type": "Point", "coordinates": [ 34.763004769360094, 31.270367717779955 ] } },
{ "type": "Feature", "properties": { "name": "× ×¢/23" }, "geometry": { "type": "Point", "coordinates": [ 34.759776649069906, 31.266511658249406 ] } },
{ "type": "Feature", "properties": { "name": "× ×¢/21" }, "geometry": { "type": "Point", "coordinates": [ 34.761038376382487, 31.266067930389454 ] } },
{ "type": "Feature", "properties": { "name": "××§×¢/2" }, "geometry": { "type": "Point", "coordinates": [ 34.775471764840482, 31.221437084821918 ] } },
{ "type": "Feature", "properties": { "name": "××§×¢/15" }, "geometry": { "type": "Point", "coordinates": [ 34.778832113865285, 31.224100464221092 ] } },
{ "type": "Feature", "properties": { "name": "××§×¢/10" }, "geometry": { "type": "Point", "coordinates": [ 34.777341795774916, 31.223523500545191 ] } },
{ "type": "Feature", "properties": { "name": "××§×¢/14" }, "geometry": { "type": "Point", "coordinates": [ 34.778531759028759, 31.225769960633418 ] } },
{ "type": "Feature", "properties": { "name": "××§×¢/5" }, "geometry": { "type": "Point", "coordinates": [ 34.772598125025041, 31.221961079326906 ] } },
{ "type": "Feature", "properties": { "name": "××§×¢/1" }, "geometry": { "type": "Point", "coordinates": [ 34.773655691145258, 31.219693331761412 ] } },
{ "type": "Feature", "properties": { "name": "××§×¢/4" }, "geometry": { "type": "Point", "coordinates": [ 34.771747023054857, 31.221172199194406 ] } },
{ "type": "Feature", "properties": { "name": "××§×¢/11" }, "geometry": { "type": "Point", "coordinates": [ 34.775600537176771, 31.2248492630622 ] } },
{ "type": "Feature", "properties": { "name": "××§×¢/13" }, "geometry": { "type": "Point", "coordinates": [ 34.780166880265718, 31.223936856352513 ] } },
{ "type": "Feature", "properties": { "name": "××§×¢/16" }, "geometry": { "type": "Point", "coordinates": [ 34.780201066822194, 31.226117289523572 ] } },
{ "type": "Feature", "properties": { "name": "××§×¢/8" }, "geometry": { "type": "Point", "coordinates": [ 34.776262938768916, 31.222958008558315 ] } },
{ "type": "Feature", "properties": { "name": "××§×¢/9" }, "geometry": { "type": "Point", "coordinates": [ 34.77524020976292, 31.223742873045943 ] } },
{ "type": "Feature", "properties": { "name": "××§×¢/3" }, "geometry": { "type": "Point", "coordinates": [ 34.774289806814231, 31.220913257789753 ] } },
{ "type": "Feature", "properties": { "name": "××§×¢/6" }, "geometry": { "type": "Point", "coordinates": [ 34.77354749650106, 31.222913746484444 ] } },
{ "type": "Feature", "properties": { "name": "× /2" }, "geometry": { "type": "Point", "coordinates": [ 34.792306346632181, 31.232114870565351 ] } },
{ "type": "Feature", "properties": { "name": "× /1" }, "geometry": { "type": "Point", "coordinates": [ 34.78027101460092, 31.232373184641634 ] } },
{ "type": "Feature", "properties": { "name": "×¨×¡×§×/2" }, "geometry": { "type": "Point", "coordinates": [ 34.779670275723149, 31.243059148905235 ] } },
{ "type": "Feature", "properties": { "name": "×¢/9" }, "geometry": { "type": "Point", "coordinates": [ 34.784312239309656, 31.235852857729018 ] } },
{ "type": "Feature", "properties": { "name": "×¢/2" }, "geometry": { "type": "Point", "coordinates": [ 34.78465730101302, 31.238743026705222 ] } },
{ "type": "Feature", "properties": { "name": "×¢/1" }, "geometry": { "type": "Point", "coordinates": [ 34.781686723796405, 31.237001367441405 ] } },
{ "type": "Feature", "properties": { "name": "×/7" }, "geometry": { "type": "Point", "coordinates": [ 34.792429964688836, 31.248195276397585 ] } },
{ "type": "Feature", "properties": { "name": "×/14" }, "geometry": { "type": "Point", "coordinates": [ 34.786744133991803, 31.251428113520156 ] } },
{ "type": "Feature", "properties": { "name": "×/13" }, "geometry": { "type": "Point", "coordinates": [ 34.789915363246969, 31.250375442891148 ] } },
{ "type": "Feature", "properties": { "name": "×/3" }, "geometry": { "type": "Point", "coordinates": [ 34.7890602971219, 31.250429511878352 ] } },
{ "type": "Feature", "properties": { "name": "×/15" }, "geometry": { "type": "Point", "coordinates": [ 34.787884808120836, 31.251744519129012 ] } },
{ "type": "Feature", "properties": { "name": "×/6" }, "geometry": { "type": "Point", "coordinates": [ 34.794145094792427, 31.246089589756938 ] } },
{ "type": "Feature", "properties": { "name": "×/8" }, "geometry": { "type": "Point", "coordinates": [ 34.794484751886799, 31.250566941335382 ] } },
{ "type": "Feature", "properties": { "name": "×/11" }, "geometry": { "type": "Point", "coordinates": [ 34.790286151503302, 31.255572343238033 ] } },
{ "type": "Feature", "properties": { "name": "×/3" }, "geometry": { "type": "Point", "coordinates": [ 34.795920338291602, 31.25663270492316 ] } },
{ "type": "Feature", "properties": { "name": "×/4" }, "geometry": { "type": "Point", "coordinates": [ 34.794104008820575, 31.254893397834142 ] } },
{ "type": "Feature", "properties": { "name": "×/10" }, "geometry": { "type": "Point", "coordinates": [ 34.795334903174776, 31.257226286134792 ] } },
{ "type": "Feature", "properties": { "name": "×/1" }, "geometry": { "type": "Point", "coordinates": [ 34.789075836406852, 31.254537636112023 ] } },
{ "type": "Feature", "properties": { "name": "×/6" }, "geometry": { "type": "Point", "coordinates": [ 34.793838635209326, 31.256504121675519 ] } },
{ "type": "Feature", "properties": { "name": "×/5" }, "geometry": { "type": "Point", "coordinates": [ 34.79643565349042, 31.254967491817006 ] } },
{ "type": "Feature", "properties": { "name": "×/7" }, "geometry": { "type": "Point", "coordinates": [ 34.78922627413921, 31.257453576284501 ] } },
{ "type": "Feature", "properties": { "name": "××/1" }, "geometry": { "type": "Point", "coordinates": [ 34.781479366237001, 31.257860726016517 ] } },
{ "type": "Feature", "properties": { "name": "××/3" }, "geometry": { "type": "Point", "coordinates": [ 34.783587614304139, 31.257841840548501 ] } },
{ "type": "Feature", "properties": { "name": "××§×¢/7" }, "geometry": { "type": "Point", "coordinates": [ 34.775089566069639, 31.222592843101765 ] } },
{ "type": "Feature", "properties": { "name": "××§×¢/12" }, "geometry": { "type": "Point", "coordinates": [ 34.780849424760362, 31.224500613364423 ] } },
{ "type": "Feature", "properties": { "name": "×¨×¡×§×/1" }, "geometry": { "type": "Point", "coordinates": [ 34.781753799520949, 31.242620622590398 ] } },
{ "type": "Feature", "properties": { "name": "×¢/7" }, "geometry": { "type": "Point", "coordinates": [ 34.781549319355882, 31.240184241626324 ] } },
{ "type": "Feature", "properties": { "name": "×¢/4" }, "geometry": { "type": "Point", "coordinates": [ 34.783275816332342, 31.239897241044346 ] } },
{ "type": "Feature", "properties": { "name": "× ×¢/14" }, "geometry": { "type": "Point", "coordinates": [ 34.762282701178435, 31.267881397182677 ] } },
{ "type": "Feature", "properties": { "name": "× ×¢/20" }, "geometry": { "type": "Point", "coordinates": [ 34.762574488767164, 31.263766047131408 ] } },
{ "type": "Feature", "properties": { "name": "× ×¢/1" }, "geometry": { "type": "Point", "coordinates": [ 34.771717486749644, 31.270172764873021 ] } },
{ "type": "Feature", "properties": { "name": "× ×¢/2" }, "geometry": { "type": "Point", "coordinates": [ 34.770889259327312, 31.269811518218312 ] } },
{ "type": "Feature", "properties": { "name": "× ×¢/19" }, "geometry": { "type": "Point", "coordinates": [ 34.763546950859833, 31.265081001289566 ] } },
{ "type": "Feature", "properties": { "name": "× ×¢/13" }, "geometry": { "type": "Point", "coordinates": [ 34.76184088194757, 31.269001010957915 ] } },
{ "type": "Feature", "properties": { "name": "× ×¢/15" }, "geometry": { "type": "Point", "coordinates": [ 34.764394894620153, 31.26810615586006 ] } },
{ "type": "Feature", "properties": { "name": "× ×¢/11" }, "geometry": { "type": "Point", "coordinates": [ 34.764804403852985, 31.269313259899803 ] } },
{ "type": "Feature", "properties": { "name": "× ×¢/24" }, "geometry": { "type": "Point", "coordinates": [ 34.757712791248522, 31.265649502992012 ] } },
{ "type": "Feature", "properties": { "name": "× ×¢/4" }, "geometry": { "type": "Point", "coordinates": [ 34.770910898266813, 31.270889204077136 ] } },
{ "type": "Feature", "properties": { "name": "× ×¢/8" }, "geometry": { "type": "Point", "coordinates": [ 34.765604660197233, 31.272140240390232 ] } },
{ "type": "Feature", "properties": { "name": "× ×¢/18" }, "geometry": { "type": "Point", "coordinates": [ 34.764311491421417, 31.264439561471427 ] } },
{ "type": "Feature", "properties": { "name": "× ×¢/7" }, "geometry": { "type": "Point", "coordinates": [ 34.767479029077769, 31.271164539217796 ] } },
{ "type": "Feature", "properties": { "name": "× ×¢/5" }, "geometry": { "type": "Point", "coordinates": [ 34.769461362080136, 31.271517268203347 ] } },
{ "type": "Feature", "properties": { "name": "×/1" }, "geometry": { "type": "Point", "coordinates": [ 34.773237195655568, 31.256634124103311 ] } },
{ "type": "Feature", "properties": { "name": "×/2" }, "geometry": { "type": "Point", "coordinates": [ 34.773346890779834, 31.257037360256533 ] } },
{ "type": "Feature", "properties": { "name": "×¨/10" }, "geometry": { "type": "Point", "coordinates": [ 34.805225161501767, 31.269602379175563 ] } },
{ "type": "Feature", "properties": { "name": "×¨/23" }, "geometry": { "type": "Point", "coordinates": [ 34.805199027630856, 31.275217379618216 ] } },
{ "type": "Feature", "properties": { "name": "×¨/17" }, "geometry": { "type": "Point", "coordinates": [ 34.800822470956113, 31.274177224097254 ] } },
{ "type": "Feature", "properties": { "name": "×¨/2" }, "geometry": { "type": "Point", "coordinates": [ 34.808238415431532, 31.269045252212514 ] } },
{ "type": "Feature", "properties": { "name": "×¨/7" }, "geometry": { "type": "Point", "coordinates": [ 34.806652510700701, 31.272341899183438 ] } },
{ "type": "Feature", "properties": { "name": "×/43" }, "geometry": { "type": "Point", "coordinates": [ 34.808783254615705, 31.259744813445664 ] } },
{ "type": "Feature", "properties": { "name": "×/46" }, "geometry": { "type": "Point", "coordinates": [ 34.801916170849779, 31.250643525708515 ] } },
{ "type": "Feature", "properties": { "name": "×/11" }, "geometry": { "type": "Point", "coordinates": [ 34.806505818058945, 31.251614306474327 ] } },
{ "type": "Feature", "properties": { "name": "×/12" }, "geometry": { "type": "Point", "coordinates": [ 34.809945282902127, 31.252468298843006 ] } },
{ "type": "Feature", "properties": { "name": "×/29" }, "geometry": { "type": "Point", "coordinates": [ 34.808057823646159, 31.248597523109876 ] } },
{ "type": "Feature", "properties": { "name": "×/1" }, "geometry": { "type": "Point", "coordinates": [ 34.777966236703932, 31.255387269457998 ] } },
{ "type": "Feature", "properties": { "name": "×/5" }, "geometry": { "type": "Point", "coordinates": [ 34.782551725422934, 31.248955696764959 ] } },
{ "type": "Feature", "properties": { "name": "×/2" }, "geometry": { "type": "Point", "coordinates": [ 34.770717378912344, 31.266944976830235 ] } },
{ "type": "Feature", "properties": { "name": "×/4" }, "geometry": { "type": "Point", "coordinates": [ 34.772250608386315, 31.268225009352236 ] } },
{ "type": "Feature", "properties": { "name": "×/5" }, "geometry": { "type": "Point", "coordinates": [ 34.774825949626752, 31.269245673030191 ] } },
{ "type": "Feature", "properties": { "name": "×/4" }, "geometry": { "type": "Point", "coordinates": [ 34.779113261944978, 31.250737626822627 ] } },
{ "type": "Feature", "properties": { "name": "×/7" }, "geometry": { "type": "Point", "coordinates": [ 34.794801317347577, 31.268033429980882 ] } },
{ "type": "Feature", "properties": { "name": "×/47" }, "geometry": { "type": "Point", "coordinates": [ 34.797022241406474, 31.267903446348612 ] } },
{ "type": "Feature", "properties": { "name": "×/42" }, "geometry": { "type": "Point", "coordinates": [ 34.794938759953553, 31.267106168983027 ] } },
{ "type": "Feature", "properties": { "name": "×/17" }, "geometry": { "type": "Point", "coordinates": [ 34.7969565660553, 31.260953311973655 ] } },
{ "type": "Feature", "properties": { "name": "×/32" }, "geometry": { "type": "Point", "coordinates": [ 34.796518676612017, 31.260423334434062 ] } },
{ "type": "Feature", "properties": { "name": "×/16" }, "geometry": { "type": "Point", "coordinates": [ 34.795270075971473, 31.261107583268434 ] } },
{ "type": "Feature", "properties": { "name": "×/18" }, "geometry": { "type": "Point", "coordinates": [ 34.793475794023024, 31.260222877878373 ] } },
{ "type": "Feature", "properties": { "name": "×/15" }, "geometry": { "type": "Point", "coordinates": [ 34.792850775974415, 31.260792642948623 ] } },
{ "type": "Feature", "properties": { "name": "×/41" }, "geometry": { "type": "Point", "coordinates": [ 34.792866864159173, 31.258893192115657 ] } },
{ "type": "Feature", "properties": { "name": "×/31" }, "geometry": { "type": "Point", "coordinates": [ 34.79389127276886, 31.266845050449611 ] } },
{ "type": "Feature", "properties": { "name": "×/33" }, "geometry": { "type": "Point", "coordinates": [ 34.795179262288478, 31.264248565612771 ] } },
{ "type": "Feature", "properties": { "name": "×/23" }, "geometry": { "type": "Point", "coordinates": [ 34.79700467579373, 31.264361239661525 ] } },
{ "type": "Feature", "properties": { "name": "×/10" }, "geometry": { "type": "Point", "coordinates": [ 34.794395905328031, 31.262611677668932 ] } },
{ "type": "Feature", "properties": { "name": "×/22" }, "geometry": { "type": "Point", "coordinates": [ 34.797358045471277, 31.262564557691913 ] } },
{ "type": "Feature", "properties": { "name": "×/20" }, "geometry": { "type": "Point", "coordinates": [ 34.792929113913594, 31.26629027546776 ] } },
{ "type": "Feature", "properties": { "name": "×¢/3" }, "geometry": { "type": "Point", "coordinates": [ 34.785423495110003, 31.237805663610491 ] } },
{ "type": "Feature", "properties": { "name": "×¢/6" }, "geometry": { "type": "Point", "coordinates": [ 34.78892953798082, 31.237132417661947 ] } },
{ "type": "Feature", "properties": { "name": "×/19" }, "geometry": { "type": "Point", "coordinates": [ 34.804877319615628, 31.252233810581512 ] } },
{ "type": "Feature", "properties": { "name": "×/37" }, "geometry": { "type": "Point", "coordinates": [ 34.810027631786021, 31.255063806794126 ] } },
{ "type": "Feature", "properties": { "name": "×/38" }, "geometry": { "type": "Point", "coordinates": [ 34.80864752894545, 31.255472856217107 ] } },
{ "type": "Feature", "properties": { "name": "×/60" }, "geometry": { "type": "Point", "coordinates": [ 34.783327782388852, 31.270945399835238 ] } },
{ "type": "Feature", "properties": { "name": "×/59" }, "geometry": { "type": "Point", "coordinates": [ 34.784971431416935, 31.269722090276499 ] } },
{ "type": "Feature", "properties": { "name": "×/2" }, "geometry": { "type": "Point", "coordinates": [ 34.795930425473166, 31.248835008289895 ] } },
{ "type": "Feature", "properties": { "name": "×/14" }, "geometry": { "type": "Point", "coordinates": [ 34.80507086053052, 31.250130980465826 ] } },
{ "type": "Feature", "properties": { "name": "×/15" }, "geometry": { "type": "Point", "coordinates": [ 34.802773387501702, 31.250049792435192 ] } },
{ "type": "Feature", "properties": { "name": "×/16" }, "geometry": { "type": "Point", "coordinates": [ 34.80608485930513, 31.248640156417441 ] } },
{ "type": "Feature", "properties": { "name": "×/17" }, "geometry": { "type": "Point", "coordinates": [ 34.804276132865859, 31.248195794878956 ] } },
{ "type": "Feature", "properties": { "name": "×/18" }, "geometry": { "type": "Point", "coordinates": [ 34.807195468910187, 31.247579396837352 ] } },
{ "type": "Feature", "properties": { "name": "×/20" }, "geometry": { "type": "Point", "coordinates": [ 34.811394297700303, 31.252850145013905 ] } },
{ "type": "Feature", "properties": { "name": "×/21" }, "geometry": { "type": "Point", "coordinates": [ 34.806116614251081, 31.256180084384035 ] } },
{ "type": "Feature", "properties": { "name": "×/24" }, "geometry": { "type": "Point", "coordinates": [ 34.806499017761517, 31.250221303342158 ] } },
{ "type": "Feature", "properties": { "name": "×/27" }, "geometry": { "type": "Point", "coordinates": [ 34.810307993555142, 31.256096263434781 ] } },
{ "type": "Feature", "properties": { "name": "×/28" }, "geometry": { "type": "Point", "coordinates": [ 34.803626909239576, 31.250977882257619 ] } },
{ "type": "Feature", "properties": { "name": "×/13" }, "geometry": { "type": "Point", "coordinates": [ 34.808530117528903, 31.249649375232103 ] } },
{ "type": "Feature", "properties": { "name": "×/42" }, "geometry": { "type": "Point", "coordinates": [ 34.81116523681996, 31.258086527810462 ] } },
{ "type": "Feature", "properties": { "name": "×/35" }, "geometry": { "type": "Point", "coordinates": [ 34.809774429905318, 31.258952091622753 ] } },
{ "type": "Feature", "properties": { "name": "×/34" }, "geometry": { "type": "Point", "coordinates": [ 34.809374985699314, 31.258055937597032 ] } },
{ "type": "Feature", "properties": { "name": "×/5" }, "geometry": { "type": "Point", "coordinates": [ 34.807948711256749, 31.255522673542462 ] } },
{ "type": "Feature", "properties": { "name": "×/4" }, "geometry": { "type": "Point", "coordinates": [ 34.810265649085203, 31.257091476215415 ] } },
{ "type": "Feature", "properties": { "name": "×/8" }, "geometry": { "type": "Point", "coordinates": [ 34.807022127811031, 31.254854278230805 ] } },
{ "type": "Feature", "properties": { "name": "×/6" }, "geometry": { "type": "Point", "coordinates": [ 34.803450935004378, 31.254468218594713 ] } },
{ "type": "Feature", "properties": { "name": "×/45" }, "geometry": { "type": "Point", "coordinates": [ 34.808536937998809, 31.246508823537138 ] } },
{ "type": "Feature", "properties": { "name": "×/30" }, "geometry": { "type": "Point", "coordinates": [ 34.802792569408133, 31.252008737140319 ] } },
{ "type": "Feature", "properties": { "name": "×/12" }, "geometry": { "type": "Point", "coordinates": [ 34.79367930925649, 31.261535931615569 ] } },
{ "type": "Feature", "properties": { "name": "×/28" }, "geometry": { "type": "Point", "coordinates": [ 34.795550144043169, 31.272102499642056 ] } },
{ "type": "Feature", "properties": { "name": "×/4" }, "geometry": { "type": "Point", "coordinates": [ 34.793517614766202, 31.270907767372162 ] } },
{ "type": "Feature", "properties": { "name": "×/14" }, "geometry": { "type": "Point", "coordinates": [ 34.79185031444699, 31.261594285619239 ] } },
{ "type": "Feature", "properties": { "name": "×/24" }, "geometry": { "type": "Point", "coordinates": [ 34.799860820489137, 31.264909543758161 ] } },
{ "type": "Feature", "properties": { "name": "×/25" }, "geometry": { "type": "Point", "coordinates": [ 34.801119435259579, 31.265785276812512 ] } },
{ "type": "Feature", "properties": { "name": "×/36" }, "geometry": { "type": "Point", "coordinates": [ 34.801178930694142, 31.268824835677901 ] } },
{ "type": "Feature", "properties": { "name": "×/27" }, "geometry": { "type": "Point", "coordinates": [ 34.792276742277942, 31.268240260003857 ] } },
{ "type": "Feature", "properties": { "name": "×/34" }, "geometry": { "type": "Point", "coordinates": [ 34.7968938504685, 31.270648686161422 ] } },
{ "type": "Feature", "properties": { "name": "×/3" }, "geometry": { "type": "Point", "coordinates": [ 34.794698227259872, 31.271364443430727 ] } },
{ "type": "Feature", "properties": { "name": "×/9" }, "geometry": { "type": "Point", "coordinates": [ 34.8086048132729, 31.254705253267481 ] } },
{ "type": "Feature", "properties": { "name": "×/44" }, "geometry": { "type": "Point", "coordinates": [ 34.80680159487553, 31.257006844307039 ] } },
{ "type": "Feature", "properties": { "name": "×/1" }, "geometry": { "type": "Point", "coordinates": [ 34.776519191339389, 31.246528329410303 ] } },
{ "type": "Feature", "properties": { "name": "×/5" }, "geometry": { "type": "Point", "coordinates": [ 34.792872544303506, 31.269142099708539 ] } },
{ "type": "Feature", "properties": { "name": "×¢/5" }, "geometry": { "type": "Point", "coordinates": [ 34.791001560736184, 31.244327782572363 ] } },
{ "type": "Feature", "properties": { "name": "× /3" }, "geometry": { "type": "Point", "coordinates": [ 34.793489703005562, 31.231366662667696 ] } },
{ "type": "Feature", "properties": { "name": "×/48" }, "geometry": { "type": "Point", "coordinates": [ 34.795394954816182, 31.269144316922397 ] } },
{ "type": "Feature", "properties": { "name": "×/6" }, "geometry": { "type": "Point", "coordinates": [ 34.79478466600861, 31.269299231805761 ] } },
{ "type": "Feature", "properties": { "name": "×/53" }, "geometry": { "type": "Point", "coordinates": [ 34.786754209380312, 31.270244739154407 ] } },
{ "type": "Feature", "properties": { "name": "×/7" }, "geometry": { "type": "Point", "coordinates": [ 34.785663534904174, 31.25951051395672 ] } },
{ "type": "Feature", "properties": { "name": "×/43" }, "geometry": { "type": "Point", "coordinates": [ 34.795584469755013, 31.26999690370636 ] } },
{ "type": "Feature", "properties": { "name": "×/2" }, "geometry": { "type": "Point", "coordinates": [ 34.791327307440461, 31.256423748531311 ] } },
{ "type": "Feature", "properties": { "name": "×/14" }, "geometry": { "type": "Point", "coordinates": [ 34.779587581655761, 31.24785183601384 ] } },
{ "type": "Feature", "properties": { "name": "×/15" }, "geometry": { "type": "Point", "coordinates": [ 34.780939672545848, 31.248090956078872 ] } },
{ "type": "Feature", "properties": { "name": "×/10" }, "geometry": { "type": "Point", "coordinates": [ 34.778912345511763, 31.254749155652512 ] } },
{ "type": "Feature", "properties": { "name": "×/8" }, "geometry": { "type": "Point", "coordinates": [ 34.794804488412794, 31.266502667860493 ] } },
{ "type": "Feature", "properties": { "name": "×/7" }, "geometry": { "type": "Point", "coordinates": [ 34.78050142476603, 31.250399718447053 ] } },
{ "type": "Feature", "properties": { "name": "×/41" }, "geometry": { "type": "Point", "coordinates": [ 34.80230914172369, 31.254118567368305 ] } },
{ "type": "Feature", "properties": { "name": "×/19" }, "geometry": { "type": "Point", "coordinates": [ 34.796741896277396, 31.268315286854829 ] } },
{ "type": "Feature", "properties": { "name": "×/51" }, "geometry": { "type": "Point", "coordinates": [ 34.783472703473358, 31.271243705805997 ] } },
{ "type": "Feature", "properties": { "name": "×/11" }, "geometry": { "type": "Point", "coordinates": [ 34.789143588674143, 31.248231374675441 ] } },
{ "type": "Feature", "properties": { "name": "×¨/6" }, "geometry": { "type": "Point", "coordinates": [ 34.80696977485556, 31.273686901240342 ] } },
{ "type": "Feature", "properties": { "name": "×¨/5" }, "geometry": { "type": "Point", "coordinates": [ 34.807950712386457, 31.272526934660402 ] } },
{ "type": "Feature", "properties": { "name": "×/32" }, "geometry": { "type": "Point", "coordinates": [ 34.808481000926527, 31.256976580712351 ] } },
{ "type": "Feature", "properties": { "name": "×/10" }, "geometry": { "type": "Point", "coordinates": [ 34.802485727754885, 31.251733465277479 ] } },
{ "type": "Feature", "properties": { "name": "×/1" }, "geometry": { "type": "Point", "coordinates": [ 34.769778439343838, 31.266277779566934 ] } },
{ "type": "Feature", "properties": { "name": "×¨/8" }, "geometry": { "type": "Point", "coordinates": [ 34.807204239305307, 31.27092399892242 ] } },
{ "type": "Feature", "properties": { "name": "×/26" }, "geometry": { "type": "Point", "coordinates": [ 34.800794447869549, 31.26596549734321 ] } },
{ "type": "Feature", "properties": { "name": "×/48" }, "geometry": { "type": "Point", "coordinates": [ 34.811577064119405, 31.254019115446962 ] } },
{ "type": "Feature", "properties": { "name": "×/57" }, "geometry": { "type": "Point", "coordinates": [ 34.784221908264861, 31.270072812070779 ] } },
{ "type": "Feature", "properties": { "name": "×¢/11" }, "geometry": { "type": "Point", "coordinates": [ 34.794969427086265, 31.240147621143297 ] } },
{ "type": "Feature", "properties": { "name": "×/50" }, "geometry": { "type": "Point", "coordinates": [ 34.796055522066169, 31.264592947853878 ] } },
{ "type": "Feature", "properties": { "name": "×/50" }, "geometry": { "type": "Point", "coordinates": [ 34.808266404823925, 31.246266643148967 ] } },
{ "type": "Feature", "properties": { "name": "×¢/10" }, "geometry": { "type": "Point", "coordinates": [ 34.782481868963011, 31.234715081191027 ] } },
{ "type": "Feature", "properties": { "name": "×/40" }, "geometry": { "type": "Point", "coordinates": [ 34.808080570988629, 31.252364473395488 ] } },
{ "type": "Feature", "properties": { "name": "×/12" }, "geometry": { "type": "Point", "coordinates": [ 34.788344166832069, 31.25414665932292 ] } },
{ "type": "Feature", "properties": { "name": "×/3" }, "geometry": { "type": "Point", "coordinates": [ 34.779859426982874, 31.252359823280873 ] } }
]
}
