{"type":"FeatureCollection","features":[{"type":"Feature","geometry":{"type":"Point","coordinates":[34.773621539391506,31.241861184094827]},"properties":{"survey_category":"walkability_barrier","question":"נקודת חסם לגבי הליכתיות בטוחה ונעימה","neighborhood":"נווה זאב","comment":"אין מעבר חצייה. מסוכן מאוד"}},{"type":"Feature","geometry":{"type":"Point","coordinates":[34.77388501167298,31.23860034583876]},"properties":{"survey_category":"walkability_barrier","question":"נקודת חסם לגבי הליכתיות בטוחה ונעימה","neighborhood":"נווה זאב","comment":"חורים בכבישים, מדרכות מפורקות"}},{"type":"Feature","geometry":{"type":"Point","coordinates":[34.76847767829896,31.238196719049963]},"properties":{"survey_category":"walkability_barrier","question":"נקודת חסם לגבי הליכתיות בטוחה ונעימה","neighborhood":"נווה זאב","comment":"כל המדרכות צרות וחלקן משובשות. תנועה סואנת של רכבים. מסוכן לילדים ללכת לבד. כל המדרכות מלאות בחרא של כלבים."}},{"type":"Feature","geometry":{"type":"Point","coordinates":[34.76639291824129,31.239366585648767]},"properties":{"survey_category":"walkability_barrier","question":"נקודת חסם לגבי הליכתיות בטוחה ונעימה","neighborhood":"נווה זאב","comment":"החל מכאן לא בטוח לי ללכת בכביש עם הילד"}},{"type":"Feature","geometry":{"type":"Point","coordinates":[34.767690896987936,31.253282626494737]},"properties":{"survey_category":"walkability_barrier","question":"נקודת חסם לגבי הליכתיות בטוחה ונעימה","neighborhood":"נווה זאב","comment":""}},{"type":"Feature","geometry":{"type":"Point","coordinates":[34.777543544769294,31.23537128323975]},"properties":{"survey_category":"walkability_barrier","question":"נקודת חסם לגבי הליכתיות בטוחה ונעימה","neighborhood":"נווה זאב","comment":""}},{"type":"Feature","geometry":{"type":"Point","coordinates":[34.78862219284881,31.2403891256214]},"properties":{"survey_category":"walkability_barrier","question":"נקודת חסם לגבי הליכתיות בטוחה ונעימה","neighborhood":"נווה זאב","comment":"יש עץ גדול ליד המשטרה שהמדרכה סביבו לא ניתנת להליכה וחייב לרדת לכביש"}},{"type":"Feature","geometry":{"type":"Point","coordinates":[34.767004251480124,31.239138512207713]},"properties":{"survey_category":"walkability_barrier","question":"נקודת חסם לגבי הליכתיות בטוחה ונעימה","neighborhood":"נווה זאב","comment":"מדרכות עקומות"}},{"type":"Feature","geometry":{"type":"Point","coordinates":[34.773183553265454,31.237921522457086]},"properties":{"survey_category":"walkability_barrier","question":"נקודת חסם לגבי הליכתיות בטוחה ונעימה","neighborhood":"נווה זאב","comment":"נהגים לא מאפשרים להולכי רגל לחצות בבטחה ולידה האתר בניה חלק מהכביש  חסום  יש נהגים שטסים שם"}},{"type":"Feature","geometry":{"type":"Point","coordinates":[34.7761343675708,31.23966322176403]},"properties":{"survey_category":"walkability_barrier","question":"נקודת חסם לגבי הליכתיות בטוחה ונעימה","neighborhood":"נווה זאב","comment":"רחוב יוהנה עמוס רכבים ומשאיות. חניות שלא כחוק. עסקים  תופסים מדרכות וחייבים לרדת לכביש. פיצוציות פתוחות בלילות"}},{"type":"Feature","geometry":{"type":"Point","coordinates":[34.76929498607149,31.232237519320083]},"properties":{"survey_category":"walkability_barrier","question":"נקודת חסם לגבי הליכתיות בטוחה ונעימה","neighborhood":"נווה זאב","comment":"יוסף בורג 90"}},{"type":"Feature","geometry":{"type":"Point","coordinates":[34.77939902571962,31.235945296313513]},"properties":{"survey_category":"walkability_barrier","question":"נקודת חסם לגבי הליכתיות בטוחה ונעימה","neighborhood":"נווה זאב","comment":"יש שערים חשמליים של הבניינים סרן דב 7 וסרן דב 5 שכשיוצאים מהחניון רכבים מגיעים במהירות מכיוון חטיבה שמונה מהכיכר ולא רואים אותם בגלל חניה לאורך הרחוב"}},{"type":"Feature","geometry":{"type":"Point","coordinates":[34.775047084220645,31.2369372890933]},"properties":{"survey_category":"walkability_barrier","question":"נקודת חסם לגבי הליכתיות בטוחה ונעימה","neighborhood":"נווה זאב","comment":""}},{"type":"Feature","geometry":{"type":"Point","coordinates":[34.77203696024693,31.237330692968076]},"properties":{"survey_category":"walkability_barrier","question":"נקודת חסם לגבי הליכתיות בטוחה ונעימה","neighborhood":"נווה זאב","comment":""}},{"type":"Feature","geometry":{"type":"Point","coordinates":[34.77818902957118,31.2399865747396]},"properties":{"survey_category":"walkability_barrier","question":"נקודת חסם לגבי הליכתיות בטוחה ונעימה","neighborhood":"נווה זאב","comment":""}},{"type":"Feature","geometry":{"type":"Point","coordinates":[34.77028369903564,31.235417151378968]},"properties":{"survey_category":"walkability_barrier","question":"נקודת חסם לגבי הליכתיות בטוחה ונעימה","neighborhood":"נווה זאב","comment":"בטוח"}},{"type":"Feature","geometry":{"type":"Point","coordinates":[34.77556402860387,31.2418353178442]},"properties":{"survey_category":"walkability_barrier","question":"נקודת חסם לגבי הליכתיות בטוחה ונעימה","neighborhood":"נווה זאב","comment":""}},{"type":"Feature","geometry":{"type":"Point","coordinates":[34.77864910589314,31.236154796689203]},"properties":{"survey_category":"walkability_barrier","question":"נקודת חסם לגבי הליכתיות בטוחה ונעימה","neighborhood":"נווה זאב","comment":"ברחוב הזה אין במפרים נוסעים מאוד מהר יוצאים מלהיות. רחוב ממש מסוכן"}},{"type":"Feature","geometry":{"type":"Point","coordinates":[34.768331361393244,31.23254604961198]},"properties":{"survey_category":"walkability_barrier","question":"נקודת חסם לגבי הליכתיות בטוחה ונעימה","neighborhood":"נווה זאב","comment":"קקי של כלבים"}},{"type":"Feature","geometry":{"type":"Point","coordinates":[34.77144741177396,31.232999440056602]},"properties":{"survey_category":"walkability_barrier","question":"נקודת חסם לגבי הליכתיות בטוחה ונעימה","neighborhood":"נווה זאב","comment":"עיקול ונהגים לא רואים ואין מעבר חציה נורמלי"}},{"type":"Feature","geometry":{"type":"Point","coordinates":[34.76557586342097,31.237935278050546]},"properties":{"survey_category":"walkability_barrier","question":"נקודת חסם לגבי הליכתיות בטוחה ונעימה","neighborhood":"נווה זאב","comment":""}},{"type":"Feature","geometry":{"type":"Point","coordinates":[34.76717948913575,31.235857484382443]},"properties":{"survey_category":"walkability_barrier","question":"נקודת חסם לגבי הליכתיות בטוחה ונעימה","neighborhood":"נווה זאב","comment":""}},{"type":"Feature","geometry":{"type":"Point","coordinates":[34.77680910652387,31.236217945470177]},"properties":{"survey_category":"walkability_barrier","question":"נקודת חסם לגבי הליכתיות בטוחה ונעימה","neighborhood":"נווה זאב","comment":""}},{"type":"Feature","geometry":{"type":"Point","coordinates":[34.77218092884869,31.237496612039774]},"properties":{"survey_category":"walkability_barrier","question":"נקודת חסם לגבי הליכתיות בטוחה ונעימה","neighborhood":"נווה זאב","comment":"מעבר חציה לא ברור ולא מוגדר לכיוון בית הספר נווה שלום, תנועה מאד מסוכנת משני הכיוונים, המון המון תלמידים חוצים שם יום יום. זה נס שאף אחד לא נהרג."}},{"type":"Feature","geometry":{"type":"Point","coordinates":[34.82086697347639,31.27771560392157]},"properties":{"survey_category":"walkability_barrier","question":"נקודת חסם לגבי הליכתיות בטוחה ונעימה","neighborhood":"רמות","comment":"איזור שמשלב בין כביש הולנדי, כביש ומדרכה. יש נטיה לחנות באיזור, מקשה על הראות בתור נהג אבל גם בתור הולך רגל די מפחיד ללכת באיזור גם בגלל בעיה של ראות וזווית"}},{"type":"Feature","geometry":{"type":"Point","coordinates":[34.79909625222271,31.2777700210426]},"properties":{"survey_category":"walkability_barrier","question":"נקודת חסם לגבי הליכתיות בטוחה ונעימה","neighborhood":"רמות","comment":"מעבר שאינו בטוח"}},{"type":"Feature","geometry":{"type":"Point","coordinates":[34.80979404877872,31.272828698459044]},"properties":{"survey_category":"walkability_barrier","question":"נקודת חסם לגבי הליכתיות בטוחה ונעימה","neighborhood":"רמות","comment":"אין תאורה בכביש הזה שמוביל לפארק הגדול של רמות"}},{"type":"Feature","geometry":{"type":"Point","coordinates":[34.799622232094414,31.28014429444196]},"properties":{"survey_category":"walkability_barrier","question":"נקודת חסם לגבי הליכתיות בטוחה ונעימה","neighborhood":"רמות","comment":"בדרך לספורטיב יש כיכר בה יש מאפייה ומכולת. למרות שיש מקומות חנייה רבים במרחק של עד 2 דקות הליכה משם, אנשים חונים על מעבר החצייה, חוסמים את הכיכר, לעיתים גם עולים על המדרכה בכדי להשתמש בשירותי החנויות הללו"}},{"type":"Feature","geometry":{"type":"Point","coordinates":[34.803212285041816,31.27944945926395]},"properties":{"survey_category":"walkability_barrier","question":"נקודת חסם לגבי הליכתיות בטוחה ונעימה","neighborhood":"רמות","comment":"גרים ברחוב"}},{"type":"Feature","geometry":{"type":"Point","coordinates":[34.809823930263526,31.26945434114013]},"properties":{"survey_category":"walkability_barrier","question":"נקודת חסם לגבי הליכתיות בטוחה ונעימה","neighborhood":"רמות","comment":"אין מעברי חצייה ליד בית הספר"}},{"type":"Feature","geometry":{"type":"Point","coordinates":[34.798096453305334,31.2870321867133]},"properties":{"survey_category":"walkability_barrier","question":"נקודת חסם לגבי הליכתיות בטוחה ונעימה","neighborhood":"רמות","comment":"אזור מסוכן מאוד לחצייה וליציאה עם רכבים מאחר ואין שדה ראייה"}},{"type":"Feature","geometry":{"type":"Point","coordinates":[34.80342071773812,31.28172228384115]},"properties":{"survey_category":"walkability_barrier","question":"נקודת חסם לגבי הליכתיות בטוחה ונעימה","neighborhood":"רמות","comment":"כיכר עם ראות בעייתית. נהגים לא עוצרים המעבר חציה"}},{"type":"Feature","geometry":{"type":"Point","coordinates":[34.80542198522017,31.288795587608195]},"properties":{"survey_category":"walkability_barrier","question":"נקודת חסם לגבי הליכתיות בטוחה ונעימה","neighborhood":"רמות","comment":""}},{"type":"Feature","geometry":{"type":"Point","coordinates":[34.802523208782084,31.28180274647205]},"properties":{"survey_category":"walkability_barrier","question":"נקודת חסם לגבי הליכתיות בטוחה ונעימה","neighborhood":"רמות","comment":"נוסעים מהר בכיכר"}},{"type":"Feature","geometry":{"type":"Point","coordinates":[34.803308149991636,31.282406422199763]},"properties":{"survey_category":"walkability_barrier","question":"נקודת חסם לגבי הליכתיות בטוחה ונעימה","neighborhood":"רמות","comment":"בכל המעברים להולכי רגל מהרחוב הפנימי המובילים לרחוב הראשי (לוי אשכול) אין רמפות, רק מדרגות, כך שאין מעבר עם עגלה/טיולון (שלא לדבר על כיסא גלגלים, חלילה לא עלינו...)"}},{"type":"Feature","geometry":{"type":"Point","coordinates":[34.804364814385096,31.275232262164867]},"properties":{"survey_category":"walkability_barrier","question":"נקודת חסם לגבי הליכתיות בטוחה ונעימה","neighborhood":"רמות","comment":"עצים יוצאים מהמדרכה, מדרכה שבורה"}},{"type":"Feature","geometry":{"type":"Point","coordinates":[34.81081567704678,31.27118980803799]},"properties":{"survey_category":"walkability_barrier","question":"נקודת חסם לגבי הליכתיות בטוחה ונעימה","neighborhood":"רמות","comment":"צומת מסוכנת לילדים"}},{"type":"Feature","geometry":{"type":"Point","coordinates":[34.804850050741514,31.285279150118793]},"properties":{"survey_category":"walkability_barrier","question":"נקודת חסם לגבי הליכתיות בטוחה ונעימה","neighborhood":"רמות","comment":"אבן שפה מונמכת שבעצם מוליכה אנשים לחצות כביש אבל אין סימון מעבר חציה וגם זה בדיוק בסיבוב של הכביש ומסוכן שם מאד! אין כמעט מעברי חציה בטוחים בתחום הזה"}},{"type":"Feature","geometry":{"type":"Point","coordinates":[34.800571203231804,31.282377492050635]},"properties":{"survey_category":"walkability_barrier","question":"נקודת חסם לגבי הליכתיות בטוחה ונעימה","neighborhood":"רמות","comment":""}},{"type":"Feature","geometry":{"type":"Point","coordinates":[34.805046916008,31.28666545950731]},"properties":{"survey_category":"walkability_barrier","question":"נקודת חסם לגבי הליכתיות בטוחה ונעימה","neighborhood":"רמות","comment":"המון צואת כלבים, הליכה לא נעימה"}},{"type":"Feature","geometry":{"type":"Point","coordinates":[34.77234774136405,31.25718569870777]},"properties":{"survey_category":"walkability_barrier","question":"נקודת חסם לגבי הליכתיות בטוחה ונעימה","neighborhood":"רמות","comment":""}},{"type":"Feature","geometry":{"type":"Point","coordinates":[34.803803251124926,31.28600527889296]},"properties":{"survey_category":"walkability_barrier","question":"נקודת חסם לגבי הליכתיות בטוחה ונעימה","neighborhood":"רמות","comment":"יש שם עץ שמפריע וסיחים שצריך לגזום"}},{"type":"Feature","geometry":{"type":"Point","coordinates":[34.80729103088381,31.282988760911014]},"properties":{"survey_category":"walkability_barrier","question":"נקודת חסם לגבי הליכתיות בטוחה ונעימה","neighborhood":"רמות","comment":"בית"}},{"type":"Feature","geometry":{"type":"Point","coordinates":[34.79496923454787,31.255674357702922]},"properties":{"survey_category":"walkability_barrier","question":"נקודת חסם לגבי הליכתיות בטוחה ונעימה","neighborhood":"רמות","comment":"יש עמוד חשמל על המדרכה, אי אפשר לעבור בלי לרדת לכביש, בטח שלא עם עגלה"}},{"type":"Feature","geometry":{"type":"Point","coordinates":[34.80395056856513,31.28229134102705]},"properties":{"survey_category":"walkability_barrier","question":"נקודת חסם לגבי הליכתיות בטוחה ונעימה","neighborhood":"רמות","comment":"רכבים חונים על מדרכות, חלקים המדרכה שבורים"}},{"type":"Feature","geometry":{"type":"Point","coordinates":[34.800276160240166,31.283123239528535]},"properties":{"survey_category":"walkability_barrier","question":"נקודת חסם לגבי הליכתיות בטוחה ונעימה","neighborhood":"רמות","comment":"הרבה רכבים שחונים על המדרכה או חוסמים נתיבים וגורמים להפרעות וחסימות"}},{"type":"Feature","geometry":{"type":"Point","coordinates":[34.79942500591279,31.280201342746313]},"properties":{"survey_category":"walkability_barrier","question":"נקודת חסם לגבי הליכתיות בטוחה ונעימה","neighborhood":"רמות","comment":""}},{"type":"Feature","geometry":{"type":"Point","coordinates":[34.80758428573609,31.28697413673948]},"properties":{"survey_category":"walkability_barrier","question":"נקודת חסם לגבי הליכתיות בטוחה ונעימה","neighborhood":"רמות","comment":"חסימת הכביש ע״י הורים לצורך הורדת ילדים כך שנהגים אחרים לא יכולים לראות את הילדים"}},{"type":"Feature","geometry":{"type":"Point","coordinates":[34.79928365263614,31.281119575273525]},"properties":{"survey_category":"walkability_barrier","question":"נקודת חסם לגבי הליכתיות בטוחה ונעימה","neighborhood":"רמות","comment":"אין מעבר חצייה רכבים לא עוצרים, שלטי זכות קדימה מבלבלים משני הכיוונים"}},{"type":"Feature","geometry":{"type":"Point","coordinates":[34.79958772659304,31.275855006624774]},"properties":{"survey_category":"walkability_barrier","question":"נקודת חסם לגבי הליכתיות בטוחה ונעימה","neighborhood":"רמות","comment":""}},{"type":"Feature","geometry":{"type":"Point","coordinates":[34.82161765389633,31.27692051892253]},"properties":{"survey_category":"walkability_barrier","question":"נקודת חסם לגבי הליכתיות בטוחה ונעימה","neighborhood":"רמות","comment":"בית"}},{"type":"Feature","geometry":{"type":"Point","coordinates":[34.823799133300774,31.27590696822543]},"properties":{"survey_category":"walkability_barrier","question":"נקודת חסם לגבי הליכתיות בטוחה ונעימה","neighborhood":"רמות","comment":""}},{"type":"Feature","geometry":{"type":"Point","coordinates":[34.77036595344544,31.23601343516235]},"properties":{"survey_category":"crossing_hazard","question":"נקודת סיכון בחציית כבישים","neighborhood":"נווה זאב","comment":"כיכר נוראית, פקוקה, אנשים, רכבים, משאיות חותכות, רכבים עוצרים האמצע הדרך, הולכי רגל מכל הכיוונים, אין עוד מעברי חצייה בכביש ואנשים מתפרצים מכך מיני מקומות"}},{"type":"Feature","geometry":{"type":"Point","coordinates":[34.768268465995796,31.238802158586413]},"properties":{"survey_category":"crossing_hazard","question":"נקודת סיכון בחציית כבישים","neighborhood":"נווה זאב","comment":"מעבר חצייה בכיכר דו נתיבית - סכנת חיים - הכיכר בנויה בצורה כזאת שמאפשרת לנהגים להמשיך בנסיעה כמעט ללא האטה ולכן הם לא מרגישים צורך לתת זכות להולכי רגל"}},{"type":"Feature","geometry":{"type":"Point","coordinates":[34.76622807816438,31.238918367793122]},"properties":{"survey_category":"crossing_hazard","question":"נקודת סיכון בחציית כבישים","neighborhood":"נווה זאב","comment":"אין שדה ראייה לשני הצדדים"}},{"type":"Feature","geometry":{"type":"Point","coordinates":[34.77322518825532,31.238022425130755]},"properties":{"survey_category":"crossing_hazard","question":"נקודת סיכון בחציית כבישים","neighborhood":"נווה זאב","comment":"כל הכיכר הזאת. רכבים חונים על ההכיכר, זה מסכן מכוניות אחרות והולכי רגל. אין פיקוח וצריך לאכוף חוקים."}},{"type":"Feature","geometry":{"type":"Point","coordinates":[34.7813211469705,31.23550871570288]},"properties":{"survey_category":"crossing_hazard","question":"נקודת סיכון בחציית כבישים","neighborhood":"נווה זאב","comment":""}},{"type":"Feature","geometry":{"type":"Point","coordinates":[34.76628184318542,31.23594616230848]},"properties":{"survey_category":"crossing_hazard","question":"נקודת סיכון בחציית כבישים","neighborhood":"נווה זאב","comment":"צומת שמסביבה גני ילדים, בתי מגורים ומרכז מסחרי ואין בה מעבר חצייה בטוח ביניהם."}},{"type":"Feature","geometry":{"type":"Point","coordinates":[34.77115211502028,31.23324664656972]},"properties":{"survey_category":"crossing_hazard","question":"נקודת סיכון בחציית כבישים","neighborhood":"נווה זאב","comment":"יוסף בורג 90"}},{"type":"Feature","geometry":{"type":"Point","coordinates":[34.78446722030639,31.233261324762758]},"properties":{"survey_category":"crossing_hazard","question":"נקודת סיכון בחציית כבישים","neighborhood":"נווה זאב","comment":""}},{"type":"Feature","geometry":{"type":"Point","coordinates":[34.77500434461907,31.237004938990147]},"properties":{"survey_category":"crossing_hazard","question":"נקודת סיכון בחציית כבישים","neighborhood":"נווה זאב","comment":""}},{"type":"Feature","geometry":{"type":"Point","coordinates":[34.77002648636699,31.240173305690988]},"properties":{"survey_category":"crossing_hazard","question":"נקודת סיכון בחציית כבישים","neighborhood":"נווה זאב","comment":""}},{"type":"Feature","geometry":{"type":"Point","coordinates":[34.77751960680404,31.241461801676813]},"properties":{"survey_category":"crossing_hazard","question":"נקודת סיכון בחציית כבישים","neighborhood":"נווה זאב","comment":""}},{"type":"Feature","geometry":{"type":"Point","coordinates":[34.77650779024459,31.238854905028933]},"properties":{"survey_category":"crossing_hazard","question":"נקודת סיכון בחציית כבישים","neighborhood":"נווה זאב","comment":""}},{"type":"Feature","geometry":{"type":"Point","coordinates":[34.77902865658953,31.236081652349416]},"properties":{"survey_category":"crossing_hazard","question":"נקודת סיכון בחציית כבישים","neighborhood":"נווה זאב","comment":"אין מעברי חצייה מסודרים ברחוב"}},{"type":"Feature","geometry":{"type":"Point","coordinates":[34.767596355187266,31.233030975220164]},"properties":{"survey_category":"crossing_hazard","question":"נקודת סיכון בחציית כבישים","neighborhood":"נווה זאב","comment":"אין מעבר חצייה בין הבניינים לבית ספר וגנים"}},{"type":"Feature","geometry":{"type":"Point","coordinates":[34.77149782684805,31.232976075368896]},"properties":{"survey_category":"crossing_hazard","question":"נקודת סיכון בחציית כבישים","neighborhood":"נווה זאב","comment":"אי אפשר לחצות ברגל"}},{"type":"Feature","geometry":{"type":"Point","coordinates":[34.772132072175744,31.237513014908256]},"properties":{"survey_category":"crossing_hazard","question":"נקודת סיכון בחציית כבישים","neighborhood":"נווה זאב","comment":"מעבר חציה לא מוגדר ולא מסומן היטב לחציית תלמידיים לכיוון בית הספר נווה שלום ובחזרה, כביש ראשי ונהגים לא מעטים.. כדאי מאד להסדיר איזה מעבר זה שיהיה רישמי, כל בית הספר חוצה שם."}},{"type":"Feature","geometry":{"type":"Point","coordinates":[34.799044760875404,31.277750535830588]},"properties":{"survey_category":"crossing_hazard","question":"נקודת סיכון בחציית כבישים","neighborhood":"רמות","comment":"במקום הזה לעיתים חונים על המדרכות או באמצע הכביש כדי להגיע לחנויות, הראות לא טובה ולעיתים קרובות הנהגים לא מאטים"}},{"type":"Feature","geometry":{"type":"Point","coordinates":[34.821457093469824,31.277888987308327]},"properties":{"survey_category":"crossing_hazard","question":"נקודת סיכון בחציית כבישים","neighborhood":"רמות","comment":"יש מעבר חצייה אבל לא תמיד עוצרים שם. לפעמים בגלל שלא רואים בזמן הולך רגל"}},{"type":"Feature","geometry":{"type":"Point","coordinates":[34.79900712868193,31.27784710220949]},"properties":{"survey_category":"crossing_hazard","question":"נקודת סיכון בחציית כבישים","neighborhood":"רמות","comment":"מעבר שאינו בטוח"}},{"type":"Feature","geometry":{"type":"Point","coordinates":[34.80412602424624,31.28672047136527]},"properties":{"survey_category":"crossing_hazard","question":"נקודת סיכון בחציית כבישים","neighborhood":"רמות","comment":"מכוניות מתקרבות במהירות מפחידה למעבר החצייה בדרך לכביש המהיר, שדה הראייה לא רחב כלל להולכי רגל"}},{"type":"Feature","geometry":{"type":"Point","coordinates":[34.802937840577215,31.272529652401293]},"properties":{"survey_category":"crossing_hazard","question":"נקודת סיכון בחציית כבישים","neighborhood":"רמות","comment":"אין מעבר חציה ואין שדה ראיה טוב למכוניות שמגיעות מהעיקול לאיטים במהירות גבוהה. משמש בעיקר \n למעבר של תושבי הרחובות הסמוכים להגיע עם הילדים לגן השעשועים מעבר לכביש"}},{"type":"Feature","geometry":{"type":"Point","coordinates":[34.79903445113451,31.277836544743913]},"properties":{"survey_category":"crossing_hazard","question":"נקודת סיכון בחציית כבישים","neighborhood":"רמות","comment":"כביש סואן עם זוויות ראייה מוגבלות בגלל שהוא בשיפוע משמעותי. אפילו ברכב אני מנסה להמנע מהצומת הזה"}},{"type":"Feature","geometry":{"type":"Point","coordinates":[34.80231642723084,31.27910102342244]},"properties":{"survey_category":"crossing_hazard","question":"נקודת סיכון בחציית כבישים","neighborhood":"רמות","comment":"שמו שם רמזורים לאחרונה אבל עדיין אנשים נוהגים כמו משוגעים יש שם ירידה עד הרמזור יש שם פניה ימינה שפעם ו מישהו עושה על המדרכה יש גם אופנועים שבגלל שאין במפרים לאחר הרמזור הם נותנים גס וזה מפחיד את כולנו וזה בלתי נסבל"}},{"type":"Feature","geometry":{"type":"Point","coordinates":[34.80102112982423,31.282715212616427]},"properties":{"survey_category":"crossing_hazard","question":"נקודת סיכון בחציית כבישים","neighborhood":"רמות","comment":""}},{"type":"Feature","geometry":{"type":"Point","coordinates":[34.80439029442154,31.284469122462703]},"properties":{"survey_category":"crossing_hazard","question":"נקודת סיכון בחציית כבישים","neighborhood":"רמות","comment":""}},{"type":"Feature","geometry":{"type":"Point","coordinates":[34.804877747965904,31.285218917705503]},"properties":{"survey_category":"crossing_hazard","question":"נקודת סיכון בחציית כבישים","neighborhood":"רמות","comment":"עיכול מסוכן , יש ירידה לכביש כביכול להולכי רגל כולם חוצים אבל אין מעבר חציה"}},{"type":"Feature","geometry":{"type":"Point","coordinates":[34.80407159775496,31.28689908060728]},"properties":{"survey_category":"crossing_hazard","question":"נקודת סיכון בחציית כבישים","neighborhood":"רמות","comment":"נהגים מגיעים מהר מאוד"}},{"type":"Feature","geometry":{"type":"Point","coordinates":[34.80475544929504,31.283010155249368]},"properties":{"survey_category":"crossing_hazard","question":"נקודת סיכון בחציית כבישים","neighborhood":"רמות","comment":"מעבר חצייה מחוק"}},{"type":"Feature","geometry":{"type":"Point","coordinates":[34.802566505010965,31.27802187779116]},"properties":{"survey_category":"crossing_hazard","question":"נקודת סיכון בחציית כבישים","neighborhood":"רמות","comment":"אנשים טסים שם בפניות ועל הכבישים בכלל"}},{"type":"Feature","geometry":{"type":"Point","coordinates":[34.80099349049852,31.282631930210478]},"properties":{"survey_category":"crossing_hazard","question":"נקודת סיכון בחציית כבישים","neighborhood":"רמות","comment":"לא מאטים בכניסה לכיכר"}},{"type":"Feature","geometry":{"type":"Point","coordinates":[34.80631889199686,31.286700470923403]},"properties":{"survey_category":"crossing_hazard","question":"נקודת סיכון בחציית כבישים","neighborhood":"רמות","comment":"הרחוב בעיקול, לרכבים אין שדה ראיה גם בגלל רכבים חונים וגם בגלל הזווית של הכביש . נוסעים מהר . יש גם אוטובוסים. מסוכן מאד"}},{"type":"Feature","geometry":{"type":"Point","coordinates":[34.803387419592674,31.2816125855677]},"properties":{"survey_category":"crossing_hazard","question":"נקודת סיכון בחציית כבישים","neighborhood":"רמות","comment":"אנשים נוסעים כמו משוגעים בכל השכונה, גם בכיכרות - בכיכר הזאת ספציפית לרוב לא עוצרים להולכי רגל (פעם כמעט דרסו אותי כשהייתי באמצע המעבר חצייה) \nבדרך כלל כשאני עם עגלה/טיולון נותנים לי זכות קדימה במעבר חצייה ברוב הכיכרות בשכונה, אבל בזאת משום מה .לרוב לא, בעיקר בכיוון מ/אל נחום שריג"}},{"type":"Feature","geometry":{"type":"Point","coordinates":[34.80457645060724,31.27451370730602]},"properties":{"survey_category":"crossing_hazard","question":"נקודת סיכון בחציית כבישים","neighborhood":"רמות","comment":"נהגים נוסעים במהירות גבוהה"}},{"type":"Feature","geometry":{"type":"Point","coordinates":[34.80959175154567,31.26672734978015]},"properties":{"survey_category":"crossing_hazard","question":"נקודת סיכון בחציית כבישים","neighborhood":"רמות","comment":"ברחוב יצחק יצחק מודעי אין מדרכה להולכי רגל  הילדים ואנשים הולכים על הכביש מסוכן ולא בטיחותי הכביש"}},{"type":"Feature","geometry":{"type":"Point","coordinates":[34.80396978461964,31.284012016450617]},"properties":{"survey_category":"crossing_hazard","question":"נקודת סיכון בחציית כבישים","neighborhood":"רמות","comment":"כמו ברוב השכונה, הרחוב מוזנח ולא מטופח. מרספות שבורות, עקומות או לא קיימות. ערוגות עצים ללא עצים. מדרכות צרות. גינות מוזנחות. מעברים ציבוריים מטונפים. מעקות שבורות ויחסית חשוך."}},{"type":"Feature","geometry":{"type":"Point","coordinates":[34.80586767196656,31.28586778395997]},"properties":{"survey_category":"crossing_hazard","question":"נקודת סיכון בחציית כבישים","neighborhood":"רמות","comment":"מעבר מסוכן כי מכוניות לא מאטות"}},{"type":"Feature","geometry":{"type":"Point","coordinates":[34.82164331227328,31.276225870430693]},"properties":{"survey_category":"crossing_hazard","question":"נקודת סיכון בחציית כבישים","neighborhood":"רמות","comment":"כל הכביש של האנדרטה - הוא ארוך מאוד ממעבר חצייה אחד לשני. בדיוק בחלק הכי רחב והכי מסוכן- אין מעגל תנועה / מעבר חצייה. אנחנו והורים רבים \n אחרים נאלצים לחצות לעבר הגן שנמצא באברהם אמיר 12)נעמת אגוז( עם הילדים, אני חוצה עם 2 ילדיח קטנים. בנקודה הזאת רכבים נוסעים בצורה מאוד צהירה, וזה ממש סכנת חיים. כל בוקר מחדש אני חוששת מהחצייה הזאת. כמו כן, אין במפרים אן שום דבר אחר שיאט את הנסיעה לאורך הכביש הזה. פנינו לעירייה מספר פעמים וזכינו לחוסר יחס וחוסר טיפול. כוסות רוח למת."}},{"type":"Feature","geometry":{"type":"Point","coordinates":[34.799248749148404,31.281168982750966]},"properties":{"survey_category":"crossing_hazard","question":"נקודת סיכון בחציית כבישים","neighborhood":"רמות","comment":"מכוניות נוסעות מאוד מהר, כביש רחב ואין אי תנועה במרכז"}},{"type":"Feature","geometry":{"type":"Point","coordinates":[34.804830320568975,31.282923145209136]},"properties":{"survey_category":"crossing_hazard","question":"נקודת סיכון בחציית כבישים","neighborhood":"רמות","comment":"אין מעברי חציה, אין באמפרים"}},{"type":"Feature","geometry":{"type":"Point","coordinates":[34.80755209922791,31.28686716949623]},"properties":{"survey_category":"crossing_hazard","question":"נקודת סיכון בחציית כבישים","neighborhood":"רמות","comment":"חסימת הכביש ע״י הורים מונעת שדה ראיה לנהגים אחרים"}},{"type":"Feature","geometry":{"type":"Point","coordinates":[34.797911464584075,31.281754427264623]},"properties":{"survey_category":"crossing_hazard","question":"נקודת סיכון בחציית כבישים","neighborhood":"רמות","comment":"גינה ממש מוזנחת, דשא לא מכוסח, זכוכיות שלא אוספים, קקי, מתקן לא מתוחזק, פוטנציאל מבוזבז מאוד"}},{"type":"Feature","geometry":{"type":"Point","coordinates":[34.821587844262496,31.275633308349025]},"properties":{"survey_category":"crossing_hazard","question":"נקודת סיכון בחציית כבישים","neighborhood":"רמות","comment":"אין מעבר חציה לגן"}},{"type":"Feature","geometry":{"type":"Point","coordinates":[34.77139592170716,31.23441722089507]},"properties":{"survey_category":"loved_place","question":"מקום בשכונה אהוב במיוחד","neighborhood":"נווה זאב","comment":"פארק האגדות, לצערנו בעתות מלחמה הוא סגור ואז הילדים אין להם מתקנים לשחק בהם. מאוד אוהבים את הסקייט פארק הקטן במתחם. צריך עוד כאלו בעיר ובשכונה. אין לנו מרחב של כדרוסל או כדורגל בשכונה"}},{"type":"Feature","geometry":{"type":"Point","coordinates":[34.78408301649446,31.25316644914474]},"properties":{"survey_category":"loved_place","question":"מקום בשכונה אהוב במיוחד","neighborhood":"נווה זאב","comment":"פארק האגדות"}},{"type":"Feature","geometry":{"type":"Point","coordinates":[34.76414859294892,31.237655489512814]},"properties":{"survey_category":"loved_place","question":"מקום בשכונה אהוב במיוחד","neighborhood":"נווה זאב","comment":"פארק פנים שכונתי שקט עם מתקנים מגוונים אך גם פה מלא בחרא של כלבים בכל מקום"}},{"type":"Feature","geometry":{"type":"Point","coordinates":[34.76668677219846,31.24099512442351]},"properties":{"survey_category":"loved_place","question":"מקום בשכונה אהוב במיוחד","neighborhood":"נווה זאב","comment":"יש פה ספסל שמאפשר לראות טוב כלי תחבורה שהילד מתעניין ולומד לדבר עליהם"}},{"type":"Feature","geometry":{"type":"Point","coordinates":[34.771135747432716,31.234784169090908]},"properties":{"survey_category":"loved_place","question":"מקום בשכונה אהוב במיוחד","neighborhood":"נווה זאב","comment":"אחלה פארק."}},{"type":"Feature","geometry":{"type":"Point","coordinates":[34.77056980133057,31.235230620807286]},"properties":{"survey_category":"loved_place","question":"מקום בשכונה אהוב במיוחד","neighborhood":"נווה זאב","comment":"פארק גדול ובטוח"}},{"type":"Feature","geometry":{"type":"Point","coordinates":[34.78293299674987,31.236196906338535]},"properties":{"survey_category":"loved_place","question":"מקום בשכונה אהוב במיוחד","neighborhood":"נווה זאב","comment":""}},{"type":"Feature","geometry":{"type":"Point","coordinates":[34.787082569673665,31.2346835496365]},"properties":{"survey_category":"loved_place","question":"מקום בשכונה אהוב במיוחד","neighborhood":"נווה זאב","comment":"קרוב לנחל, כיף לרכב באופניים, יש נוף טוב, מעניין"}},{"type":"Feature","geometry":{"type":"Point","coordinates":[34.77064622333273,31.239391711280955]},"properties":{"survey_category":"loved_place","question":"מקום בשכונה אהוב במיוחד","neighborhood":"נווה זאב","comment":""}},{"type":"Feature","geometry":{"type":"Point","coordinates":[34.77047681808471,31.235279546894496]},"properties":{"survey_category":"loved_place","question":"מקום בשכונה אהוב במיוחד","neighborhood":"נווה זאב","comment":"פארק האגדות\nממש נקי\nאווירה נעימה לשבת ולעשות פיקניק עם הילדים או סתם לשבת \nהמקום האהוב אלינו בשכונה"}},{"type":"Feature","geometry":{"type":"Point","coordinates":[34.769687045194544,31.241114661098027]},"properties":{"survey_category":"loved_place","question":"מקום בשכונה אהוב במיוחד","neighborhood":"נווה זאב","comment":""}},{"type":"Feature","geometry":{"type":"Point","coordinates":[34.77192804107872,31.234173238974286]},"properties":{"survey_category":"loved_place","question":"מקום בשכונה אהוב במיוחד","neighborhood":"נווה זאב","comment":"זה באמת פארק מושקע ונעים"}},{"type":"Feature","geometry":{"type":"Point","coordinates":[34.769087586763405,31.232799191697236]},"properties":{"survey_category":"loved_place","question":"מקום בשכונה אהוב במיוחד","neighborhood":"נווה זאב","comment":"פארק הקופים - גינה שקטה ליד הגן"}},{"type":"Feature","geometry":{"type":"Point","coordinates":[34.769761076639675,31.232795753671923]},"properties":{"survey_category":"loved_place","question":"מקום בשכונה אהוב במיוחד","neighborhood":"נווה זאב","comment":"פארק משחקים שלא חוצים כבישיפ"}},{"type":"Feature","geometry":{"type":"Point","coordinates":[34.77054232636875,31.239380526915326]},"properties":{"survey_category":"loved_place","question":"מקום בשכונה אהוב במיוחד","neighborhood":"נווה זאב","comment":"פארק במתחם אביגדור בפארק, הפרק מתחת לבית וללא כבישים, יש דשא, יש מתקנים,  יחסית מתוחזק,  נקיון לקוי."}},{"type":"Feature","geometry":{"type":"Point","coordinates":[34.81919428888016,31.276103420904963]},"properties":{"survey_category":"loved_place","question":"מקום בשכונה אהוב במיוחד","neighborhood":"רמות","comment":"פארק גדול, הרבה מדשאות, יש גם שטח די גדול לרכיבת אופניים/קורקינט"}},{"type":"Feature","geometry":{"type":"Point","coordinates":[34.80459613542733,31.277856844806042]},"properties":{"survey_category":"loved_place","question":"מקום בשכונה אהוב במיוחד","neighborhood":"רמות","comment":"פארק המשחקים"}},{"type":"Feature","geometry":{"type":"Point","coordinates":[34.81888175010682,31.27613315368312]},"properties":{"survey_category":"loved_place","question":"מקום בשכונה אהוב במיוחד","neighborhood":"רמות","comment":"פארק מקסים ונעים, רחב, חסר צל במתקנים עצמם"}},{"type":"Feature","geometry":{"type":"Point","coordinates":[34.82144491514192,31.273290563981956]},"properties":{"survey_category":"loved_place","question":"מקום בשכונה אהוב במיוחד","neighborhood":"רמות","comment":"פארק באנדרטה, יש פה הרבה מרחב ולא המוני יש מקום לחקור דברים וגם לרוץ ולרכב על אופניים שטחים פתוחים למשחק כדורגל וגם גן שעשועים. יכול להעסיק מגוון של גילאים"}},{"type":"Feature","geometry":{"type":"Point","coordinates":[34.8047365131788,31.277783855898868]},"properties":{"survey_category":"loved_place","question":"מקום בשכונה אהוב במיוחד","neighborhood":"רמות","comment":"פארק המשחקים עם הרבה מרחב, למרות שהוא במצב מוזנח וחלק מהמתקנים שבורים ולא עוברים תיקונים, הילדים מאוד נהנים לבלות שם וזה מותאם גם לגדולים יותר"}},{"type":"Feature","geometry":{"type":"Point","coordinates":[34.79950278997422,31.287343936845502]},"properties":{"survey_category":"loved_place","question":"מקום בשכונה אהוב במיוחד","neighborhood":"רמות","comment":"זה פארק קטן עם מלא ילדים רואים שהפארק שמור ויש שם צל וספסלים לשבת קרובה לידלים"}},{"type":"Feature","geometry":{"type":"Point","coordinates":[34.80631103868765,31.28375293692402]},"properties":{"survey_category":"loved_place","question":"מקום בשכונה אהוב במיוחד","neighborhood":"רמות","comment":""}},{"type":"Feature","geometry":{"type":"Point","coordinates":[34.80592172222091,31.278597682151617]},"properties":{"survey_category":"loved_place","question":"מקום בשכונה אהוב במיוחד","neighborhood":"רמות","comment":"פארק המשחקים מקום מקסים לילדים עם מדשאות ושבילים מסודרים"}},{"type":"Feature","geometry":{"type":"Point","coordinates":[34.822832643985755,31.276822404672245]},"properties":{"survey_category":"loved_place","question":"מקום בשכונה אהוב במיוחד","neighborhood":"רמות","comment":"מפגש עם עוד ילדים קרוב יחסית לבית"}},{"type":"Feature","geometry":{"type":"Point","coordinates":[34.79653580579907,31.282800169369768]},"properties":{"survey_category":"loved_place","question":"מקום בשכונה אהוב במיוחד","neighborhood":"רמות","comment":"טיילת נחמדה"}},{"type":"Feature","geometry":{"type":"Point","coordinates":[34.804601506121905,31.283019849557316]},"properties":{"survey_category":"loved_place","question":"מקום בשכונה אהוב במיוחד","neighborhood":"רמות","comment":"קרוב לבית, מגודר, לרוב פנוי"}},{"type":"Feature","geometry":{"type":"Point","coordinates":[34.80670221615583,31.28860604069555]},"properties":{"survey_category":"loved_place","question":"מקום בשכונה אהוב במיוחד","neighborhood":"רמות","comment":"גן שעשועים לילדים"}},{"type":"Feature","geometry":{"type":"Point","coordinates":[34.80413622962646,31.278692273193165]},"properties":{"survey_category":"loved_place","question":"מקום בשכונה אהוב במיוחד","neighborhood":"רמות","comment":"יש הרבה מקום פנוי והרבה אטרקציות"}},{"type":"Feature","geometry":{"type":"Point","coordinates":[34.803535155951984,31.280250779806522]},"properties":{"survey_category":"loved_place","question":"מקום בשכונה אהוב במיוחד","neighborhood":"רמות","comment":"גינה שקטה ונקייה יחסית"}},{"type":"Feature","geometry":{"type":"Point","coordinates":[34.80762298293813,31.285811025606378]},"properties":{"survey_category":"loved_place","question":"מקום בשכונה אהוב במיוחד","neighborhood":"רמות","comment":"פארק בטיחותי בלי אפשרות לרות לכביש"}},{"type":"Feature","geometry":{"type":"Point","coordinates":[34.807271650570335,31.28630515745772]},"properties":{"survey_category":"loved_place","question":"מקום בשכונה אהוב במיוחד","neighborhood":"רמות","comment":"קרוב לבית"}},{"type":"Feature","geometry":{"type":"Point","coordinates":[34.804598940897236,31.27987797305176]},"properties":{"survey_category":"loved_place","question":"מקום בשכונה אהוב במיוחד","neighborhood":"רמות","comment":"יש גן שעשועים קטן עם מתקנים שלצידו יש דשא, מצרך מאוד נדיר בשכונה. גם כאן לא אידיאלי - רוב המדשאה בשיפוע די תלול, וחבל כי קשה לילדים לרוץ שם. בשאר המקומות שיש דשא בקרבתי הוא לצד כבישים כך שאי אפשר לתת לילדים להתרוצץ עליו בלב שקט."}},{"type":"Feature","geometry":{"type":"Point","coordinates":[34.80632345907317,31.27579724378584]},"properties":{"survey_category":"loved_place","question":"מקום בשכונה אהוב במיוחד","neighborhood":"רמות","comment":"אין מכוניות"}},{"type":"Feature","geometry":{"type":"Point","coordinates":[34.81038954108954,31.271212572216847]},"properties":{"survey_category":"loved_place","question":"מקום בשכונה אהוב במיוחד","neighborhood":"רמות","comment":"מקום מושלם לבילוי עם הילדים"}},{"type":"Feature","geometry":{"type":"Point","coordinates":[34.807349378881966,31.286267539501623]},"properties":{"survey_category":"loved_place","question":"מקום בשכונה אהוב במיוחד","neighborhood":"רמות","comment":"זו גינה נחמדה מאוד. המועדפת בשכונה. חבל שהיא טיפה רחוקה אבל בהחלט נחמדה. דרוש רק יותר תחזוקה."}},{"type":"Feature","geometry":{"type":"Point","coordinates":[34.80748504400254,31.28620702610943]},"properties":{"survey_category":"loved_place","question":"מקום בשכונה אהוב במיוחד","neighborhood":"רמות","comment":"פארק הפירטים, מגוון מתקנים. אך לא מוצל מספיק."}},{"type":"Feature","geometry":{"type":"Point","coordinates":[34.81882810592652,31.2763134903486]},"properties":{"survey_category":"loved_place","question":"מקום בשכונה אהוב במיוחד","neighborhood":"רמות","comment":"פארק נעים"}},{"type":"Feature","geometry":{"type":"Point","coordinates":[34.81995276793532,31.27692239940549]},"properties":{"survey_category":"loved_place","question":"מקום בשכונה אהוב במיוחד","neighborhood":"רמות","comment":"שקט וקרוב"}},{"type":"Feature","geometry":{"type":"Point","coordinates":[34.8051291005686,31.286040359946252]},"properties":{"survey_category":"loved_place","question":"מקום בשכונה אהוב במיוחד","neighborhood":"רמות","comment":"אני אוהבת ללכת למשחקים האלו עם ילדיי נשמח אם תוכלו לרענן אותם ולחדש"}},{"type":"Feature","geometry":{"type":"Point","coordinates":[34.799333609298586,31.280105351858094]},"properties":{"survey_category":"loved_place","question":"מקום בשכונה אהוב במיוחד","neighborhood":"רמות","comment":"שטח גדול להסתובב בו"}},{"type":"Feature","geometry":{"type":"Point","coordinates":[34.8048815512693,31.277498087352146]},"properties":{"survey_category":"loved_place","question":"מקום בשכונה אהוב במיוחד","neighborhood":"רמות","comment":"פארק מגודר, מסודר, אין גישה לכלי רכב לאיזור המשחקים"}},{"type":"Feature","geometry":{"type":"Point","coordinates":[34.8044049025337,31.277544180944627]},"properties":{"survey_category":"loved_place","question":"מקום בשכונה אהוב במיוחד","neighborhood":"רמות","comment":"פארק סגור ובטוח למשחק עם הילדים"}},{"type":"Feature","geometry":{"type":"Point","coordinates":[34.80738759040835,31.286393455960145]},"properties":{"survey_category":"loved_place","question":"מקום בשכונה אהוב במיוחד","neighborhood":"רמות","comment":"יש הרבה מתקנים וזה קרוב לבית אבל חסר הצללה וניקיון"}},{"type":"Feature","geometry":{"type":"Point","coordinates":[34.80017003937843,31.282121193718147]},"properties":{"survey_category":"loved_place","question":"מקום בשכונה אהוב במיוחד","neighborhood":"רמות","comment":"גינה יפה ונעימה, מוגנת יחסית מגישה לכביש, עם עצים ודשא, לעיתים קרובות יש שם זכוכיות שבורות גרפיטי וקקי של כלבים"}},{"type":"Feature","geometry":{"type":"Point","coordinates":[34.80362892150878,31.280183004196118]},"properties":{"survey_category":"loved_place","question":"מקום בשכונה אהוב במיוחד","neighborhood":"רמות","comment":"פארק נחמד וגדול"}},{"type":"Feature","geometry":{"type":"Point","coordinates":[34.82281287244275,31.276852866284557]},"properties":{"survey_category":"loved_place","question":"מקום בשכונה אהוב במיוחד","neighborhood":"רמות","comment":"גינה נחמדה חבל שיש כביש קרוב ללא מחסום לילדים"}},{"type":"Feature","geometry":{"type":"Point","coordinates":[34.82416033744813,31.276671106106082]},"properties":{"survey_category":"loved_place","question":"מקום בשכונה אהוב במיוחד","neighborhood":"רמות","comment":"פארק מאוד אהוב, למרות שאין בו יותר. מדי, אבל הם נפגשים שם עם חברים. הפארק מאוד פופלארי בקרב ילדי השכונה. היה ראוי אם היה נקי יותר, חדש יותר. המתקנים מלפני 20 שנים לפחות."}},{"type":"Feature","geometry":{"type":"Point","coordinates":[34.80422347784043,31.2546568714055]},"properties":{"survey_category":"community_anchor","question":"עוגן קהילתי - מקום מפגש/שייכות","neighborhood":"נווה זאב","comment":"מתנס התקווה, רחבה ליד הגנים המונטסורים, נפגשים כל חברי הקהילה המונטסורית בעיר"}},{"type":"Feature","geometry":{"type":"Point","coordinates":[34.76988852024079,31.234995163658134]},"properties":{"survey_category":"community_anchor","question":"עוגן קהילתי - מקום מפגש/שייכות","neighborhood":"נווה זאב","comment":"מתנס ופארק אגדות"}},{"type":"Feature","geometry":{"type":"Point","coordinates":[34.76984292268754,31.234981403157256]},"properties":{"survey_category":"community_anchor","question":"עוגן קהילתי - מקום מפגש/שייכות","neighborhood":"נווה זאב","comment":""}},{"type":"Feature","geometry":{"type":"Point","coordinates":[34.769750833511374,31.234918716405588]},"properties":{"survey_category":"community_anchor","question":"עוגן קהילתי - מקום מפגש/שייכות","neighborhood":"נווה זאב","comment":""}},{"type":"Feature","geometry":{"type":"Point","coordinates":[34.76985339724691,31.23494929531404]},"properties":{"survey_category":"community_anchor","question":"עוגן קהילתי - מקום מפגש/שייכות","neighborhood":"נווה זאב","comment":""}},{"type":"Feature","geometry":{"type":"Point","coordinates":[34.769563212424785,31.232228345385284]},"properties":{"survey_category":"community_anchor","question":"עוגן קהילתי - מקום מפגש/שייכות","neighborhood":"נווה זאב","comment":"פארק הקופים, בית חבד"}},{"type":"Feature","geometry":{"type":"Point","coordinates":[34.77868775837124,31.23529416738049]},"properties":{"survey_category":"community_anchor","question":"עוגן קהילתי - מקום מפגש/שייכות","neighborhood":"נווה זאב","comment":""}},{"type":"Feature","geometry":{"type":"Point","coordinates":[34.770619862247266,31.23942949713754]},"properties":{"survey_category":"community_anchor","question":"עוגן קהילתי - מקום מפגש/שייכות","neighborhood":"נווה זאב","comment":""}},{"type":"Feature","geometry":{"type":"Point","coordinates":[34.76990461349488,31.23500739521282]},"properties":{"survey_category":"community_anchor","question":"עוגן קהילתי - מקום מפגש/שייכות","neighborhood":"נווה זאב","comment":"מרכז קהילתי פלח 5\n יש המון פעילויות לגיל הרך בזכות קירי הרכזת המדהימה של השכונה"}},{"type":"Feature","geometry":{"type":"Point","coordinates":[34.7697693379336,31.234843081344245]},"properties":{"survey_category":"community_anchor","question":"עוגן קהילתי - מקום מפגש/שייכות","neighborhood":"נווה זאב","comment":""}},{"type":"Feature","geometry":{"type":"Point","coordinates":[34.769734211224666,31.23484152701445]},"properties":{"survey_category":"community_anchor","question":"עוגן קהילתי - מקום מפגש/שייכות","neighborhood":"נווה זאב","comment":"כשיש פעילויות זה שם אבל אין המון"}},{"type":"Feature","geometry":{"type":"Point","coordinates":[34.77068012156512,31.239355421436226]},"properties":{"survey_category":"community_anchor","question":"עוגן קהילתי - מקום מפגש/שייכות","neighborhood":"נווה זאב","comment":"מתנס שכונתי"}},{"type":"Feature","geometry":{"type":"Point","coordinates":[34.82139386622518,31.27783063471178]},"properties":{"survey_category":"community_anchor","question":"עוגן קהילתי - מקום מפגש/שייכות","neighborhood":"רמות","comment":"קהילת רמות שלום"}},{"type":"Feature","geometry":{"type":"Point","coordinates":[34.779035808990045,31.257375684938015]},"properties":{"survey_category":"community_anchor","question":"עוגן קהילתי - מקום מפגש/שייכות","neighborhood":"רמות","comment":"הגן של הקהילה שלנו"}},{"type":"Feature","geometry":{"type":"Point","coordinates":[34.82121357461438,31.277740864859897]},"properties":{"survey_category":"community_anchor","question":"עוגן קהילתי - מקום מפגש/שייכות","neighborhood":"רמות","comment":"מרחב הורים וילדים באנדרטה"}},{"type":"Feature","geometry":{"type":"Point","coordinates":[34.800130531657494,31.280497875175364]},"properties":{"survey_category":"community_anchor","question":"עוגן קהילתי - מקום מפגש/שייכות","neighborhood":"רמות","comment":""}},{"type":"Feature","geometry":{"type":"Point","coordinates":[34.806669841054834,31.288598000388248]},"properties":{"survey_category":"community_anchor","question":"עוגן קהילתי - מקום מפגש/שייכות","neighborhood":"רמות","comment":"בפארק למרות שלאחרונה יש בעיה של בני נוער שמשתוללים עם אופניים חשמלים ופנינו לעירייה וזה לא טופל"}},{"type":"Feature","geometry":{"type":"Point","coordinates":[34.80024480827638,31.280519822263056]},"properties":{"survey_category":"community_anchor","question":"עוגן קהילתי - מקום מפגש/שייכות","neighborhood":"רמות","comment":"יש הרבה חוגים ופעילויות"}},{"type":"Feature","geometry":{"type":"Point","coordinates":[34.769798329814904,31.235161106988684]},"properties":{"survey_category":"community_anchor","question":"עוגן קהילתי - מקום מפגש/שייכות","neighborhood":"רמות","comment":"מרכז קהילתי פלח 5 - ממש לא בשכונה שלי (רמות), אך כאן מתקיימים מפגשים קבועים של החינוך הביתי בכל יום רביעי, בהם אני לוקחת חלק כבר שנים על אף שמעולם לא גרתי בשכונה.\nלצערי ברמות המפגשים של החינוך הביתי לא היו עקביים, ואולי מהסיבה הזו גם כשהתקיימו לא הייתה בהם תחושת קהילה (על אף שהכרתי הרבה מהאימהות שנכחו בהם ממפגשים בשכונות אחרות)"}},{"type":"Feature","geometry":{"type":"Point","coordinates":[34.80191250031333,31.28227592194352]},"properties":{"survey_category":"community_anchor","question":"עוגן קהילתי - מקום מפגש/שייכות","neighborhood":"רמות","comment":"מרכז קהילתי רמות"}},{"type":"Feature","geometry":{"type":"Point","coordinates":[34.79997855947318,31.280590119115466]},"properties":{"survey_category":"community_anchor","question":"עוגן קהילתי - מקום מפגש/שייכות","neighborhood":"רמות","comment":""}},{"type":"Feature","geometry":{"type":"Point","coordinates":[34.80020552873612,31.280632297649507]},"properties":{"survey_category":"community_anchor","question":"עוגן קהילתי - מקום מפגש/שייכות","neighborhood":"רמות","comment":"רמות ספורטיב"}},{"type":"Feature","geometry":{"type":"Point","coordinates":[34.79287928451152,31.25642557083036]},"properties":{"survey_category":"community_anchor","question":"עוגן קהילתי - מקום מפגש/שייכות","neighborhood":"רמות","comment":"פארק הסופרים"}},{"type":"Feature","geometry":{"type":"Point","coordinates":[34.79995429515838,31.280592564301124]},"properties":{"survey_category":"community_anchor","question":"עוגן קהילתי - מקום מפגש/שייכות","neighborhood":"רמות","comment":"מרכז קהילתי עם פעילות לילדים וג׳ימבורי"}},{"type":"Feature","geometry":{"type":"Point","coordinates":[34.80734825134278,31.286210082339462]},"properties":{"survey_category":"community_anchor","question":"עוגן קהילתי - מקום מפגש/שייכות","neighborhood":"רמות","comment":""}}]}
